{"type":"FeatureCollection","features":[{"type":"Feature","geometry":{"type":"Polygon","coordinates":[[[-93.225461999931042,37.092474000058516],[-93.225280000356179,37.092472000159056],[-93.224893999668467,37.092453000036691],[-93.224678999583332,37.092419999888342],[-93.224523999772615,37.092414999777731],[-93.223830000011674,37.092370000200667],[-93.223559999674933,37.092370000200667],[-93.222940000432146,37.092349999743142],[-93.222736000217651,37.092344000034778],[-93.222122999749232,37.092326000190283],[-93.221920000257953,37.09231999976349],[-93.221476999668852,37.092305000127489],[-93.220452000370102,37.092271000320522],[-93.220150000246292,37.092261999673603],[-93.219708000380436,37.092248000337108],[-93.219539000326037,37.092243000215156],[-93.218591999946781,37.092211999881727],[-93.218519999976749,37.09220999997536],[-93.21845999970229,37.09220999997536],[-93.2181149999208,37.092197000224353],[-93.217170000089681,37.092160000149114],[-93.215245000267331,37.092098999714594],[-93.214640000194834,37.092080000215283],[-93.214129999658596,37.092069999948912],[-93.214061999886525,37.092068000038779],[-93.21385799967203,37.092062000308083],[-93.213789999899973,37.092059999681219],[-93.213707000059287,37.092055999860378],[-93.213601999578984,37.092052000039338],[-93.213038000412681,37.092030999900615],[-93.212999999879543,37.092030000303325],[-93.21285000009172,37.092030000303325],[-93.2125610003867,37.0920219999417],[-93.21169699984813,37.091998000285002],[-93.211408999968043,37.091989999920052],[-93.211039999897096,37.091979999641815],[-93.210870000017778,37.091979999641815],[-93.210208999868797,37.091954999656913],[-93.210155000340436,37.091954000058621],[-93.210098000439032,37.091952000145433],[-93.209330000159923,37.091939999948664],[-93.209228000052676,37.091934000207885],[-93.209197000090526,37.091932000294165],[-93.209150000234871,37.091929999663819],[-93.209104000204107,37.091927999749998],[-93.209074000066877,37.091927999749998],[-93.208631000376101,37.091914999950632],[-93.20730200040542,37.091879000053623],[-93.206950000052913,37.091870000076653],[-93.206859999641239,37.091859999782578],[-93.206503000164176,37.091845999655256],[-93.205539999891386,37.09180999972547],[-93.205435000309393,37.091805000291181],[-93.205079999583845,37.091789999836664],[-93.205050000344926,37.091789999836664],[-93.205010000161948,37.091789999836664],[-93.204963000306293,37.091787999919156],[-93.204933999993983,37.091787000318661],[-93.204743000198263,37.091778999931435],[-93.204169999912835,37.091757000116118],[-93.203979999942021,37.091750000043291],[-93.203244000348278,37.091721999745417],[-93.202090000279782,37.091679999995776],[-93.201035999770397,37.091649999750878],[-93.200300000176654,37.091629999819851],[-93.200275000062291,37.091629000217274],[-93.200201000442448,37.091625999976323],[-93.200177000153019,37.091625999976323],[-93.199299000269022,37.091598999952183],[-93.196667000266956,37.091521000067296],[-93.196610000365538,37.091519999746716],[-93.195790000207907,37.091499999781377],[-93.195006000035264,37.091477000280534],[-93.194410000183609,37.091459999834932],[-93.192656000065497,37.091401999803402],[-93.191872999717745,37.091377000344451],[-93.191712000059283,37.091370999842461],[-93.19167000022648,37.091370000236473],[-93.191230000010407,37.091361999805223],[-93.191070000176865,37.09135999987641],[-93.190844000221048,37.091354000089652],[-93.190166000353614,37.09133600001006],[-93.189940000397812,37.091330000221404],[-93.189911999910393,37.091330000221404],[-93.189828000244802,37.091330000221404],[-93.189799999757412,37.091330000221404],[-93.189583999847343,37.091321000179292],[-93.188936000117138,37.091297000300543],[-93.188720000207084,37.091290000185225],[-93.18853000023627,37.091290000185225],[-93.187982999890096,37.091266999904022],[-93.187799999591988,37.091259999785933],[-93.187611000344432,37.091259999785933],[-93.187500000016342,37.091259999785933],[-93.187047000279804,37.091244999940116],[-93.186859999783749,37.091239999751977],[-93.186623999782213,37.091235000280086],[-93.185916999602455,37.091219999712806],[-93.185682000324121,37.091215000239593],[-93.185572999645856,37.091211999982235],[-93.185459999667955,37.091210000049472],[-93.185247999955848,37.091202999926125],[-93.185140000000828,37.091199999668291],[-93.184966999748454,37.091195000193764],[-93.18445100026274,37.091182000268653],[-93.184278999835286,37.091177999684952],[-93.184216999911001,37.091175999751279],[-93.184031000138162,37.091171000275153],[-93.183970000038798,37.091169999949955],[-93.183730999664192,37.091162000214112],[-93.183389000255744,37.091149000283338],[-93.181269000439741,37.091098999757115],[-93.179415999689098,37.091050000241246],[-93.178269000191619,37.091019000136313],[-93.178198000046521,37.091017999809097],[-93.177330000208286,37.090989999957337],[-93.176506999677599,37.090969999852184],[-93.174380000188876,37.090919999924395],[-93.174041000255173,37.090910000221477],[-93.173309999785971,37.090890000095207],[-93.173220000272607,37.090890000095207],[-93.173173000416952,37.090884999883642],[-93.173119999815185,37.090879999671806],[-93.17273700039884,37.090805999650435],[-93.172600000131496,37.090779999664463],[-93.172420000206444,37.090760000220413],[-93.172260000372887,37.090760000220413],[-93.171909999670206,37.090749999779867],[-93.171410999902903,37.090743999944863],[-93.170969000037033,37.090738999723662],[-93.170805000005501,37.090736999778414],[-93.170312999910919,37.09073099994233],[-93.170149999704279,37.090730000327895],[-93.169789999854174,37.090730000327895],[-93.169250999903923,37.090721000214522],[-93.167860000008972,37.090699999706963],[-93.167490000113119,37.090699999706963],[-93.167353999670681,37.090697000145816],[-93.166556999977558,37.090684000135276],[-93.165828999881427,37.090673000069451],[-93.165659999827028,37.090669999790691],[-93.165634999712651,37.090669000175396],[-93.165560000267917,37.090667000228351],[-93.165535999978474,37.090667000228351],[-93.165509000214286,37.090665999896487],[-93.16542999967325,37.090663000333983],[-93.165403999733996,37.090663000333983],[-93.165360000251383,37.090662000002069],[-93.16526999983968,37.09066000005479],[-93.165228000006891,37.090658999722834],[-93.165185000349183,37.090658999722834],[-93.164951999822364,37.090656999775462],[-93.164253000038542,37.090650999933111],[-93.164020000410034,37.090650000317616],[-93.16389900003621,37.090647999653427],[-93.163539000186091,37.090641999810309],[-93.163420000360418,37.090639999862546],[-93.163339000169557,37.090639999862546],[-93.163097000320221,37.090639999862546],[-93.16301699995428,37.090639999862546],[-93.162969000273705,37.090639999862546],[-93.16282699998348,37.090639999862546],[-93.16278000012781,37.090639999862546],[-93.162447999866785,37.090637999914676],[-93.161451999982063,37.090630999738437],[-93.161119999721038,37.09063000012268],[-93.160553000181693,37.090624999893961],[-93.158855000140065,37.090611000255066],[-93.158599999871925,37.090609999922464],[-93.158470000175583,37.090600000178696],[-93.158290000250531,37.090600000178696],[-93.158265000136183,37.090598999845952],[-93.158192000341259,37.090598000229768],[-93.158168000051802,37.090598000229768],[-93.157854000232447,37.090591999666159],[-93.156912999700992,37.0905749997386],[-93.156599999706529,37.090570000222833],[-93.1563510001845,37.090566000323356],[-93.155606000369929,37.09055500024045],[-93.155357999774495,37.090551999956979],[-93.154966999962241,37.090546000106308],[-93.153800000373266,37.09052999978551],[-93.153403999639835,37.090523000315876],[-93.153012999827581,37.090516000129057],[-93.151840000390848,37.090495999898764],[-93.151450000403486,37.090490000043602],[-93.150929999821486,37.090490000043602],[-93.15075699956914,37.090486000139954],[-93.148681000134061,37.090443999705251],[-93.147989999847823,37.090430000032924],[-93.147879000418072,37.090426999744494],[-93.147549999631778,37.090420999883925],[-93.147440000026933,37.090420000265397],[-93.14683199958138,37.090403000299254],[-93.14635999957828,37.090390000238287],[-93.145008000041386,37.090362000154492],[-93.144399999595848,37.090349999705893],[-93.144249999808011,37.090339999927821],[-93.144216000371131,37.090339000308227],[-93.14366400000209,37.090332000104418],[-93.143479999879077,37.090330000148427],[-93.142651000398914,37.090309999869035],[-93.140165999811614,37.090251999673946],[-93.140040000313235,37.090249999715844],[-93.139338000156343,37.090237999966149],[-93.139122000246289,37.090234000049151],[-93.138475000341003,37.090222999918055],[-93.138260000255841,37.090220000338022],[-93.138235000141478,37.090219000000253],[-93.138159999798418,37.090217000041278],[-93.13813499968407,37.090217000041278],[-93.137789999902552,37.090209999826158],[-93.137763000138378,37.090209000204851],[-93.136646999704723,37.090198999691573],[-93.136275999983965,37.090196000110595],[-93.135649999995053,37.090190000231736],[-93.133669999921139,37.090139999789322],[-93.13341899985096,37.090139000167092],[-93.131233999737645,37.090076999915837],[-93.130248999723534,37.090048999716409],[-93.129129999815163,37.090029999703134],[-93.129020000210303,37.090025999775158],[-93.128882999942931,37.090021000223167],[-93.128549999857015,37.090010000061163],[-93.128475000412251,37.090008000096674],[-93.128338999969827,37.090006000132128],[-93.128287999916196,37.090004999791596],[-93.128135999580223,37.090002000202929],[-93.128086000249823,37.090000999862291],[-93.128025000150444,37.089998999897567],[-93.127844000400501,37.089996000308659],[-93.127784000126042,37.089994999967942],[-93.127599000178108,37.089991000038111],[-93.127044000334323,37.089979999871744],[-93.126859000386403,37.089977000282104],[-93.126524999577228,37.089970000044858],[-93.125525000392855,37.089949999670459],[-93.125192000306924,37.089943999772075],[-93.124969999650759,37.089939999839601],[-93.124660000029365,37.089939999839601],[-93.124229000034148,37.08992899966578],[-93.123370000416742,37.08991000033901],[-93.121342999588848,37.089853999806408],[-93.120439999590502,37.08983000017966],[-93.120381999864193,37.089828999836804],[-93.120242000122104,37.089826000241175],[-93.120000000272768,37.089820000332978],[-93.119950999868976,37.089815000050805],[-93.119744000179722,37.089807999798602],[-93.118509999745299,37.089792999665406],[-93.11764699992996,37.08976999964645],[-93.117280000407149,37.089759999791838],[-93.116359999792053,37.089730000220058],[-93.115900000382823,37.089709999782329],[-93.115359999709369,37.08969000005591],[-93.114544999574576,37.089674999899344],[-93.114250000021798,37.089670000324212],[-93.113803000133061,37.089659000111254],[-93.112999999693841,37.089640000000209],[-93.111580000384862,37.0895979998133],[-93.110950000198031,37.089580000033166],[-93.110839999694861,37.089580000033166],[-93.110822000151515,37.089580000033166],[-93.110767999724828,37.089580000033166],[-93.110750000181497,37.089580000033166],[-93.110547999616813,37.089574000105486],[-93.109941999719396,37.089556000319647],[-93.109740000053037,37.08954999967353],[-93.109457000195817,37.089541000136563],[-93.108607999725848,37.089516000063718],[-93.108400000211702,37.089510000130971],[-93.108325999693534,37.089510000130971],[-93.108295999556333,37.089510000130971],[-93.108209000415997,37.089510000130971],[-93.108180000103687,37.089510000130971],[-93.108105999585518,37.089506999806126],[-93.107884999652569,37.089500000242055],[-93.107811999857645,37.089498000264108],[-93.107501000411347,37.089487000026189],[-93.107289999625834,37.089479999743631],[-93.106569000100706,37.089463999914372],[-93.106258999580987,37.089457999977512],[-93.104979999839017,37.089430000265978],[-93.104329999560676,37.08940999974908],[-93.103609999860453,37.089389000311364],[-93.103412000392055,37.089385000349608],[-93.101946999978949,37.089354999912779],[-93.101814999734472,37.089352000298391],[-93.101792000168246,37.089350999949176],[-93.101722999672958,37.089350000316536],[-93.101700000106732,37.089350000316536],[-93.101433000143047,37.089341999672037],[-93.1006899999783,37.089319999865857],[-93.100634999726708,37.089317999883164],[-93.100368999587928,37.08931300028447],[-93.099361000007605,37.089290999753331],[-93.097360000017289,37.089249999723521],[-93.096337000368379,37.089223999920378],[-93.09532999971465,37.089200000094131],[-93.094842999642935,37.089192000150341],[-93.094080000285004,37.089180000233128],[-93.093384999800833,37.089162000353717],[-93.092900000277254,37.089149999715154],[-93.092559999620306,37.089139999778745],[-93.092363999801719,37.089135999803794],[-93.090756000171794,37.089109000325664],[-93.090219999696274,37.089100000019798],[-93.089990000440821,37.089100000019798],[-93.089771000157697,37.089094000054118],[-93.088760000204331,37.089070000186751],[-93.088427999943306,37.089064999855104],[-93.087980000229663,37.089060000239733],[-93.087816000198131,37.089058000250169],[-93.087324000103536,37.089052000281221],[-93.087160000072018,37.089050000291444],[-93.086905999628812,37.08904600031174],[-93.086144000095786,37.089033999654816],[-93.085889999652579,37.089029999674253],[-93.085706000427876,37.089027999683907],[-93.085154000058822,37.089021999712578],[-93.084969999935794,37.089019999722012],[-93.084812999576968,37.089015999740724],[-93.084340999573854,37.089007000140342],[-93.084184999938245,37.089003999795644],[-93.084050000219051,37.089001000167364],[-93.083644000338168,37.088991999848609],[-93.08351000044388,37.088989999857255],[-93.083451999819232,37.089003999795644],[-93.080604999732003,37.088993999839914],[-93.070429000076174,37.088761000140323],[-93.070188999876635,37.08875599978829],[-93.069930000308887,37.088749999795432],[-93.069606000443784,37.08874799979769],[-93.068629999752204,37.088739999806187],[-93.068582999896549,37.088739000165496],[-93.06638000023986,37.08869999983613],[-93.066100999682291,37.088697999837116],[-93.065273999851939,37.088693999838831],[-93.065192999661093,37.093330999770863],[-93.065158000399293,37.09529299970287],[-93.065123000239211,37.097196000280725],[-93.065052000094099,37.101181999762218],[-93.065017999758908,37.103146000201363],[-93.065016000109082,37.103277999933965],[-93.065015000284163,37.10329300026352],[-93.065002999690293,37.105113000294267],[-93.064994000367761,37.106649000179253],[-93.064982999598811,37.108437000286166],[-93.064975999926105,37.109687999840958],[-93.064975000101185,37.109935000033154],[-93.064985000146947,37.110101999889402],[-93.064997999667412,37.110333999799195],[-93.0649900001698,37.110471000252026],[-93.06496099985749,37.11061300008334],[-93.064940999766009,37.11132200020144],[-93.064924999872474,37.112556000085661],[-93.064899999758126,37.113215999697495],[-93.064888000062552,37.113281999772084],[-93.06488200021478,37.113734999871404],[-93.064888999887458,37.113991999997417],[-93.064872000169046,37.114576000229356],[-93.064859999575148,37.114960999743978],[-93.064823999590132,37.115730000062797],[-93.064823999590132,37.115778000092014],[-93.064822999765241,37.115864000068242],[-93.064810000244748,37.116679999996506],[-93.064810000244748,37.116694999820716],[-93.064802999673731,37.117100999663911],[-93.064790000153266,37.117889999904079],[-93.064789000328346,37.11791000006572],[-93.064761999665862,37.119210999908539],[-93.064758000366211,37.119280000350059],[-93.064750999795208,37.119416999659641],[-93.064719000008154,37.120160999857696],[-93.064718000183234,37.12018899967233],[-93.064717000358328,37.120209999884651],[-93.064713000160367,37.120298999662424],[-93.064698000091752,37.121064999693658],[-93.06468999969583,37.121546999738648],[-93.064652000061002,37.123746000004125],[-93.064630000319696,37.12497200035488],[-93.064276000317378,37.140263999736511],[-93.064255000400976,37.141142999845378],[-93.064211999844957,37.143110999919941],[-93.064137000400194,37.14685600025723],[-93.064056000209334,37.150248000279468],[-93.064027999721944,37.151419999780764],[-93.063799000291397,37.160943999678587],[-93.06378099984974,37.161688000345265],[-93.063778000374995,37.161780999734717],[-93.063778000374995,37.16181399972151],[-93.063768000329262,37.162222999772112],[-93.063681000290615,37.165919000231597],[-93.063636000084784,37.16777700026423],[-93.063530999604481,37.172178000230716],[-93.06347999955085,37.174328999663089],[-93.063255000318264,37.183743000286505],[-93.063253999595048,37.183776999804067],[-93.063244000447625,37.18421299971218],[-93.063149000013055,37.188223999905098],[-93.063241000074569,37.188324999759566],[-93.063266000188918,37.188604000143556],[-93.063270000386879,37.188769999798275],[-93.063261000166037,37.189083999707826],[-93.063271000211799,37.18918499984337],[-93.063309999671532,37.189279999946727],[-93.063029000362462,37.195387000054374],[-93.062906000338813,37.198770999759354],[-93.062890000445279,37.202521000017938],[-93.062891000270199,37.202643000286301],[-93.062880000399545,37.202660000085181],[-93.062865000330916,37.2045870000305],[-93.062870000353797,37.205349999903703],[-93.06262900032938,37.213376000251685],[-93.062536000442961,37.216457000082208],[-93.06253100042008,37.216563999954253],[-93.062528999871944,37.216670999674534],[-93.062527000222119,37.216757000095228],[-93.062526000397213,37.216843999797149],[-93.062506000305717,37.217812000097318],[-93.06247299979546,37.219392999885592],[-93.062471999970541,37.219451999877464],[-93.062445000206353,37.220756999768703],[-93.062189000113321,37.232888000277519],[-93.062142000257651,37.235117000258839],[-93.06213999970953,37.235218000299966],[-93.062114999595167,37.236490000338016],[-93.061937000218236,37.24486400020745],[-93.061831999737933,37.250011000283195],[-93.061825000065255,37.251045000221104],[-93.061842999608601,37.251156000342654],[-93.061861000050271,37.25131300008718],[-93.061911000278982,37.251931000216118],[-93.061911000278982,37.25216400000987],[-93.06185699985231,37.252225000066993],[-93.061749999722181,37.252257000229605],[-93.061726000331049,37.252257000229605],[-93.0615549997285,37.265597999648961],[-93.061542000208036,37.268868000157596],[-93.061541000383116,37.268952000136323],[-93.061533999812099,37.268971000237634],[-93.061541000383116,37.269804999735896],[-93.061541000383116,37.269831999760711],[-93.066719000173563,37.269684000273593],[-93.067008999703475,37.269683000164981],[-93.067391000193211,37.269682000056356],[-93.068542999713571,37.269838999792029],[-93.06866699956214,37.269856000171778],[-93.068782999913083,37.26987199972671],[-93.069548999644056,37.269975999967834],[-93.070013999974464,37.269950000099733],[-93.072914999590068,37.270000000332999],[-93.076293999954871,37.270050999921928],[-93.076779000376746,37.270040000209747],[-93.076776999828624,37.270236000299569],[-93.076777999653544,37.270412000047507],[-93.076776999828624,37.270422000321417],[-93.076775000178799,37.270598999731071],[-93.076770999980837,37.270745000090031],[-93.076746999691409,37.272086999881942],[-93.076745000041583,37.272206000336247],[-93.076621000193015,37.279096000251208],[-93.076618999644879,37.279109000036669],[-93.076603999576264,37.280858999979323],[-93.076585000208013,37.280863999779967],[-93.076550999872808,37.280959000217422],[-93.076520999735592,37.281561000187146],[-93.0765140000629,37.282032999801935],[-93.076500999644097,37.282581000305257],[-93.076539000177263,37.283104999924042],[-93.076529999956421,37.283685000158293],[-93.076519000085753,37.283714000052697],[-93.076488999948552,37.285465000028246],[-93.076384000366559,37.291494999660124],[-93.076377999620448,37.291870999923766],[-93.076375000145717,37.291995000320945],[-93.076374000320797,37.292081999653448],[-93.076360999902022,37.292828999860774],[-93.076346999658313,37.293334999712748],[-93.076336999612579,37.293920000069193],[-93.076331999589698,37.294222999832492],[-93.076324000092086,37.294679000069799],[-93.076312000396527,37.295384999770675],[-93.076241000251429,37.299678000249365],[-93.076175000129183,37.303501999867962],[-93.07616799955818,37.303903999718344],[-93.07616400025853,37.304159000349188],[-93.076161999710379,37.304282000134158],[-93.07616400025853,37.304321000006581],[-93.075975999937555,37.3149350001109],[-93.07594499997542,37.316321000243676],[-93.075868999807426,37.319753000021805],[-93.075856000286947,37.320747000057153],[-93.07569100043051,37.327446999851013],[-93.075682000209667,37.327807000281304],[-93.075406000025168,37.339637999810932],[-93.075349999948642,37.34210099988524],[-93.075248999666329,37.344933000242555],[-93.075236999970741,37.345015999738962],[-93.07529800007012,37.345128000351011],[-93.07531599961348,37.345567999760711],[-93.075313000138735,37.346035999783119],[-93.075308999940773,37.346950999658681],[-93.075269999582716,37.347639999872946],[-93.075278999803544,37.347676999814375],[-93.075303999917892,37.347812999847825],[-93.075150999757028,37.350918999701705],[-93.075108000099334,37.352401000065953],[-93.075042999801994,37.355204000227644],[-93.075036999954222,37.355403000240344],[-93.075011000014939,37.356564000216636],[-93.075004000342247,37.356916000172959],[-93.074923000151387,37.360364000105882],[-93.074908000082786,37.361071999710212],[-93.074810000173485,37.365195000206612],[-93.07480900034858,37.365248000033695],[-93.074764000142736,37.367112999937206],[-93.074756999571719,37.367471999903074],[-93.074815000196352,37.367849999689057],[-93.074815000196352,37.368067999780109],[-93.074795000104885,37.368969000085372],[-93.074790999906924,37.369168000009324],[-93.074718999936891,37.371348999982217],[-93.07471499973893,37.371454000002416],[-93.074709999716063,37.371607000013512],[-93.074662000035474,37.373178000244515],[-93.074660000385663,37.37337699971188],[-93.074650000339929,37.373390000329579],[-93.074648999616699,37.373467999704985],[-93.074642999768912,37.374316000310607],[-93.074621000027605,37.374873999853691],[-93.074626999875377,37.374957999932057],[-93.074631000073339,37.375019999793537],[-93.074657000012621,37.37556599970015],[-93.074663999685313,37.375700999758486],[-93.074661000210583,37.37576800034762],[-93.074656000187701,37.375887000202333],[-93.074616000004724,37.376861999795466],[-93.074616000004724,37.377167000180933],[-93.074588000415645,37.37755899965542],[-93.0745430002098,37.378413000237778],[-93.074532000339147,37.378438000349064],[-93.074486000308383,37.37854599999163],[-93.074477000087569,37.378577999961614],[-93.074475000437744,37.378647999669852],[-93.074471000239768,37.37877000020859],[-93.074448999600165,37.379512000030118],[-93.074344000018172,37.382976999987903],[-93.074277999895926,37.385198000305451],[-93.07425600015462,37.385894999777896],[-93.07411800006237,37.390466999657789],[-93.074024000351031,37.393604999723813],[-93.073819000311616,37.400414000336191],[-93.073728000075036,37.4034220003402],[-93.07361599992204,37.407206000281846],[-93.073379999920462,37.414989000197686],[-93.073740999595486,37.414847000164961],[-93.07377099973273,37.414847999769158],[-93.074898999861944,37.4148690000168],[-93.075168000373779,37.414870000334254],[-93.075718000194684,37.414872999859476],[-93.075751999631578,37.414899999861973],[-93.075831000172585,37.414930999694263],[-93.075991000006169,37.414948999683119],[-93.077226000265512,37.414928999774524],[-93.078094000103746,37.414915999938145],[-93.078176999944418,37.414915000334808],[-93.079957999826703,37.414919999778263],[-93.080273000369303,37.414924000331666],[-93.081568999829685,37.41493999968926],[-93.083061000006992,37.414964999748825],[-93.084861000155854,37.414994000349708],[-93.084878999699214,37.414994000349708],[-93.085056000149521,37.41499699986997],[-93.085677000115538,37.415023000225865],[-93.08597000001852,37.415030999894519],[-93.089376999972401,37.415105000356291],[-93.090629999775103,37.415105999957042],[-93.090830999616557,37.41510900018632],[-93.09214500041692,37.415125999818379],[-93.092199999770187,37.415127000132351],[-93.092732999872666,37.415139000331813],[-93.093513999672268,37.415150999815857],[-93.093635999870997,37.415145999674316],[-93.094107999874097,37.415155999957065],[-93.094639000326751,37.415179000031465],[-93.095400999859763,37.415211999660521],[-93.096696000393564,37.415243999676186],[-93.097585999973091,37.41525799976786],[-93.099519000191364,37.415285000345122],[-93.100493000334794,37.415271999856976],[-93.101608999870137,37.41531000028953],[-93.104156000381735,37.415356000336686],[-93.107775999872629,37.415452000157963],[-93.108083000019292,37.415454999659886],[-93.109690999649246,37.415470000021557],[-93.110626000332928,37.415480000261034],[-93.111411000330477,37.415482999761785],[-93.112434999804307,37.415514000066331],[-93.113259999984848,37.415531999915025],[-93.114106999906667,37.415544999644489],[-93.11502999999648,37.415568000312945],[-93.115325000447569,37.415572000118296],[-93.115373000128159,37.415572999712808],[-93.116338999875666,37.415586999743034],[-93.11693599955224,37.415595000064947],[-93.118503000072607,37.415593000162879],[-93.118861000272901,37.415600000176454],[-93.119037999824911,37.415598000274585],[-93.119348000344615,37.415621999807165],[-93.119503999980239,37.415693999785674],[-93.119966999762497,37.415702999688932],[-93.125218000246193,37.415791999784012],[-93.132441000407908,37.415876999984427],[-93.133515000110435,37.415889999654063],[-93.138184000087847,37.415944000343089],[-93.138984999978916,37.416144000045435],[-93.140240000329754,37.41616899970311],[-93.140320999622304,37.416171000303237],[-93.14040199981315,37.416171999889819],[-93.140532000407802,37.416175000076386],[-93.14437299983166,37.416256999659019],[-93.144443000151853,37.416257999957892],[-93.144512999573763,37.416259999842147],[-93.144880999819776,37.416266999793379],[-93.14497200005637,37.416268999677442],[-93.145063000292978,37.41627100027484],[-93.145168999699877,37.416273000158803],[-93.145346999975089,37.416276999926446],[-93.145511999831555,37.416283000291003],[-93.145890999948222,37.416299000071739],[-93.149964000073979,37.416463000302684],[-93.156433000200252,37.41672400008629],[-93.158128999693744,37.416793000270729],[-93.158199000013951,37.416795000140702],[-93.158286999877504,37.416798999880477],[-93.159346000409741,37.416783000206564],[-93.159917000147061,37.416798000302265],[-93.161097000154811,37.416803000333516],[-93.161432999715473,37.416810000234008],[-93.16227399978952,37.416842000280361],[-93.163248999757883,37.416857999941662],[-93.163513000246837,37.416866999705057],[-93.164405000374515,37.416867999995823],[-93.164923000408365,37.416879000339222],[-93.165803999767078,37.416913000222905],[-93.166064000058071,37.416918000246433],[-93.166741000100572,37.416932000025248],[-93.167469000196718,37.41694099977974],[-93.1675389996186,37.416942000069525],[-93.167969999613817,37.416942999645812],[-93.168260000042054,37.416958999998968],[-93.16895700017605,37.416979999654714],[-93.169552000202813,37.416977999789694],[-93.17001300033526,37.416997999864577],[-93.170303999690091,37.416994000135432],[-93.171217999559062,37.416999000153602],[-93.171755999684407,37.417007999900044],[-93.17272499980497,37.417034000271315],[-93.173083000005278,37.41704300001355],[-93.176359000437898,37.417079999973112],[-93.177761000203503,37.417110000042548],[-93.178301999803594,37.417116000340428],[-93.179084000326398,37.417130999655953],[-93.17923499993914,37.417135000091271],[-93.182488999732158,37.417203999897062],[-93.182612999580712,37.417255000208947],[-93.182691000296828,37.417275000209862],[-93.182718000061016,37.417278999924044],[-93.183559999959968,37.417295999777004],[-93.185160000092296,37.417310000198647],[-93.18585499967817,37.417325000188796],[-93.187639999758417,37.417365000147889],[-93.18771099990353,37.417355999730923],[-93.187829999729232,37.417290000207082],[-93.187843000148021,37.417298000347024],[-93.187976000217404,37.417342000031361],[-93.188084999997344,37.417365999718541],[-93.188239999808033,37.417385000119481],[-93.188828000162104,37.417415000066747],[-93.190035999758962,37.417423000193388],[-93.190651999702112,37.417438000160914],[-93.190964999696561,37.417461999817313],[-93.191170999560867,37.417498000001011],[-93.191250999926808,37.417509000251869],[-93.191587000385795,37.417516999654993],[-93.205488000012849,37.417840999733855],[-93.211805999628069,37.41804999969937],[-93.211941000245602,37.418054000085647],[-93.21206099989621,37.418057999758176],[-93.213015999773049,37.418089999984716],[-93.219022000117079,37.418287000275711],[-93.219074999820535,37.41828999966409],[-93.226873999742395,37.418543000209134],[-93.23034000014583,37.418657000037236],[-93.230357999689204,37.418657000037236],[-93.234819999977361,37.418803000327195],[-93.2390880000968,37.4189430001815],[-93.239817999842757,37.418941999918438],[-93.246210999801065,37.418881000257883],[-93.246492000008473,37.41887800017976],[-93.250187999667361,37.418843000210344],[-93.250348000399242,37.418846000289875],[-93.250519999928372,37.418849999920162],[-93.251044999634928,37.418860999972445],[-93.251067000274546,37.418860999972445],[-93.255051999638454,37.418948000069491],[-93.257014999993942,37.418990999948967],[-93.260801999889438,37.419074000276943],[-93.264629999792788,37.419156999799505],[-93.268893999714265,37.419214999884041],[-93.271221999942739,37.419227999687699],[-93.271508000173,37.419238000138812],[-93.272031000229745,37.419249000134101],[-93.272447999981239,37.419250999938527],[-93.273058999901522,37.419271999665021],[-93.27354000012545,37.419249999679593],[-93.275160000349274,37.419387000067388],[-93.278295000316604,37.419457999737531],[-93.280560999722482,37.419508999941385],[-93.284674000031217,37.419602000097797],[-93.291142000332584,37.419760999683412],[-93.291302000166141,37.419764999978241],[-93.298208999960352,37.419919999644833],[-93.300754999748719,37.419974000281897],[-93.301036999781019,37.419969999998237],[-93.301129999667438,37.419959999644824],[-93.30116900002551,37.419959000108861],[-93.301430000141409,37.419968999748903],[-93.301824000326704,37.419976000066917],[-93.303467999941645,37.420028999701607],[-93.304892000346882,37.420045999643776],[-93.304992999730899,37.420048000140333],[-93.306400000417696,37.420085000042128],[-93.307089000155784,37.420103999753245],[-93.307285999799277,37.420108000029742],[-93.30767699961153,37.420117999649896],[-93.308131000071285,37.420129000229366],[-93.309359999584544,37.420143999654897],[-93.310405999697991,37.420143000121385],[-93.31147299972784,37.420158000257572],[-93.312644000413101,37.420184000248689],[-93.313795000108541,37.42021999983735],[-93.315774000357564,37.420277999812001],[-93.318599999630095,37.420320000110053],[-93.320109000424125,37.420370999726849],[-93.32311799999475,37.420437000102673],[-93.323471999997082,37.42044699967888],[-93.324385999866067,37.420473000283117],[-93.324492999996195,37.420476000297384],[-93.3248529998463,37.420487000110825],[-93.325319000001628,37.420497999922638],[-93.327590000328698,37.42054400035051],[-93.328426000379864,37.420561000175766],[-93.328783999681832,37.420567999725002],[-93.33177399988422,37.420691000054937],[-93.332880000272127,37.42073100035654],[-93.334087000044065,37.420775000164213],[-93.336551999641571,37.420865000176711],[-93.33664299987818,37.420875999932996],[-93.336678000038276,37.420890999922349],[-93.344246999806387,37.421189000039426],[-93.345747000379603,37.421248000209268],[-93.347314000001646,37.421322999753414],[-93.350295999808097,37.421468999839696],[-93.350354000432731,37.421403999890202],[-93.350724000328597,37.421378000322655],[-93.350873000291514,37.421356000242497],[-93.3509999996148,37.421350000284384],[-93.351352999792226,37.421391999981125],[-93.351700000121838,37.421440000319194],[-93.351716999840278,37.42144099983544],[-93.351935000298468,37.421452999736601],[-93.3521820001707,37.421456999941043],[-93.352532999799962,37.421476000017492],[-93.354271999849459,37.421533000217764],[-93.355092999832038,37.421558999731474],[-93.356706000383156,37.421590999888892],[-93.356933000163878,37.421601000024488],[-93.35727399974742,37.4216170000959],[-93.357443999626724,37.421620000064351],[-93.35779099995635,37.421636000131755],[-93.358654999596624,37.421658000129604],[-93.359482000325272,37.421669999996041],[-93.36004399984175,37.421700999879874],[-93.36056500024867,37.4217289997869],[-93.361789999563953,37.421778000134083],[-93.362370000420412,37.421788000244661],[-93.362924000439278,37.421801000315085],[-93.363399999742029,37.421811999933894],[-93.36382999991234,37.421822000039981],[-93.363940000415496,37.421810000197894],[-93.364349999596016,37.421832999655692],[-93.364351000319246,37.421814999894529],[-93.366637999641512,37.42186499969602],[-93.36750100035519,37.421877999753086],[-93.368329000010448,37.421899999679887],[-93.368374000216278,37.421909000264179],[-93.368415000224175,37.421916999910735],[-93.368477999973365,37.42196000022566],[-93.368589000301455,37.421937000093436],[-93.373911000031924,37.421950000138004],[-93.374581000401761,37.42196000022566],[-93.37519300014695,37.421969000089312],[-93.38143100029454,37.422047000289531],[-93.381877000358386,37.422073999846013],[-93.389344000019221,37.422322000072818],[-93.390502000285679,37.422362000216566],[-93.39511099998866,37.422520999649294],[-93.399170999695599,37.422660999686933],[-93.399153000152268,37.422673000106016],[-93.400563000313795,37.422690000161374],[-93.409701000252099,37.422815000282093],[-93.414560000200311,37.422869999755406],[-93.41463800001813,37.422893000314431],[-93.415026000355638,37.42288799997641],[-93.415765000322423,37.422899000148966],[-93.416275999785285,37.422906999689708],[-93.416875000009981,37.422920000279298],[-93.418805999680117,37.422996999993416],[-93.420399999964644,37.4230539997493],[-93.421070000334481,37.423070000223717],[-93.421075000357362,37.423090000098448],[-93.423725999727694,37.423173000163693],[-93.424401000120383,37.42319499971002],[-93.425723000418373,37.423243000319104],[-93.426554000446671,37.423277999658879],[-93.427613999905532,37.423312999695703],[-93.427969999557675,37.423319999701121],[-93.428311999864434,37.423303999993543],[-93.43661999959933,37.423537000257262],[-93.437155000249945,37.423551999713624],[-93.437229999694722,37.423554000116461],[-93.441394000057059,37.42366999985007],[-93.441502000012079,37.423672999736269],[-93.441948000075925,37.423686000192809],[-93.449151000146145,37.423888999785859],[-93.455491000400997,37.424174999923281],[-93.455699999740048,37.424184000234114],[-93.457971000067118,37.424287000068553],[-93.45972500018523,37.424366000184875],[-93.460028999958837,37.424378999807729],[-93.460107999601561,37.42438199966552],[-93.461928999666824,37.424469999958127],[-93.461985999568242,37.424468999768948],[-93.462101999919184,37.424474000001389],[-93.463023000359186,37.424469999958127],[-93.463308999691137,37.424471000147285],[-93.473089000410155,37.424521000315472],[-93.47379700041482,37.424543000179099],[-93.475999000246588,37.424593999773329],[-93.477647000059491,37.424631000282481],[-93.490422000105454,37.424920999745254],[-93.492259999889157,37.424962000110007],[-93.492352999775576,37.424963999761822],[-93.493423000178481,37.42499000022444],[-93.499934000137557,37.425139000122108],[-93.500714000112239,37.425159000157592],[-93.509281000313223,37.425375000200688],[-93.509344000062413,37.425380999836293],[-93.511632999932829,37.425390000002203],[-93.511740999887863,37.425033000201381],[-93.511755999956478,37.425045000240353],[-93.514793000014521,37.425108999702104],[-93.517113999671977,37.425179999654084],[-93.518416999703391,37.425204999862288],[-93.520241000141709,37.42527199972281],[-93.520776999718905,37.425283999723476],[-93.520780000091975,37.425250000073383],[-93.526082999555868,37.425380999836293],[-93.526840999789258,37.425374000023602],[-93.528565999595045,37.42540999997064],[-93.528604000128198,37.425416999780005],[-93.528661000029601,37.425413999963737],[-93.528690000341925,37.42540999997064],[-93.538363999857424,37.425660000195769],[-93.538717000034836,37.425627000176739],[-93.53986400043064,37.425685000243703],[-93.540754000010182,37.425725000017678],[-93.543262000163693,37.425785999810159],[-93.543482000271723,37.425800000071327],[-93.543539999998046,37.425760000337419],[-93.545581999996244,37.425846000095547],[-93.551167000390791,37.425981999660834],[-93.552840000318042,37.425980000036205],[-93.553662999950433,37.426016999860416],[-93.55445499962066,37.426024999781497],[-93.555747999606339,37.426056000002454],[-93.557465999739435,37.426089999999874],[-93.558742000006674,37.426104000204155],[-93.560112999810158,37.42613400022546],[-93.563081000271211,37.426172000140063],[-93.563084999570862,37.42620799970345],[-93.56592800035844,37.426255000355781],[-93.567746000050676,37.426263999703238],[-93.569315000220868,37.426306000210595],[-93.570458000418697,37.426319000210007],[-93.570629999947826,37.426319999661132],[-93.570636999620532,37.426340000094541],[-93.570826999591318,37.426342999873704],[-93.572379000043057,37.426371000185064],[-93.574481000315728,37.426427000062922],[-93.578709000252175,37.426499999802616],[-93.580203000079308,37.426542000177577],[-93.58049299960922,37.426548999881113],[-93.581826999602768,37.426578999724107],[-93.582624000194187,37.426596999766787],[-93.584759999903724,37.426619999894307],[-93.588802000067346,37.426712999779582],[-93.589418999835402,37.426713999938777],[-93.590493000436283,37.426710000015184],[-93.592291999861914,37.426766999798033],[-93.593799999932742,37.426789999873321],[-93.594711000326981,37.426802999788649],[-93.594819000282016,37.426806000262708],[-93.596604000362262,37.426824999695192],[-93.597312000366927,37.426842000234586],[-93.597709000026953,37.426857999899511],[-93.598776000056816,37.426895000003221],[-93.599996000247529,37.426910999656769],[-93.603163999826833,37.426991000013473],[-93.603299000444366,37.426994999922051],[-93.604204999917428,37.42699600007753],[-93.605355999612868,37.427022999989561],[-93.605783000308449,37.427047000140973],[-93.60600599989121,37.427062999762036],[-93.606188000364398,37.427072999880167],[-93.607390000113469,37.427089999649908],[-93.608382999625178,37.427131000253652],[-93.611007000129646,37.427188999868825],[-93.613172999976413,37.427209000070079],[-93.615230999868146,37.427242000105146],[-93.616405000028109,37.427276999715701],[-93.617810000166784,37.427337000232967],[-93.618228999568117,37.427353999942767],[-93.620756999813125,37.427423999756179],[-93.621152999648245,37.427423000319791],[-93.621178999587514,37.427395999838637],[-93.62119700002917,37.427375999687335],[-93.621219999595397,37.426622000215232],[-93.621226000341508,37.426406000202803],[-93.621232000189281,37.426219000101597],[-93.621238000037067,37.425994999716515],[-93.621247000257895,37.425689999681531],[-93.621257000303643,37.425339999700981],[-93.62127800022003,37.424584000037491],[-93.621304999984218,37.424073000129297],[-93.621305999809138,37.423689000078369],[-93.621332999573312,37.423135000153842],[-93.62135500021293,37.422448000310624],[-93.621366000083583,37.421762000097011],[-93.621381000152198,37.421223000106679],[-93.621386999999984,37.420865999700574],[-93.62139000037304,37.420698000305464],[-93.621403999718424,37.420251999853519],[-93.621407999916386,37.419662999884487],[-93.621459999794922,37.418857999893469],[-93.621509000198728,37.418239000057014],[-93.621539000335957,37.417771999801467],[-93.621549000381705,37.417610000144784],[-93.621556999879289,37.417300000203504],[-93.621562999727075,37.41708199983541],[-93.621563999552009,37.416758000040339],[-93.621595000412455,37.416107999924392],[-93.621629999674226,37.41557500032885],[-93.621655999613495,37.414650000100792],[-93.621662000359606,37.414343000297087],[-93.621664000009417,37.414248999705848],[-93.621662000359606,37.41412899976639],[-93.621654999788589,37.413698999772066],[-93.621655999613495,37.413647999892746],[-93.62166999985719,37.412870000198303],[-93.621670999682109,37.412804999920432],[-93.621675999704991,37.412487999765723],[-93.621698000344608,37.41183399969141],[-93.621720999910835,37.410835000030687],[-93.621710000040167,37.409997000281834],[-93.621752999697875,37.409204000298672],[-93.621754000421092,37.409180999816634],[-93.621804999576412,37.40815399976325],[-93.621829999690775,37.407601000215358],[-93.621837000261777,37.407460000151133],[-93.621829999690775,37.407075000122191],[-93.621829999690775,37.406553999905768],[-93.621850999607162,37.406077999948543],[-93.621868000223927,37.405679999941611],[-93.621880999744377,37.405630000038627],[-93.621903000384009,37.405598000197443],[-93.621937999645795,37.405580000102347],[-93.622106999700208,37.401867999816218],[-93.622201000309857,37.398954999967913],[-93.622231000447073,37.398265000090731],[-93.622274000104781,37.397270000123399],[-93.622278000302742,37.397177999913268],[-93.622281999602379,37.397086000303872],[-93.622412000197045,37.394041000148228],[-93.622445999633911,37.393090000141143],[-93.622449999831872,37.392989000019995],[-93.622453000204928,37.392914999837785],[-93.622700999902051,37.387255000217515],[-93.622784999567642,37.383729999798064],[-93.62290299956841,37.378640999773353],[-93.622972999888603,37.376050000242721],[-93.623002000200927,37.375044000186762],[-93.623189999623591,37.373311000000854],[-93.623044999858635,37.369303000159483],[-93.623039999835754,37.369176000289407],[-93.623069999972998,37.36851499979354],[-93.623119000376789,37.367853999899481],[-93.623129000422537,37.367534000240269],[-93.623291999730839,37.362573999856743],[-93.623297999578611,37.362405000128611],[-93.623927999765485,37.347561000284315],[-93.623933999613257,37.34744000020185],[-93.623946000207127,37.347167000172988],[-93.623943999658991,37.346932999766267],[-93.62394200000918,37.346574999899566],[-93.62389299960536,37.346134999963411],[-93.623863000366455,37.345859999854412],[-93.623858000343574,37.345816000343405],[-93.623905000199258,37.343813000122239],[-93.624027000398002,37.343790000289694],[-93.624120000284407,37.343703000083082],[-93.624133999629791,37.34360500010726],[-93.624096999819869,37.343507000003555],[-93.624045999766253,37.34342699979495],[-93.624002000283639,37.343311999970567],[-93.623986000390104,37.343178999892075],[-93.623987000215024,37.343153000327085],[-93.624013000154278,37.342426999994466],[-93.624070999880601,37.340881999830096],[-93.624104000390886,37.340133000158644],[-93.624128999606924,37.339548000111392],[-93.62422400004148,37.336461999986547],[-93.624270999897135,37.334840999715951],[-93.624301000034379,37.33416700012269],[-93.624333999646339,37.332950999808396],[-93.624354999562726,37.331873000136461],[-93.624372000179491,37.331079000331613],[-93.624373000004411,37.331006999804799],[-93.624373999829302,37.33096900021323],[-93.624374999654222,37.330904999654635],[-93.624377000202358,37.330815000205469],[-93.624379999677075,37.330657999844746],[-93.624427000431069,37.329395999972817],[-93.62444300032459,37.32883400001014],[-93.624445999799335,37.328741000109211],[-93.624453000370352,37.328489000121579],[-93.624489000355339,37.327228999648831],[-93.624578000043797,37.325572000142266],[-93.624610999655772,37.325436999917699],[-93.624639000143176,37.325362000164382],[-93.6244149998372,37.324748000311878],[-93.624422000408188,37.324626999906236],[-93.624600999610024,37.31947799976313],[-93.624607000356121,37.319291000098424],[-93.624635999770121,37.318620000118855],[-93.624646999640774,37.31835900032501],[-93.624680999975965,37.317220999884604],[-93.624716999960981,37.317211000114547],[-93.624749999572941,37.317174999645133],[-93.624773000037479,37.317094999969235],[-93.624799999801667,37.316920000291972],[-93.624817000418417,37.316638999904782],[-93.624814000045376,37.316296999648465],[-93.624817000418417,37.315540999839868],[-93.624841999634455,37.314760999915556],[-93.624809000022495,37.314680000303092],[-93.624824999916001,37.31466499978319],[-93.624845999832402,37.314651000200172],[-93.624874000319821,37.314557999893005],[-93.624875999969646,37.314493000132451],[-93.624902999733806,37.313705999813493],[-93.624930000396319,37.31261599965169],[-93.624978000076879,37.311382999662015],[-93.625040000001178,37.309349000257718],[-93.62505900026774,37.3084340003496],[-93.62507599998618,37.30762700024853],[-93.625118999643874,37.306794000058915],[-93.625120000367119,37.306764999772035],[-93.625127999864716,37.306132999808533],[-93.625132999887583,37.305788000029217],[-93.625195999636773,37.303787999761667],[-93.625203000207776,37.303516000097972],[-93.625274000352888,37.301772999660813],[-93.625286999873381,37.301207999866939],[-93.62532899970617,37.300262999869126],[-93.625349999622571,37.299715000231856],[-93.625362000216441,37.299396999730384],[-93.625364999691186,37.298749000169664],[-93.625364999691186,37.298703000061394],[-93.625388000155709,37.298047999972788],[-93.625409000072111,37.297394000352156],[-93.625419000117844,37.296998999654974],[-93.625452999554739,37.296270000008136],[-93.625476000019262,37.295368000154298],[-93.625476999844182,37.294809999979492],[-93.625474000369451,37.294592000167356],[-93.625470000171489,37.29426700025796],[-93.625465999973528,37.293997999820633],[-93.625507999806317,37.293156999655686],[-93.625513999654089,37.292824999941622],[-93.625513999654089,37.292810000064122],[-93.625527000072893,37.292226000175766],[-93.625551000362336,37.291819000295817],[-93.625609999913564,37.290145999696144],[-93.625633000378087,37.289172000162438],[-93.625752000203789,37.285117000078614],[-93.625799000059459,37.283491999837224],[-93.625834000219541,37.282330999845442],[-93.625838000417531,37.282216000155557],[-93.625840999892247,37.282075000320809],[-93.625841999717167,37.282046999739265],[-93.625844000265303,37.282011000303619],[-93.625684000431718,37.281971000354581],[-93.624158999744154,37.281921000209714],[-93.623228000156729,37.281901999802812],[-93.621961000110332,37.281873999871621],[-93.621945000216812,37.281873999871621],[-93.621896999637926,37.281873999871621],[-93.621881999569297,37.281874999818335],[-93.621864999850871,37.281874999818335],[-93.621813999797226,37.281874999818335],[-93.62179799990372,37.281875999764985],[-93.621664000009417,37.281877999658235],[-93.620211000190167,37.281830000060872],[-93.61545000015127,37.281674000264495],[-93.613864000262637,37.281622999972313],[-93.613730000368321,37.281650000047208],[-93.613658000398303,37.281655999744871],[-93.613490000168824,37.281668999802939],[-93.613126999945663,37.281668999802939],[-93.613092999610458,37.281667999853546],[-93.613035999709055,37.281667999853546],[-93.612681999706737,37.281662000156835],[-93.612540000314837,37.281660000257794],[-93.610767999755041,37.281607000055722],[-93.610140000116346,37.28158800028433],[-93.609210000353826,37.281560000236318],[-93.608257000126784,37.281547000159478],[-93.60763000031298,37.281539999787242],[-93.607231999929738,37.281531000226664],[-93.606041000051306,37.281504000109095],[-93.605644000391266,37.281494999829491],[-93.60553399988811,37.281491999974271],[-93.60520400017522,37.281483999645083],[-93.605095000395281,37.281481999741359],[-93.605112999938626,37.280253000240023],[-93.605169000015124,37.276569000035309],[-93.605185999733564,37.275479999925338],[-93.605194000129487,37.275341999724098],[-93.605265000274585,37.274202000132561],[-93.605482000009573,37.270785000285862],[-93.605553999979591,37.269645999711074],[-93.605529999690148,37.269639999771009],[-93.60544000017677,37.269569999958279],[-93.605430000131022,37.269509999760622],[-93.605499999552904,37.266680000110831],[-93.605499999552904,37.266009999857879],[-93.605509999598652,37.265940000245088],[-93.605523999842376,37.265502999843214],[-93.605538999910962,37.26500900006527],[-93.60554999978163,37.264309000283731],[-93.60557900009394,37.263798999695702],[-93.605600000010341,37.262339000252531],[-93.605608000406278,37.262095999808288],[-93.605610000056089,37.262050000171413],[-93.605619000276903,37.262023000216026],[-93.605625999949623,37.262000999874495],[-93.605630000147571,37.261989999701342],[-93.6056600002848,37.261959999805896],[-93.605670000330548,37.26195399996832],[-93.605690000422044,37.261942999788303],[-93.605687000048974,37.261825999983877],[-93.605677999828146,37.261475000194984],[-93.605675000353429,37.261357999663531],[-93.60551600034475,37.255780999948485],[-93.605513999796614,37.255714999870058],[-93.605509999598652,37.255638999643125],[-93.605600000010341,37.250049999681558],[-93.60567600017832,37.246588000088813],[-93.605687999873879,37.246096000097666],[-93.605727000231951,37.244618999717758],[-93.60573999975243,37.244128000191601],[-93.605742000300566,37.244018000178109],[-93.605733999904658,37.243905000081583],[-93.605691000246935,37.243239000032339],[-93.605687999873879,37.243188000166093],[-93.605697999919641,37.243016999899943],[-93.605681000201201,37.243011999731564],[-93.605991999647514,37.23266700029825],[-93.605983000324983,37.231343000213393],[-93.605981999601767,37.231287999838159],[-93.605979999951927,37.231172000254681],[-93.606003000416479,37.230362000150045],[-93.606099999602534,37.229749000146185],[-93.606129999739778,37.229560000051166],[-93.606139999785512,37.229229000192859],[-93.606138999960592,37.22860899999084],[-93.606149000006354,37.22815899977784],[-93.606179999968489,37.227509000054177],[-93.606179999968489,37.227369000029562],[-93.606184999991356,37.227101000136244],[-93.606190000014223,37.226798999851781],[-93.606199000235051,37.226498999721784],[-93.606200000059957,37.226289999963043],[-93.606200000059957,37.226149999821246],[-93.606209000280785,37.225419000101475],[-93.606229000372295,37.224677999826334],[-93.606258999611185,37.223998000152612],[-93.606245000265801,37.223519000148009],[-93.606239000418029,37.223328000157963],[-93.606258999611185,37.222917999766707],[-93.606270000380164,37.222280000207014],[-93.606369999939275,37.217910000184638],[-93.606369999939275,37.217722999914976],[-93.606369999939275,37.217509999815896],[-93.606379999985023,37.217220000117983],[-93.606379999985023,37.217166000263248],[-93.606379999985023,37.216979999672908],[-93.606386999657715,37.216714000254854],[-93.606411999772064,37.215917000056912],[-93.606420000168001,37.215651999862665],[-93.606420000168001,37.215628000069053],[-93.606422999642731,37.215559999658574],[-93.606424000365962,37.215536999947687],[-93.606424000365962,37.215515000342108],[-93.606426000015787,37.215451999680113],[-93.606426999840693,37.215431000163193],[-93.606426999840693,37.215401999730503],[-93.606430000213749,37.215339999804137],[-93.606430000213749,37.215318000141117],[-93.606430000213749,37.215289999780303],[-93.606430000213749,37.21527400008042],[-93.606430000213749,37.215226000245075],[-93.606430000213749,37.215209999816267],[-93.606430000213749,37.215039999879309],[-93.606434000411696,37.214848999880303],[-93.606460000350964,37.213819999865947],[-93.606460000350964,37.213770000265519],[-93.606460000350964,37.213410000018087],[-93.606462000000803,37.213310000240675],[-93.606470000396712,37.213060000217268],[-93.606470000396712,37.213010000113186],[-93.606470000396712,37.212909999805611],[-93.606476000244498,37.212717999988186],[-93.606493999787844,37.212141999750614],[-93.606499999635616,37.211950000125086],[-93.606519999727098,37.210790000013652],[-93.606559999910075,37.209539999944887],[-93.606561999559915,37.208988999737969],[-93.606565999757862,37.208841000220048],[-93.606569999955823,37.208549999905706],[-93.606569999955823,37.208220000345165],[-93.606590000047319,37.207710000071948],[-93.606610999963721,37.206994000317067],[-93.606640000276016,37.206079999978236],[-93.606650000321764,37.205340000294747],[-93.606668999690015,37.204845000106232],[-93.606679999560683,37.204569999950138],[-93.606689999606417,37.204129999905753],[-93.606689999606417,37.203910000352607],[-93.606708999872993,37.203413999813925],[-93.60671999974366,37.203150000344522],[-93.606766999599301,37.20126699986983],[-93.606785999865892,37.20055200011911],[-93.606786999690812,37.200497000188001],[-93.606790999888773,37.200332000154226],[-93.606793000436895,37.200277999661559],[-93.606879999577203,37.196860000196416],[-93.606925999607967,37.194409999787965],[-93.606928999981008,37.194238999826993],[-93.606928999981008,37.194008999674651],[-93.606959000118252,37.193209000314937],[-93.606949999897424,37.193070000018928],[-93.606997999577999,37.186806999878328],[-93.606999000301229,37.186761999877248],[-93.60700099995104,37.186629999767106],[-93.60700299960088,37.186586000156254],[-93.607016000019655,37.185963000100877],[-93.607149999913972,37.179723000180942],[-93.607151999563783,37.179619999814378],[-93.607153000286999,37.179524999726951],[-93.607178000401362,37.178434000344993],[-93.607197999594533,37.177554999995145],[-93.607226000081937,37.176269000135548],[-93.607310999572434,37.172414000107601],[-93.607339999884758,37.171130000038204],[-93.607399000334297,37.169352000097682],[-93.607575999886308,37.164017999828978],[-93.607635000335847,37.162240000079841],[-93.607650000404462,37.161762999931071],[-93.6076749996205,37.161042999976047],[-93.607738000268014,37.160336999959178],[-93.607754000161549,37.160169999977541],[-93.607751999613399,37.160155000179742],[-93.607781999750628,37.159862999657463],[-93.607785000123684,37.15962599982393],[-93.607795999994337,37.158916000306753],[-93.607800000192299,37.158679999801379],[-93.607830000329528,37.157279999734918],[-93.60785000042101,37.157020000038642],[-93.607848999697779,37.15674499968982],[-93.607852000070835,37.156631999886564],[-93.607836000177315,37.151954000036113],[-93.607919000017986,37.15172800025961],[-93.607919000017986,37.151568999676279],[-93.607920999667797,37.151093999999539],[-93.607922000391028,37.150935999766801],[-93.607922000391028,37.150737000241094],[-93.607924999865759,37.150139999953858],[-93.607925999690679,37.149942000030336],[-93.607932000436776,37.148528000310741],[-93.607950999805041,37.144289999981851],[-93.607958000376044,37.14287700020909],[-93.607960999850775,37.142708999970282],[-93.607971999721428,37.142206999897766],[-93.60797599991939,37.142039999972482],[-93.607982999592096,37.141678999658801],[-93.608006999881525,37.140597999899128],[-93.608016000102367,37.140238000258023],[-93.60803899966858,37.139140000188334],[-93.608109999813692,37.135847000058639],[-93.608134999928055,37.134749999746802],[-93.608154000194617,37.133867000077053],[-93.608213999570751,37.131217000320675],[-93.608233999662261,37.130335000053549],[-93.608271000370479,37.128593000059638],[-93.608349000188284,37.125052999809576],[-93.608382999625178,37.123368999955254],[-93.60841899961018,37.121627999993358],[-93.60841899961018,37.121575999680665],[-93.608421000158316,37.12142099988646],[-93.608422999808141,37.121370000074265],[-93.608425000356277,37.121278000340197],[-93.608430000379144,37.121002999682055],[-93.608432999853875,37.120912000150696],[-93.608458999793157,37.119616999869187],[-93.608538000334178,37.115732000064639],[-93.608565000098352,37.114438000021643],[-93.608571999771058,37.114089000102545],[-93.608592999687446,37.113043000042929],[-93.608601000083368,37.112695000182534],[-93.608615000327077,37.112005000262947],[-93.608657000159866,37.109936000110615],[-93.608672000228481,37.109247000212179],[-93.60868999977184,37.10834800017647],[-93.608745000023404,37.105654000205007],[-93.60876400028998,37.104755999935975],[-93.608780000183515,37.103974000060703],[-93.608827999864104,37.101627999998961],[-93.60884399975761,37.100846000072892],[-93.608854999628278,37.100306999906515],[-93.608887000313644,37.098691000268303],[-93.608899000009202,37.098153000049258],[-93.60865600033496,37.098166000211478],[-93.607927000413909,37.09820799994867],[-93.607684999666247,37.098222000333585],[-93.607659999551885,37.098222999849185],[-93.604129999574354,37.098249999662571],[-93.603849000265271,37.098249999662571],[-93.601076999622791,37.098233000020031],[-93.60050900025854,37.098228999808534],[-93.597560000064036,37.098200000239373],[-93.59711999984799,37.098200000239373],[-93.595769999960922,37.098179999887641],[-93.595749999869426,37.098179999887641],[-93.591829999904547,37.09812999970174],[-93.591718999576457,37.098127999951544],[-93.590370000412605,37.098110000048038],[-93.590059999892901,37.098110000048038],[-93.589650999638991,37.09810599983004],[-93.58793000003115,37.098089999672553],[-93.587495999662892,37.098083999702148],[-93.58677799961248,37.098074999745705],[-93.585672000122898,37.098059999815945],[-93.585650000381577,37.098059999815945],[-93.583399999970908,37.098040000143712],[-93.582354999682352,37.098028000194617],[-93.581629999959276,37.098019999749752],[-93.581250000017675,37.098019999749752],[-93.580752000075321,37.098028000194617],[-93.580639999922312,37.098029999947393],[-93.579258000248188,37.098012000020603],[-93.579019999698488,37.098010000267301],[-93.57876000030582,37.098010000267301],[-93.578196000241206,37.098006000044073],[-93.577079999807552,37.098000000067017],[-93.576610000352574,37.097989999865419],[-93.576504999872284,37.097988000111528],[-93.575941999632576,37.097982000133101],[-93.57518099992447,37.097971999929129],[-93.574970000037268,37.097970000174769],[-93.5730999995682,37.097940000270633],[-93.572899999551666,37.097937000279551],[-93.572139999668465,37.097930000061112],[-93.570942999942275,37.097931999816524],[-93.567354000413502,37.097940000270633],[-93.566157999613893,37.097943000261594],[-93.565993999582389,37.097940999789948],[-93.565504000035915,37.097937999798916],[-93.565340999829303,37.097937999798916],[-93.565242000095097,37.097937000279551],[-93.565093999957114,37.09793600004366],[-93.564944999994196,37.097934000288397],[-93.56484600025999,37.097934000288397],[-93.564319999830204,37.097930000061112],[-93.562742000337508,37.097919999850269],[-93.562215999907721,37.097916999858391],[-93.561429000260333,37.097910999874337],[-93.559068000419913,37.097895999912055],[-93.558280999874228,37.097891000162832],[-93.558249999912078,37.097859999990526],[-93.558150000352953,37.097810000309948],[-93.558059999941278,37.097800000083268],[-93.557962000031992,37.097800000083268],[-93.557859999924744,37.097800000083268],[-93.557520000166122,37.097795000327672],[-93.557170000361737,37.097789999855266],[-93.556932999636956,37.097789999855266],[-93.556590000403617,37.097789999855266],[-93.556370000295587,37.097789999855266],[-93.555709000146592,37.097774000347513],[-93.555489999863468,37.097770000111773],[-93.555446000380869,37.097770000111773],[-93.555380000258609,37.097770000111773],[-93.555314000136377,37.097770000111773],[-93.555269999755453,37.097770000111773],[-93.555191000112742,37.097770000111773],[-93.554957999585923,37.097770000111773],[-93.554879999768119,37.097770000111773],[-93.55482000039197,37.097770000111773],[-93.55452099974292,37.097767000114011],[-93.553760000034814,37.097759999879813],[-93.553447000040364,37.097755000121623],[-93.553258999719375,37.097752000123215],[-93.553089999664991,37.097749999646538],[-93.553065000448939,37.097749000124693],[-93.552990000105879,37.097749000124693],[-93.552964999991531,37.097749000124693],[-93.552889999648443,37.097747999886366],[-93.552667999890602,37.097744999887688],[-93.552594000270744,37.097744999887688],[-93.552501000384339,37.097743999649254],[-93.552221999826756,37.097740999650412],[-93.552129999765242,37.097740000128447],[-93.552104999650879,37.097740000128447],[-93.552032999680875,37.097740000128447],[-93.552009000289729,37.097740000128447],[-93.551856999953785,37.097738999889955],[-93.551400999844205,37.097737000129506],[-93.551249000406528,37.097737000129506],[-93.550845000175499,37.097734999652417],[-93.549633000380709,37.097731000131141],[-93.549229000149651,37.097729999892529],[-93.549149999608616,37.097729999892529],[-93.549086999859426,37.097728000131774],[-93.548660999887076,37.097719000133047],[-93.548520000320082,37.097716999655546],[-93.547716999880862,37.097699999893365],[-93.54717999958045,37.097689999652168],[-93.545309000184787,37.097659000114128],[-93.544760000188774,37.097650000107201],[-93.544629999594122,37.097660000353677],[-93.54456000017224,37.097680000126161],[-93.544519999989262,37.09771000013324],[-93.544502000445917,37.097698999654348],[-93.54444800001923,37.097668999642899],[-93.544429999577559,37.097660000353677],[-93.544350000109958,37.097669999882328],[-93.541319999724607,37.097630000326802],[-93.540169999854072,37.097621000316423],[-93.539767000346245,37.097642999862245],[-93.53915399987784,37.097648000344336],[-93.5381449995743,37.097680999648922],[-93.536642000424663,37.097648000344336],[-93.532134000105728,37.097552000201276],[-93.530631999882701,37.097519999648874],[-93.528788000251211,37.097478000246824],[-93.523257000283351,37.097354000238575],[-93.521413999578456,37.097313000272109],[-93.521410000278806,37.097349999980665],[-93.52138000014159,37.097360000266733],[-93.521322000415253,37.097360000266733],[-93.521299999775636,37.097360000266733],[-93.521194000368737,37.097356000009192],[-93.520990000154242,37.097349999980665],[-93.520876000351421,37.097349999980665],[-93.520770000046213,37.097349999980665],[-93.520542000440585,37.097342000180767],[-93.520180000042345,37.097330000121069],[-93.519857999827067,37.097324000090524],[-93.519630000221426,37.097319999831029],[-93.519503999824735,37.097313000272109],[-93.519384000174128,37.097307000240171],[-93.519240000234092,37.097299999963525],[-93.519126000431271,37.097299999963525],[-93.51900000003458,37.097299999963525],[-93.51891999966864,37.097298000191422],[-93.518680000367453,37.097292000158355],[-93.518600000001499,37.097289999669528],[-93.518287999831941,37.097284000352282],[-93.518250000197128,37.097283000107829],[-93.518040000134846,37.097280000090727],[-93.517199999885705,37.097263999758752],[-93.516850999906254,37.097257999722991],[-93.516434000154732,37.097249999913387],[-93.51518499965168,37.097225999762934],[-93.514768999725078,37.097217999949947],[-93.514257000437325,37.097207999645136],[-93.512720999879093,37.097178999685127],[-93.512210000416232,37.097170000337698],[-93.512183999578653,37.097169000091682],[-93.512105999760848,37.097167000316126],[-93.512079999821566,37.097167000316126],[-93.511913000315317,37.09716300004839],[-93.511750000108705,37.097160000026541],[-93.511415000372949,37.097160000026541],[-93.51140000030432,37.097160000026541],[-93.511249999618201,37.09714999971407],[-93.511109999876112,37.097140000116795],[-93.510830000391934,37.09712000020177],[-93.510780000163223,37.09712000020177],[-93.510689999751534,37.097114000154548],[-93.510550999834351,37.097106999860067],[-93.510336999574122,37.09711499968477],[-93.510240000388038,37.09712000020177],[-93.509696000414934,37.09712000020177],[-93.509519999789504,37.09712000020177],[-93.509482999979596,37.097118999955093],[-93.509417999682256,37.097117000178223],[-93.50922400041182,37.097111000130809],[-93.509159999939413,37.097109999884019],[-93.508919999739888,37.097109999884019],[-93.508868999686271,37.097109000353733],[-93.508404000254174,37.097100999811872],[-93.507999000198211,37.097094000232666],[-93.507709999594894,37.097089999961071],[-93.507439000331559,37.097089999961071],[-93.507389999927767,37.097089999961071],[-93.506629000219647,37.097074999836245],[-93.50635999970784,37.097070000032794],[-93.506310000377425,37.097059999708435],[-93.506225999813523,37.097057999930065],[-93.50582199958248,37.097053999656517],[-93.505687999688192,37.097053000125491],[-93.505491999869605,37.097050000099287],[-93.504904000413859,37.097042999798894],[-93.504709000420206,37.09704100002002],[-93.504639999924905,37.097039999772299],[-93.504371000311394,37.097039999772299],[-93.503839999858741,37.097039999772299],[-93.503356999984987,37.097033999718796],[-93.503019999701081,37.097030000160501],[-93.500899999885092,37.09701000021645],[-93.500191000055509,37.096993999827497],[-93.499999000434883,37.096989000018709],[-93.499808999565786,37.096987999770299],[-93.499058999728319,37.096978999683664],[-93.498759000152674,37.096978999683664],[-93.498339999853016,37.096929999670827],[-93.498139999836468,37.096900000071415],[-93.497030000148925,37.09686000010938],[-93.49615999976254,37.096840000120444],[-93.49526199978709,37.096814000055247],[-93.49372000027941,37.096769999759282],[-93.492579999556298,37.096729999728616],[-93.491674999908156,37.09670600012997],[-93.491439999731512,37.096700000049964],[-93.491378999632147,37.096697000009833],[-93.490970000276548,37.096681999807203],[-93.490494999900378,37.096666000065511],[-93.490381999922477,37.096661999771278],[-93.490299999906725,37.096659999982343],[-93.490200000347613,37.096659999982343],[-93.490053999859413,37.096658000193351],[-93.489822000055824,37.096655000151557],[-93.488690999553555,37.096641000193614],[-93.48831399998501,37.096635999645002],[-93.48777900023272,37.09662900002288],[-93.483855999894786,37.09659800005074],[-93.482799999735576,37.096590000171403],[-93.481370000380878,37.096562999766448],[-93.481330000197929,37.096562000228943],[-93.481296999687629,37.096560999974905],[-93.48120999964901,37.096559999720839],[-93.481170000364344,37.096559999720839],[-93.481139000402209,37.096559000183298],[-93.481045999617464,37.096559000183298],[-93.48101600037856,37.096559000183298],[-93.480711999706628,37.09655699967518],[-93.47980299986051,37.096551000299897],[-93.479499999911809,37.096550000045703],[-93.478765000142971,37.09654200016135],[-93.476709999725983,37.096520000295833],[-93.476563000311202,37.09651799978662],[-93.47583000019219,37.096509999898892],[-93.475680000404353,37.096508000105942],[-93.475230000142574,37.096502000010261],[-93.475080000354737,37.096500000217155],[-93.474778000230941,37.096495999914154],[-93.473871999859583,37.096483999720455],[-93.473569999735773,37.096480000133141],[-93.473446999712138,37.096480000133141],[-93.473081999839167,37.096480000133141],[-93.472959999640423,37.096480000133141],[-93.472665000087616,37.096475999829124],[-93.471783000005715,37.096464000348803],[-93.471490000102733,37.096460000043891],[-93.470890000053103,37.0964479998445],[-93.470399999608347,37.096439999949368],[-93.469089999904241,37.09643300030914],[-93.468489999854611,37.096430000258387],[-93.46807999977581,37.096425999951698],[-93.466850000437645,37.096413999746915],[-93.466440000358816,37.096410000155956],[-93.466174000220022,37.096405000308621],[-93.465375999803712,37.096393000100512],[-93.465109999664904,37.096390000048231],[-93.464671999996995,37.096385999739418],[-93.463358000094928,37.096374000244836],[-93.463031999681704,37.096371000191745],[-93.462920000427019,37.09636999993517],[-93.46286000015256,37.09636999993517],[-93.46275100037262,37.096368999678653],[-93.461090000140914,37.096355999924619],[-93.459885000018801,37.096346000222496],[-93.458310999825741,37.096335000262094],[-93.458111999634127,37.096334000005101],[-93.455601000005856,37.096316999932618],[-93.455231000110004,37.09631300033648],[-93.455164999987758,37.09631300033648],[-93.454892000176301,37.09631099982186],[-93.453772000442981,37.09630400016966],[-93.452842999607071,37.096296999800344],[-93.450058000342437,37.09627600012152],[-93.449130000229744,37.096270000007458],[-93.44871000010518,37.096260000294052],[-93.448664000074416,37.096259000036014],[-93.448249999797625,37.096249999862785],[-93.447265999608447,37.09623599983],[-93.446800000351445,37.096229999712833],[-93.444325999634785,37.096194999975076],[-93.438219999731672,37.096110000135248],[-93.437150000227078,37.09608000021111],[-93.435780000248528,37.096060000016287],[-93.435479999774557,37.096050000275156],[-93.434790000211564,37.096050000275156],[-93.433864999573601,37.096027000005698],[-93.433139999850511,37.096009999864322],[-93.432280000408213,37.096000000116597],[-93.430939999668581,37.095970000148974],[-93.429330000388802,37.095949999925111],[-93.42902300024214,37.095943000239565],[-93.427408999866117,37.095911999986747],[-93.427178999712339,37.095907000106564],[-93.426489000149346,37.095894000273312],[-93.426259999820488,37.095889999938322],[-93.425161000003584,37.095880000174745],[-93.424664999711027,37.095869999693335],[-93.424160000095966,37.095859999927136],[-93.42287999963078,37.095839999674176],[-93.422637999781443,37.095837999863598],[-93.421867999852523,37.095831999714861],[-93.421509999652216,37.095829999904012],[-93.420769999860525,37.095820000132534],[-93.420029000243886,37.095807999831777],[-93.419510000385117,37.095799999869072],[-93.418589999770049,37.095799999869072],[-93.417808999970447,37.095779000052509],[-93.417070000003662,37.095760000042802],[-93.416690999886967,37.095752000075031],[-93.415925000155994,37.095750000262079],[-93.412489999714694,37.095742000293257],[-93.41134599969196,37.095739999763502],[-93.411159999919107,37.09573900021514],[-93.41060199970228,37.095737999950238],[-93.410416999754347,37.095737999950238],[-93.410357000378212,37.095734999872015],[-93.410179999927891,37.095728000166609],[-93.410121000376648,37.095726000353025],[-93.410055000254417,37.095723000274326],[-93.409901000268633,37.095715999851279],[-93.40951399975603,37.095699999905612],[-93.409250000165386,37.095690000116917],[-93.409023000384664,37.095679000061274],[-93.408903999660652,37.095672999899996],[-93.408859000353132,37.095672000350746],[-93.408548000008508,37.095658000211166],[-93.408430000007726,37.095653999863764],[-93.408390999649683,37.095652000048219],[-93.408344999618933,37.095652000048219],[-93.408172000264869,37.095650999782166],[-93.40751500031385,37.095650999782166],[-93.407296999855632,37.095650999782166],[-93.407235999756267,37.095650999782166],[-93.407218000212922,37.095650999782166],[-93.407166000334399,37.095650999782166],[-93.407148999717634,37.095650999782166],[-93.406784999669554,37.095650999782166],[-93.405695000073493,37.095653999863764],[-93.405331999850333,37.095655999679245],[-93.405300999888198,37.095655000129724],[-93.40521100037482,37.095655000129724],[-93.40518100023759,37.095655000129724],[-93.404910000075944,37.095653999863764],[-93.40409699959099,37.095652000048219],[-93.403827000152546,37.095652000048219],[-93.403798999665156,37.095652000048219],[-93.403718000372606,37.095652000048219],[-93.403690999710122,37.095652000048219],[-93.402849999636075,37.095631999740419],[-93.400329999786976,37.095572000218347],[-93.399490000436145,37.095551999889373],[-93.399449000428277,37.095553999707555],[-93.399328999879359,37.095559999878311],[-93.399288999696381,37.095562999963462],[-93.398830000112071,37.095588999741402],[-93.397661999799894,37.095575999853551],[-93.392781999935281,37.095521999744363],[-93.39115599986367,37.095505000206231],[-93.390843999694141,37.095500999850749],[-93.38991099955858,37.095492000304013],[-93.389600000112267,37.095489999767658],[-93.389200000079185,37.095479999951309],[-93.38904199989544,37.095476999862825],[-93.387769999826162,37.095460000314588],[-93.387367000318378,37.095451000046445],[-93.386809999926442,37.095439999956106],[-93.386256999732495,37.095428999864154],[-93.38462999983598,37.095399999939836],[-93.384601000421981,37.095398999670458],[-93.38404999987786,37.095380000281999],[-93.383690999852647,37.095380000281999],[-93.382617000150091,37.095356999809162],[-93.382259999774718,37.095350000068883],[-93.382068000154092,37.095345999705174],[-93.381492000393919,37.095332999775621],[-93.381299999874969,37.095329999681375],[-93.381030000436553,37.09532400020894],[-93.380223999624292,37.095308000180438],[-93.379955000010767,37.095303000260444],[-93.378810000163114,37.09527999976423],[-93.378610000146566,37.095277999938816],[-93.37600900010662,37.095248999956645],[-93.375429999973392,37.095229999814094],[-93.37518999977388,37.095229999814094],[-93.374999999803094,37.095219999963433],[-93.374788000090987,37.095216000309385],[-93.373448000249667,37.095184000203453],[-93.37320300002726,37.095176999730661],[-93.372377999846748,37.095155999741372],[-93.371499999962779,37.095160000115122],[-93.371400000403668,37.095150000255217],[-93.370920000004645,37.09513999967745],[-93.370410000366718,37.095119999950988],[-93.370217000022862,37.095116000291725],[-93.369839999555992,37.095110000085796],[-93.368110999552229,37.09506199985465],[-93.367409000293677,37.095042999665218],[-93.367317000232177,37.095040000275965],[-93.367041000047635,37.09503200023218],[-93.366949999811055,37.095029999683689],[-93.366817999566578,37.095026000019615],[-93.366600000006684,37.095019999806617],[-93.366421999731443,37.095019999806617],[-93.366290000385277,37.095019999806617],[-93.366122000155784,37.095019999806617],[-93.365618000365643,37.095019999806617],[-93.36545000013615,37.095019999806617],[-93.365382000364079,37.095017999974345],[-93.365178999974503,37.095014000309639],[-93.365112000027352,37.095013000035166],[-93.364865000155149,37.095006999821145],[-93.36412600018835,37.094992000000481],[-93.364009999837393,37.094990000167464],[-93.363880000141037,37.094990000167464],[-93.363839999958074,37.094993999833434],[-93.363722999782212,37.095008000095703],[-93.363684000322465,37.095014000309639],[-93.362945000355666,37.095048000318911],[-93.36277499957805,37.095055999644515],[-93.360727999556957,37.095053000255781],[-93.359988999590186,37.09505199998182],[-93.35918100002641,37.095035999895877],[-93.356757000436772,37.094990000167464],[-93.355949999799606,37.094975000343425],[-93.355733000064632,37.09496999968492],[-93.355082999786291,37.094957999966084],[-93.354866999876222,37.094954999856931],[-93.35481400017278,37.094954000298209],[-93.354734999631745,37.094954000298209],[-93.354655999989021,37.094953000022947],[-93.354604000110484,37.094953000022947],[-93.354574999798174,37.094951999747707],[-93.354532999965386,37.094951999747707],[-93.354490000307692,37.094951999747707],[-93.354461999820273,37.094951999747707],[-93.354445999926753,37.094951999747707],[-93.354400999720909,37.094954999856931],[-93.354384000002469,37.094951999747707],[-93.352701999854375,37.094951999747707],[-93.35235299987491,37.094951000188956],[-93.351184999562719,37.094949000354859],[-93.351094000224435,37.094949999913638],[-93.351002999987855,37.094951000188956],[-93.350911999751247,37.094951999747707],[-93.350819999689747,37.094953000022947],[-93.350799999598252,37.094953000022947],[-93.350742999696834,37.094954000298209],[-93.350724000328597,37.094954999856931],[-93.349715999849963,37.094933999806173],[-93.346693000035629,37.094871000335445],[-93.345686000280224,37.094850999821489],[-93.345461999974248,37.09485299965818],[-93.345375999760506,37.09485399993477],[-93.345343000148546,37.09485399993477],[-93.345290000445104,37.094855000211346],[-93.334616999773488,37.094744999803844],[-93.334588000359489,37.094744000242351],[-93.334501000320856,37.094744000242351],[-93.334472999833451,37.094744000242351],[-93.334376999573976,37.094742999964311],[-93.334091000242026,37.094739999846645],[-93.33399599980747,37.094739000285095],[-93.332256999757959,37.094721000293006],[-93.327039999609454,37.094669000132519],[-93.325300999559971,37.094651999686519],[-93.324437999744617,37.094651000123804],[-93.321850000123462,37.094649000281791],[-93.320988000133013,37.094649000281791],[-93.320951000323078,37.094649000281791],[-93.320839999995002,37.094649000281791],[-93.32080400001,37.094649999844535],[-93.32078700029156,37.094656000086822],[-93.320746000283677,37.094651000123804],[-93.320733999689793,37.094651000123804],[-93.320686999834123,37.094651000123804],[-93.320670000115697,37.094651000123804],[-93.320619999886986,37.094651000123804],[-93.320603999993452,37.094651000123804],[-93.319727999759309,37.094649999844535],[-93.317884999952724,37.094649999844535],[-93.317822000203535,37.094649999844535],[-93.317101999605015,37.094649000281791],[-93.316227000094088,37.094648000002486],[-93.316212999850379,37.094648000002486],[-93.316171000017576,37.094648000002486],[-93.316157999598786,37.094648000002486],[-93.315898000206104,37.094648000002486],[-93.315119999881247,37.094648000002486],[-93.314861000313499,37.094649000281791],[-93.314740999764581,37.094648000002486],[-93.31456199966442,37.094648000002486],[-93.314422999747251,37.094649000281791],[-93.314382999564273,37.094648000002486],[-93.314344000104541,37.094648000002486],[-93.3142639997386,37.094648000002486],[-93.314161999631352,37.094648000002486],[-93.313858999682651,37.094648000002486],[-93.313804000329384,37.094648000002486],[-93.313758000298606,37.094644999881062],[-93.313738000207138,37.094643000038893],[-93.313677999932679,37.094639000354398],[-93.313657999841183,37.094638000075015],[-93.31248399968122,37.094551000076969],[-93.311958999974664,37.094552000357552],[-93.311856000042496,37.094552000357552],[-93.311748000087448,37.094551000076969],[-93.311714999577191,37.094551000076969],[-93.311616999667905,37.094551000076969],[-93.31158499988085,37.094551000076969],[-93.309604999806922,37.09453100019504],[-93.303666000308368,37.094470999801153],[-93.30168700005936,37.094450999898164],[-93.30146699995133,37.094450999898164],[-93.30080599980235,37.094450999898164],[-93.300587000417536,37.094450999898164],[-93.300387000400988,37.094450999898164],[-93.300269000400235,37.094450999898164],[-93.300209999950681,37.094450999898164],[-93.299917999872633,37.09445200018007],[-93.299814999940466,37.09445200018007],[-93.299712000008299,37.094450999898164],[-93.299680000221244,37.094450999898164],[-93.299631999642358,37.094450999898164],[-93.299583999961783,37.094450999898164],[-93.299552999999648,37.094450999898164],[-93.299219000088797,37.094450999898164],[-93.298219999831005,37.094450999898164],[-93.297886999745074,37.094450999898164],[-93.297840999714325,37.094450999898164],[-93.297704000345277,37.094450999898164],[-93.297659000139447,37.094450999898164],[-93.297101999747525,37.094450999898164],[-93.295433000018235,37.094450999898164],[-93.29487700034953,37.094450999898164],[-93.294858000082968,37.094450999898164],[-93.294803999656281,37.094450999898164],[-93.294786000112936,37.094450999898164],[-93.294723000363746,37.094447999768938],[-93.294534000217851,37.094439999662647],[-93.294519000149236,37.094439999662647],[-93.294472000293581,37.094437999815071],[-93.29442100023995,37.094440999944695],[-93.294268000079086,37.094440999944695],[-93.294217999850375,37.094427999859874],[-93.292232999753566,37.094355000003631],[-93.286280999836237,37.094136000012952],[-93.284296999564333,37.094062999875405],[-93.278604999937997,37.09385100035324],[-93.278497999807868,37.09385100035324],[-93.278476999891467,37.093850000063405],[-93.278416999617022,37.093850000063405],[-93.278397000423851,37.093850000063405],[-93.27796700025354,37.093850000063405],[-93.276676999742605,37.093850000063405],[-93.276248000295539,37.09385100035324],[-93.275501999757722,37.09385100035324],[-93.273264999765843,37.09385100035324],[-93.272519999951257,37.09385100035324],[-93.272462000224948,37.09385100035324],[-93.272288000147682,37.09385100035324],[-93.272231000246265,37.09385100035324],[-93.272197999735994,37.09385100035324],[-93.27210800022263,37.09385100035324],[-93.272069999689464,37.09385100035324],[-93.272027000031756,37.093850000063405],[-93.271902000358295,37.093850000063405],[-93.271859999627182,37.093850000063405],[-93.271797999702926,37.093848000200303],[-93.271677000227399,37.09384399975729],[-93.271612999754979,37.093841999893982],[-93.271551999655614,37.09384100032058],[-93.271473999837809,37.093838000167203],[-93.271242000034221,37.093831999860136],[-93.271165000041321,37.093829999996515],[-93.271130999706116,37.093828999706396],[-93.271028999598883,37.093826000269097],[-93.270995000162003,37.093826000269097],[-93.270506000440463,37.093811000214636],[-93.269039000377532,37.093767999898837],[-93.268549999757681,37.093754999698554],[-93.267636999713602,37.093754000124015],[-93.265478000437852,37.093750999967185],[-93.264897999581393,37.093750999967185],[-93.263985000435639,37.093750999967185],[-93.262151999776492,37.093686999937468],[-93.259458999675047,37.09359299966151],[-93.256652999595687,37.093497000113032],[-93.255376000401867,37.093453000040526],[-93.254819999834851,37.093439999786199],[-93.254799999743369,37.093410000238066],[-93.254759999560392,37.093390000054981],[-93.254629999864051,37.093349999673087],[-93.25418700017326,37.093340999870833],[-93.254080000043146,37.093340000290816],[-93.253140000234893,37.093299999882483],[-93.252330000122996,37.093279999670422],[-93.252208999749158,37.093275000333115],[-93.251550000148313,37.093250000058937],[-93.251489999873854,37.093250000058937],[-93.251278000161747,37.093241000244859],[-93.250770000173631,37.093219999719075],[-93.25046499967678,37.093212000199649],[-93.250194000413458,37.093205000261221],[-93.250081000435543,37.093202000082663],[-93.250000000244697,37.093200000202408],[-93.249744999976571,37.093188999785283],[-93.249632999823575,37.093185000024036],[-93.249447999875642,37.093176999784404],[-93.249279999646163,37.093169999842694],[-93.248893999856776,37.093159999720172],[-93.248709999733762,37.093155999957389],[-93.248559000121034,37.093152000194451],[-93.248108999859227,37.093140999770362],[-93.248060000353746,37.093140000187709],[-93.248010000125035,37.09313000006118],[-93.24795999989631,37.093128000179078],[-93.247909999667598,37.09312600029687],[-93.24775999987979,37.093121000232841],[-93.247709999651065,37.093119999933378],[-93.247109999601435,37.093090000258549],[-93.246729999659848,37.093090000258549],[-93.245819999988811,37.093080000125468],[-93.245460000138706,37.093080000125468],[-93.244599999798098,37.093059999855335],[-93.244553999767334,37.093061999739284],[-93.244364999621439,37.093085999775568],[-93.244330000359668,37.093090000258549],[-93.243878000448035,37.093083999892251],[-93.242240999607475,37.09306600022353],[-93.234070999964842,37.092722999668652],[-93.231895999897247,37.092631999831191],[-93.231818999904362,37.092629000346498],[-93.231807000208775,37.092629000346498],[-93.231761000178025,37.092626999734563],[-93.231527999651206,37.092619000152588],[-93.231510999932766,37.092619000152588],[-93.231211000357121,37.092610000263505],[-93.231012999990412,37.0926039998592],[-93.23094100002038,37.092600999656852],[-93.230754000422621,37.092594999968391],[-93.22960299982887,37.092558999677806],[-93.227873999825107,37.092505999875783],[-93.226744000046054,37.092491000276596],[-93.225888999728326,37.092479000165184],[-93.225461999931042,37.092474000058516]]]},"properties":{"GEOID":"29077","NAME":"Greene County","BASENAME":"Greene"}}]}