{"type":"FeatureCollection","features":[{"type":"Feature","geometry":{"type":"Polygon","coordinates":[[[-93.393382999809802,37.149565000178356],[-93.391565000117581,37.149533999681424],[-93.389852000007352,37.149507000254602],[-93.389701000394609,37.149502999887858],[-93.389660000386741,37.149192999821096],[-93.389681000303128,37.14858699983612],[-93.389776999664292,37.145843999866926],[-93.389810000174549,37.14492999983878],[-93.389810999999469,37.143868999741251],[-93.38981500019743,37.140689000108047],[-93.389816999847255,37.13962899964411],[-93.389816999847255,37.139568000203838],[-93.389819000395391,37.139385000155542],[-93.389821000045217,37.139325000207698],[-93.389590000066534,37.139321000018512],[-93.388897999955404,37.139311000260776],[-93.388800000046118,37.139309999855236],[-93.388667999801626,37.139305999665318],[-93.388702000136817,37.138732999985457],[-93.388921000419927,37.134518000176307],[-93.38856999989234,37.134559999805525],[-93.385526000161605,37.134553999859939],[-93.383462000422099,37.134550000134659],[-93.383505999904727,37.133377999902955],[-93.383560000331386,37.131936999947818],[-93.383623999905495,37.130237999994392],[-93.383808999853414,37.124685000201019],[-93.38380999967832,37.124656000017616],[-93.383813999876281,37.124571999769486],[-93.383816000424432,37.124544000143523],[-93.383838000165738,37.123955999876344],[-93.38390799958762,37.122194000150252],[-93.383931000052144,37.12160700017445],[-93.383945000295867,37.12160700017445],[-93.383992000151522,37.120881000088588],[-93.383865999754818,37.120880000155729],[-93.381326999639157,37.120839999963849],[-93.381034999561123,37.120836000230028],[-93.380112000369621,37.120751000105805],[-93.379012999654378,37.120665999886192],[-93.378942000407591,37.120665999886192],[-93.378730999622078,37.120666999821935],[-93.378661000200196,37.1206679997576],[-93.378175999778293,37.120660000271585],[-93.376722999959071,37.120639000184092],[-93.376239000260398,37.120631999914849],[-93.376136000328245,37.120623999708727],[-93.375826999633446,37.120603000327542],[-93.375723999701279,37.120596000054981],[-93.374700000227435,37.120599999801478],[-93.374710000273168,37.11817000025323],[-93.374720000318916,37.117609999952087],[-93.374749999557835,37.116780000200976],[-93.374769999649331,37.116380000023312],[-93.374769999649331,37.115850000078794],[-93.374769999649331,37.115760000084627],[-93.374550000439598,37.115760000084627],[-93.374100000177819,37.115740000071426],[-93.373229999791462,37.115720000052896],[-93.372599999604603,37.115710000041673],[-93.37187999990438,37.115690000015213],[-93.371439999688334,37.115690000015213],[-93.370649999667904,37.115669999983524],[-93.370410000366718,37.115669999983524],[-93.370200000304422,37.115669999983524],[-93.36983000040857,37.115659999965651],[-93.369591000033978,37.115659999965651],[-93.36946999966014,37.115659999965651],[-93.368877000181527,37.115644999936436],[-93.368640000355057,37.115639999926039],[-93.368395000132679,37.115636999919616],[-93.367662999838586,37.115630999906443],[-93.367549999860671,37.115629999904201],[-93.367420000164344,37.115619999881091],[-93.367215000124929,37.115618999878706],[-93.366880000389159,37.115609999856659],[-93.366604000204646,37.115609999856659],[-93.366399999990151,37.115609999856659],[-93.365871999910539,37.115675999993599],[-93.365758999932623,37.115691000016675],[-93.364585999597551,37.116592000251714],[-93.364164999648082,37.116915999751306],[-93.364135000409178,37.11693700015519],[-93.364048000370545,37.116998999915126],[-93.364019999883126,37.117021000279884],[-93.363962000156818,37.116997999930945],[-93.363788000079552,37.116932000230122],[-93.363730000353229,37.1169099998395],[-93.363665999880808,37.116906999883383],[-93.363474000260197,37.116900999970866],[-93.363409999787777,37.116899999985449],[-93.363166000288615,37.116896000043411],[-93.362433999994508,37.116884000216153],[-93.362189999597021,37.116880000273326],[-93.361970000387316,37.11687399964233],[-93.361310000063256,37.116855999895499],[-93.361089999955226,37.116849999978939],[-93.3608499997557,37.116849999978939],[-93.360602000058577,37.116840000116952],[-93.360039999643789,37.116819999672707],[-93.359279999760602,37.116809999806719],[-93.359138000368702,37.116809999806719],[-93.358649999573757,37.116809999806719],[-93.358550000014631,37.11679999993946],[-93.358177999570657,37.116795000005332],[-93.357780000085697,37.116790000070878],[-93.357279999595193,37.116790000070878],[-93.357087999974567,37.11678500013609],[-93.356761999561343,37.116779000213903],[-93.356493999772724,37.116773000291239],[-93.356291000281445,37.116770000329701],[-93.35601199972389,37.116763999690043],[-93.355779999920287,37.116759999740829],[-93.355229000274463,37.116745999917057],[-93.35517800022086,37.116743999942003],[-93.354900000386493,37.116738000016561],[-93.354599999912537,37.116730000115219],[-93.354312000032436,37.116730000115219],[-93.354159999696478,37.116730000115219],[-93.352547000043671,37.116730000115219],[-93.352379999639084,37.116730000115219],[-93.352172000124938,37.11672500017648],[-93.352106999827612,37.116723000200913],[-93.351960000412831,37.116720000237393],[-93.351960000412831,37.116150000002968],[-93.351963999712481,37.116000999828657],[-93.351999999697497,37.114779999670823],[-93.352009999743245,37.114530000188033],[-93.352009999743245,37.11433000015078],[-93.352032000382863,37.113846999977824],[-93.352049999926209,37.113489999956535],[-93.352059999971956,37.113279999705583],[-93.352059999971956,37.113130000295413],[-93.352080000063438,37.112579999677379],[-93.352111999850493,37.112110999770636],[-93.352130000292149,37.111850000215625],[-93.352150000383645,37.111089999736528],[-93.352199999714045,37.109519999705228],[-93.352191000391514,37.109274999764615],[-93.352340000354431,37.102429999685157],[-93.352351000225099,37.102116999660097],[-93.352548999693511,37.099388999983518],[-93.352552999891472,37.099275000270296],[-93.352564999587017,37.098931999878552],[-93.352568999784978,37.098818999701919],[-93.352589999701379,37.098203000220046],[-93.352593999899341,37.098071000242371],[-93.352634999907224,37.096866000176668],[-93.35265300034888,37.096357000181314],[-93.352675000090201,37.095742000293257],[-93.352673000440376,37.095612999693856],[-93.352684000311015,37.09551800010626],[-93.352701999854375,37.094951999747707],[-93.35235299987491,37.094951000188956],[-93.351184999562719,37.094949000354859],[-93.351094000224435,37.094949999913638],[-93.351002999987855,37.094951000188956],[-93.350911999751247,37.094951999747707],[-93.350819999689747,37.094953000022947],[-93.350799999598252,37.094953000022947],[-93.350742999696834,37.094954000298209],[-93.350724000328597,37.094954999856931],[-93.349715999849963,37.094933999806173],[-93.346693000035629,37.094871000335445],[-93.345686000280224,37.094850999821489],[-93.345461999974248,37.09485299965818],[-93.345375999760506,37.09485399993477],[-93.345343000148546,37.09485399993477],[-93.345290000445104,37.094855000211346],[-93.334616999773488,37.094744999803844],[-93.334588000359489,37.094744000242351],[-93.334501000320856,37.094744000242351],[-93.334472999833451,37.094744000242351],[-93.334436999848435,37.095858000117026],[-93.334332000266443,37.099200999849209],[-93.334311000350041,37.099878999977854],[-93.334298999756172,37.100316000314315],[-93.334292999908399,37.100362999879003],[-93.334278999664704,37.100506000235072],[-93.334275000365054,37.100553999883232],[-93.334250000250691,37.100723000044347],[-93.334236999831901,37.100946999888791],[-93.334229000334275,37.101266000168117],[-93.334206999694672,37.102227000111554],[-93.334200000021966,37.102547000191052],[-93.334214000265675,37.102551000174557],[-93.334258999573194,37.102563000123773],[-93.334273999641823,37.102568000281124],[-93.334271000167078,37.102627999994567],[-93.334266000144211,37.1027389998765],[-93.33426199994625,37.102809999909333],[-93.334261000121344,37.102846999799169],[-93.334260000296439,37.102871000318309],[-93.334258999573194,37.102888999807107],[-93.334256000098478,37.102945000020263],[-93.334256000098478,37.102963999661],[-93.33424400040289,37.103280000264618],[-93.334209000242794,37.104227999897667],[-93.33419800037214,37.104544999675582],[-93.334133999899734,37.104567000076514],[-93.334133999899734,37.10461600016496],[-93.334133999899734,37.104646000291183],[-93.333521000329625,37.10482399979275],[-93.333362000320975,37.104871000142751],[-93.33320800033519,37.104916000176182],[-93.333052999626176,37.104961000182833],[-93.332625000004001,37.105086000061057],[-93.332556000407038,37.105109999870791],[-93.331231999560913,37.105368000031724],[-93.330868000411144,37.105439999886471],[-93.330454999959272,37.105438000329244],[-93.33035000037728,37.105428999813618],[-93.3302109995618,37.10541700031844],[-93.33010000013202,37.105406000242247],[-93.330073000367847,37.105403999967677],[-93.329269000103736,37.105333000216937],[-93.329035999576902,37.105307000200746],[-93.328681999574584,37.105268999940598],[-93.328570000319914,37.105245000181249],[-93.328234999685833,37.105174000281473],[-93.328124000256068,37.105150999916233],[-93.328115000035254,37.105123000272002],[-93.327764000405963,37.104947000326924],[-93.327135999868929,37.10463399995556],[-93.326646000322484,37.104409000116441],[-93.326630000428949,37.104392999857239],[-93.326416000168706,37.10418499976231],[-93.326329000130073,37.104100000289399],[-93.32605100029572,37.103937000004947],[-93.325975999952661,37.103893000263611],[-93.325420000283955,37.103484000044816],[-93.325246000206704,37.103410000152948],[-93.324949999930681,37.10328499965825],[-93.324817999686204,37.103180000143617],[-93.324542000400001,37.10296200003841],[-93.324430000247006,37.102857000076064],[-93.324308000048262,37.102742999849866],[-93.324283999758819,37.10268200005428],[-93.324252999796684,37.102602999940629],[-93.324204000291203,37.102503999817962],[-93.324175999803785,37.102445999642519],[-93.324137000344052,37.102444000006258],[-93.324022999642906,37.102437999664261],[-93.323985000008079,37.102437000204262],[-93.320789999766291,37.102377000339544],[-93.320682999636162,37.102374999984981],[-93.320824999926387,37.098411000260832],[-93.315976999848843,37.098443999949595],[-93.315909000076772,37.098429000092828],[-93.31594800043483,37.097836000033304],[-93.316157999598786,37.094648000002486],[-93.315898000206104,37.094648000002486],[-93.315119999881247,37.094648000002486],[-93.314861000313499,37.094649000281791],[-93.314740999764581,37.094648000002486],[-93.31456199966442,37.094648000002486],[-93.314422999747251,37.094649000281791],[-93.314382999564273,37.094648000002486],[-93.314344000104541,37.094648000002486],[-93.3142639997386,37.094648000002486],[-93.314161999631352,37.094648000002486],[-93.313858999682651,37.094648000002486],[-93.313804000329384,37.094648000002486],[-93.313758000298606,37.094644999881062],[-93.313738000207138,37.094643000038893],[-93.313677999932679,37.094639000354398],[-93.313657999841183,37.094638000075015],[-93.31248399968122,37.094551000076969],[-93.311958999974664,37.094552000357552],[-93.311856000042496,37.094552000357552],[-93.311748000087448,37.094551000076969],[-93.311714999577191,37.094551000076969],[-93.311616999667905,37.094551000076969],[-93.31158499988085,37.094551000076969],[-93.309604999806922,37.09453100019504],[-93.303666000308368,37.094470999801153],[-93.30168700005936,37.094450999898164],[-93.30146699995133,37.094450999898164],[-93.30080599980235,37.094450999898164],[-93.300587000417536,37.094450999898164],[-93.300387000400988,37.094450999898164],[-93.300269000400235,37.094450999898164],[-93.300209999950681,37.094450999898164],[-93.299917999872633,37.09445200018007],[-93.299814999940466,37.09445200018007],[-93.299712000008299,37.094450999898164],[-93.299680000221244,37.094450999898164],[-93.299631999642358,37.094450999898164],[-93.299583999961783,37.094450999898164],[-93.299552999999648,37.094450999898164],[-93.299219000088797,37.094450999898164],[-93.298219999831005,37.094450999898164],[-93.297886999745074,37.094450999898164],[-93.297840999714325,37.094450999898164],[-93.297704000345277,37.094450999898164],[-93.297659000139447,37.094450999898164],[-93.297101999747525,37.094450999898164],[-93.295433000018235,37.094450999898164],[-93.29487700034953,37.094450999898164],[-93.294858000082968,37.094450999898164],[-93.294803999656281,37.094450999898164],[-93.294786000112936,37.094450999898164],[-93.294723000363746,37.094447999768938],[-93.294534000217851,37.094439999662647],[-93.294519000149236,37.094439999662647],[-93.294472000293581,37.094437999815071],[-93.29442100023995,37.094440999944695],[-93.294268000079086,37.094440999944695],[-93.294217999850375,37.094427999859874],[-93.292232999753566,37.094355000003631],[-93.286280999836237,37.094136000012952],[-93.284296999564333,37.094062999875405],[-93.278604999937997,37.09385100035324],[-93.278497999807868,37.09385100035324],[-93.278476999891467,37.093850000063405],[-93.278416999617022,37.093850000063405],[-93.278397000423851,37.093850000063405],[-93.27796700025354,37.093850000063405],[-93.276676999742605,37.093850000063405],[-93.276248000295539,37.09385100035324],[-93.275501999757722,37.09385100035324],[-93.273264999765843,37.09385100035324],[-93.272519999951257,37.09385100035324],[-93.272462000224948,37.09385100035324],[-93.272288000147682,37.09385100035324],[-93.272231000246265,37.09385100035324],[-93.272197999735994,37.09385100035324],[-93.27210800022263,37.09385100035324],[-93.272069999689464,37.09385100035324],[-93.272027000031756,37.093850000063405],[-93.271902000358295,37.093850000063405],[-93.271859999627182,37.093850000063405],[-93.271797999702926,37.093848000200303],[-93.271677000227399,37.09384399975729],[-93.271612999754979,37.093841999893982],[-93.271551999655614,37.09384100032058],[-93.271473999837809,37.093838000167203],[-93.271242000034221,37.093831999860136],[-93.271165000041321,37.093829999996515],[-93.271130999706116,37.093828999706396],[-93.271028999598883,37.093826000269097],[-93.270995000162003,37.093826000269097],[-93.270506000440463,37.093811000214636],[-93.269039000377532,37.093767999898837],[-93.268549999757681,37.093754999698554],[-93.267636999713602,37.093754000124015],[-93.265478000437852,37.093750999967185],[-93.264897999581393,37.093750999967185],[-93.263985000435639,37.093750999967185],[-93.262151999776492,37.093686999937468],[-93.259458999675047,37.09359299966151],[-93.256652999595687,37.093497000113032],[-93.255376000401867,37.093453000040526],[-93.254819999834851,37.093439999786199],[-93.254799999743369,37.093410000238066],[-93.254759999560392,37.093390000054981],[-93.254629999864051,37.093349999673087],[-93.25418700017326,37.093340999870833],[-93.254080000043146,37.093340000290816],[-93.253140000234893,37.093299999882483],[-93.252330000122996,37.093279999670422],[-93.252208999749158,37.093275000333115],[-93.251550000148313,37.093250000058937],[-93.251489999873854,37.093250000058937],[-93.251278000161747,37.093241000244859],[-93.250770000173631,37.093219999719075],[-93.25046499967678,37.093212000199649],[-93.250194000413458,37.093205000261221],[-93.250081000435543,37.093202000082663],[-93.250000000244697,37.093200000202408],[-93.249744999976571,37.093188999785283],[-93.249632999823575,37.093185000024036],[-93.249447999875642,37.093176999784404],[-93.249279999646163,37.093169999842694],[-93.248893999856776,37.093159999720172],[-93.248709999733762,37.093155999957389],[-93.248559000121034,37.093152000194451],[-93.248108999859227,37.093140999770362],[-93.248060000353746,37.093140000187709],[-93.248010000125035,37.09313000006118],[-93.24795999989631,37.093128000179078],[-93.247909999667598,37.09312600029687],[-93.24775999987979,37.093121000232841],[-93.247709999651065,37.093119999933378],[-93.247109999601435,37.093090000258549],[-93.246729999659848,37.093090000258549],[-93.245819999988811,37.093080000125468],[-93.245460000138706,37.093080000125468],[-93.244599999798098,37.093059999855335],[-93.244553999767334,37.093061999739284],[-93.244364999621439,37.093085999775568],[-93.244330000359668,37.093090000258549],[-93.243878000448035,37.093083999892251],[-93.242240999607475,37.09306600022353],[-93.234070999964842,37.092722999668652],[-93.231895999897247,37.092631999831191],[-93.231818999904362,37.092629000346498],[-93.231807000208775,37.092629000346498],[-93.231761000178025,37.092626999734563],[-93.231527999651206,37.092619000152588],[-93.231510999932766,37.092619000152588],[-93.231211000357121,37.092610000263505],[-93.231012999990412,37.0926039998592],[-93.23094100002038,37.092600999656852],[-93.230754000422621,37.092594999968391],[-93.22960299982887,37.092558999677806],[-93.227873999825107,37.092505999875783],[-93.226744000046054,37.092491000276596],[-93.225888999728326,37.092479000165184],[-93.225461999931042,37.092474000058516],[-93.225280000356179,37.092472000159056],[-93.224893999668467,37.092453000036691],[-93.224678999583332,37.092419999888342],[-93.224523999772615,37.092414999777731],[-93.223830000011674,37.092370000200667],[-93.223559999674933,37.092370000200667],[-93.222940000432146,37.092349999743142],[-93.222736000217651,37.092344000034778],[-93.222122999749232,37.092326000190283],[-93.221920000257953,37.09231999976349],[-93.221476999668852,37.092305000127489],[-93.220452000370102,37.092271000320522],[-93.220150000246292,37.092261999673603],[-93.219708000380436,37.092248000337108],[-93.219680999717937,37.092741999723323],[-93.219601000250307,37.094225999909014],[-93.219598999702185,37.094272999669002],[-93.219575000311039,37.094721000293006],[-93.219510999838633,37.095516999838487],[-93.219483000249525,37.095863000000399],[-93.219480999701389,37.09588699986606],[-93.219467000356005,37.096066999690969],[-93.219320999867819,37.097906000126059],[-93.219258000118629,37.098703000112451],[-93.219238999852053,37.099098000130475],[-93.219198999669089,37.099973000336803],[-93.219183999600475,37.10028499970133],[-93.219166000057115,37.100681000268423],[-93.219161000034262,37.10081299999748],[-93.219149000338689,37.101211999815497],[-93.219145999965647,37.10134599971758],[-93.219000000375772,37.103186999877018],[-93.21897899956106,37.103446999749714],[-93.219036000360788,37.103600000194575],[-93.220541999883466,37.10410699993772],[-93.220173999637439,37.106601000094614],[-93.220424999707589,37.106605999985419],[-93.221179999567923,37.106620999655981],[-93.221432000361318,37.106626999666624],[-93.222443000314669,37.106668000323715],[-93.223388999970709,37.106707000002082],[-93.225476999999657,37.106793000250526],[-93.226488999777942,37.106835000219789],[-93.226722000304761,37.106832999982963],[-93.227415000240796,37.106836000338191],[-93.227435000332278,37.107069000338399],[-93.227438999631929,37.107201999795855],[-93.227451000225798,37.107601999740666],[-93.227456000248679,37.107735999801449],[-93.227401999822007,37.109246000125623],[-93.22725500040724,37.113425000094573],[-93.22725200003417,37.113509999847736],[-93.227241999988436,37.113776000262149],[-93.22718900028498,37.115285999782735],[-93.227166999645377,37.115293999836645],[-93.227101000421442,37.11532100001228],[-93.22707999960673,37.11533000006866],[-93.22707999960673,37.115419999857608],[-93.22707999960673,37.115609999856659],[-93.227099999698225,37.115890000041851],[-93.227123000162749,37.116043999702356],[-93.227139999881189,37.116150000002968],[-93.227220000247144,37.116530000158491],[-93.227279999623278,37.116770000329701],[-93.22741000021793,37.117329999680848],[-93.22741000021793,37.117510000127545],[-93.227400000172196,37.117649999701648],[-93.227370000034952,37.117770000256122],[-93.227299999714759,37.117939999940035],[-93.227205000178529,37.118123000277158],[-93.227119999789707,37.118289999983503],[-93.227030000276329,37.118530000306073],[-93.2270000001391,37.118659999805018],[-93.2270000001391,37.11880000011773],[-93.227005999986886,37.118821999959138],[-93.227024000428543,37.118888000161334],[-93.227030000276329,37.118909999977177],[-93.227033999575966,37.118999999808388],[-93.22704600016985,37.119272000001068],[-93.227051000192716,37.119363000071189],[-93.227042999796808,37.119596000208674],[-93.227036000124102,37.11982100005438],[-93.227022999705312,37.120296999781218],[-93.22701699985754,37.120530999846814],[-93.227006999811792,37.120976000100143],[-93.226995000116233,37.121580000091676],[-93.227011000009753,37.122111999868267],[-93.227009000359928,37.122313999948531],[-93.227005999986886,37.122761000280761],[-93.226991999743177,37.123144999813981],[-93.226991999743177,37.123171000152183],[-93.226976999674562,37.123580999951571],[-93.226973000374912,37.123693999713858],[-93.226968000352059,37.123846000186447],[-93.226961999605933,37.12399699974587],[-93.226950999735308,37.124299999997554],[-93.226949999910389,37.124340999680747],[-93.226937000389896,37.124685000201019],[-93.226934999841774,37.124745000298176],[-93.226932000367043,37.12492500030438],[-93.226930999643812,37.124986000089976],[-93.226939999864655,37.125137000240152],[-93.226940999689546,37.125161000141411],[-93.226974000199831,37.12568699988622],[-93.226985000070499,37.125863000332679],[-93.226985000070499,37.125947999730272],[-93.226985000070499,37.125993000131118],[-93.226985000070499,37.126122999706219],[-93.226985000070499,37.126205999802984],[-93.226985000070499,37.126289999670185],[-93.226942000412777,37.126289999670185],[-93.226816000016086,37.126289999670185],[-93.226774000183298,37.126289999670185],[-93.226174999958587,37.126271000151768],[-93.225759000031971,37.126257999799996],[-93.225672999818258,37.126256000076225],[-93.225586999604531,37.126254000352453],[-93.225497000091167,37.126251999912334],[-93.225041999806493,37.126266999988673],[-93.224598000290783,37.126281000200485],[-93.224555999559669,37.126280000338902],[-93.224430999886209,37.126277999899528],[-93.224389999878312,37.126277999899528],[-93.224343000022671,37.12627600017629],[-93.224204999930407,37.126270000290063],[-93.224159999724549,37.12626799985042],[-93.224121000264816,37.126271000151768],[-93.224004999913859,37.126282999923589],[-93.223967000279018,37.126287000085838],[-93.223852999577886,37.126306000316426],[-93.223511000169438,37.126364000123985],[-93.223398000191537,37.126384000195507],[-93.223261999749099,37.126478999746745],[-93.222854000218405,37.126766000260361],[-93.2227189996009,37.12686199990226],[-93.222408999979507,37.126901999776834],[-93.222111999878578,37.127018999718224],[-93.220351000087746,37.127719000180704],[-93.219763999558609,37.127953000221531],[-93.21949900014306,37.128083000011166],[-93.219458000135162,37.128095000211921],[-93.21861700006113,37.128643000188376],[-93.218417000044582,37.128579000275508],[-93.217451000297075,37.128559000067852],[-93.214995999847005,37.128511000264091],[-93.21455499980604,37.128512999928219],[-93.213589999883425,37.128520000184857],[-93.212987000359064,37.128563000109807],[-93.212161000353632,37.128622000166992],[-93.212048000375731,37.129599000277523],[-93.211979999705349,37.130200000070232],[-93.21198399990331,37.130476000065556],[-93.211998999971925,37.131306999843005],[-93.212003999994792,37.131583999889457],[-93.211336999998025,37.131590999862027],[-93.209336000007696,37.131611999775714],[-93.208669999835848,37.131620000252866],[-93.208667000361089,37.131722000353804],[-93.208660999615006,37.132031999690454],[-93.208658999965181,37.132134999736472],[-93.208633000025912,37.133334000080843],[-93.208595000391085,37.135125999935426],[-93.210399999664503,37.135187000092742],[-93.211598999938843,37.135228000323409],[-93.21379400009792,37.135298000229298],[-93.213873999565564,37.135304999858235],[-93.213953000106585,37.135312000202681],[-93.214003000335296,37.135315999887673],[-93.213933000015089,37.13542199969897],[-93.213897999855007,37.135574000250116],[-93.213890000357395,37.135626000255506],[-93.213886999984339,37.135651000148926],[-93.213887999809259,37.135676000034138],[-93.213887999809259,37.135687999746935],[-93.213886000159434,37.135700999911101],[-93.213881999961473,37.135713000336033],[-93.213873999565564,37.135768999906936],[-93.213888999634165,37.135798000128837],[-93.213902999877874,37.135823999700918],[-93.213906000250915,37.135855999823093],[-93.213910000448877,37.135882000091399],[-93.213912999923608,37.135909000085128],[-93.213907000075835,37.135935000335273],[-93.213903999702779,37.135960999860281],[-93.213897000030087,37.135987999825829],[-93.213887999809259,37.136014000048824],[-93.213887999809259,37.136040999995458],[-93.213887999809259,37.136115000224194],[-93.213800999770612,37.136730000253898],[-93.213723999777727,37.13715300027561],[-93.213737000196517,37.13717900009825],[-93.213738000021422,37.137204999911908],[-93.213743999869209,37.137230999716628],[-93.213758000112918,37.137257999945099],[-93.213768000158652,37.137283999731601],[-93.213784999877092,37.137308000077503],[-93.213804999968573,37.137330999984087],[-93.213847999626282,37.137391999795867],[-93.213855000197299,37.137418000252467],[-93.213881000136553,37.137438999981256],[-93.213901000228049,37.137456999846421],[-93.213917999946489,37.137488999994048],[-93.214021999703562,37.137638000122578],[-93.214242999636497,37.137872000284943],[-93.214405999843123,37.138127999682453],[-93.214519999645944,37.138370000241032],[-93.214569999874641,37.138619000063969],[-93.214540999562331,37.138824999985353],[-93.214449000399142,37.138974000347154],[-93.21390899972566,37.139419000295831],[-93.211993000124139,37.140453999675408],[-93.211660999863113,37.140643000181399],[-93.210878000413715,37.141063999758835],[-93.210745000344318,37.141041999937585],[-93.210702999613218,37.141048999751199],[-93.210685999894778,37.1410509998001],[-93.210668000351433,37.141054999897804],[-93.210653000282818,37.141065000141118],[-93.210639000039109,37.141073000334842],[-93.210622000320683,37.141076999715281],[-93.210606000427148,37.141080999811599],[-93.210588999810398,37.141086999955675],[-93.210568999718916,37.14108800033771],[-93.210551000175556,37.141089000003632],[-93.210535000282036,37.141080999811599],[-93.210521000038327,37.141071000286523],[-93.210509000342768,37.141061000043997],[-93.210497999573803,37.141050000133738],[-93.21048699970315,37.141037999839199],[-93.210475999832482,37.141026999925586],[-93.210456999565906,37.141003999710499],[-93.210438000197655,37.140990999741454],[-93.210420999580904,37.140973999668468],[-93.210398000014678,37.140951999821048],[-93.210373999725249,37.140929999967227],[-93.210340000288369,37.140904999669885],[-93.210326000044674,37.140897000174498],[-93.210299000280486,37.140886999908986],[-93.210279000189004,37.140875999973424],[-93.210254000074642,37.140862000313533],[-93.210225999587237,37.140841999771865],[-93.210218000089625,37.14083600032447],[-93.210201000371185,37.140821999941075],[-93.21018700012749,37.140810999996056],[-93.210155000340436,37.140797000324135],[-93.210146000119593,37.140791000157016],[-93.210129000401167,37.140785999659386],[-93.210099000263952,37.140776999765286],[-93.210081999647201,37.140774000039066],[-93.210066999578572,37.140765000143539],[-93.210054000058108,37.140754999860569],[-93.210011000400399,37.140728999834728],[-93.209961999996594,37.140704000187064],[-93.209812000208771,37.140660000328779],[-93.209797999965062,37.140656000210186],[-93.209736999865683,37.140658999941138],[-93.209720000147243,37.140663000059568],[-93.209701999705587,37.140665999790187],[-93.209684000162255,37.140669000236798],[-93.209665999720585,37.140669999908248],[-93.209648000177239,37.140671000295747],[-93.209629999735569,37.140671999967182],[-93.209612000192223,37.140671999967182],[-93.209592999925647,37.140674999697438],[-93.209575000382301,37.140674999697438],[-93.209556999940631,37.140674999697438],[-93.209539000397299,37.140674000026102],[-93.209520999955629,37.140674999697438],[-93.209501999689053,37.140676000084923],[-93.209484000145707,37.140678000143694],[-93.209469999902012,37.140685999662225],[-93.209453000183572,37.14069100016652],[-93.209434999741902,37.14069100016652],[-93.209417000198556,37.140693000224886],[-93.209402000129941,37.140700000070794],[-93.209385000411501,37.140704000187064],[-93.209362999771898,37.140713000089846],[-93.209345000228524,37.140715000147637],[-93.209326999786882,37.140717000205427],[-93.209310999893333,37.140724999719843],[-93.209294999999827,37.140730999892149],[-93.209279000106292,37.140737999734533],[-93.209262000387866,37.140743000235339],[-93.209244999771101,37.140750999747006],[-93.209228000052676,37.140756000247002],[-93.209212000159141,37.14076300008707],[-93.209197999915432,37.140771000312732],[-93.209183999671737,37.140780000207492],[-93.209166999953297,37.140784999989464],[-93.209134000341336,37.140795999938256],[-93.209118000447816,37.140802999774628],[-93.209104000204107,37.140810999996056],[-93.209088000310587,37.140817999831043],[-93.209074000066877,37.140824999665384],[-93.209060999648088,37.140834999939095],[-93.209049999777434,37.140847000265843],[-93.209038999906781,37.140858000205618],[-93.209024999663086,37.140869000143802],[-93.20901799999038,37.140882000133757],[-93.209018999815299,37.140897000174498],[-93.209013999792418,37.140910000159643],[-93.209003999746685,37.140921999758383],[-93.208991000226206,37.140931000351287],[-93.208982999830283,37.140944999998453],[-93.208968999586574,37.140962999745554],[-93.208957999715935,37.140973999668468],[-93.208946000020347,37.140985999973111],[-93.208936999799533,37.1409980002759],[-93.208930000126841,37.14101100024368],[-93.208924000279055,37.141024000209285],[-93.208913000408401,37.141039999888392],[-93.208905999837384,37.141052999849009],[-93.20889699961657,37.141065000141118],[-93.208886999570808,37.141076000049203],[-93.208879000073196,37.141089000003632],[-93.208865999654407,37.141106000050783],[-93.208746000003828,37.141374999867381],[-93.208721999714371,37.141474000008998],[-93.208704999995931,37.141492000346318],[-93.208695999775088,37.141505000229202],[-93.20868800027749,37.141516999733568],[-93.208675999683621,37.141528999952122],[-93.208663999988048,37.141539999792677],[-93.208653000117394,37.141552000007579],[-93.208642000246755,37.141564000220583],[-93.208636000398954,37.141577000091097],[-93.208622000155259,37.141625000199667],[-93.208621000330339,37.141638999718353],[-93.208619999607123,37.14165400032504],[-93.208618999782203,37.141667999838404],[-93.208622000155259,37.14171100016879],[-93.208622999980165,37.141726000045111],[-93.208622999980165,37.141753999758642],[-93.20862499962999,37.141782999834611],[-93.20862600035322,37.14179700004015],[-93.208622999980165,37.141811999899403],[-93.208617000132392,37.141824999727348],[-93.20860899973647,37.141838000269111],[-93.208598999690736,37.141849000064781],[-93.208597999865816,37.141865000285485],[-93.208597000040896,37.141878999759804],[-93.208595000391085,37.141911000185196],[-93.208593999667855,37.141924999650939],[-93.208590000368204,37.141938999830202],[-93.208581999972296,37.141952000352369],[-93.208576999949415,37.141965000156205],[-93.208573999576373,37.141979999982198],[-93.208566000078761,37.141992000127303],[-93.208560000230975,37.142006999947945],[-93.208554000383188,37.142019999742331],[-93.208540999964399,37.14202999985806],[-93.208539000314587,37.142044000017883],[-93.208539000314587,37.142058000175119],[-93.208550000185241,37.142070000307847],[-93.208542999614224,37.142103999957406],[-93.208531999743585,37.142116000082844],[-93.208523000421053,37.14212800020637],[-93.208515999850036,37.142140999979951],[-93.208511999652075,37.142155000119232],[-93.208510999827183,37.142169999907551],[-93.208510000002263,37.142200999842537],[-93.208508000352438,37.142216000337832],[-93.208503000329586,37.142229000096293],[-93.208494000108757,37.142241999852573],[-93.208484000063009,37.142253000305544],[-93.208479000040128,37.142296000303389],[-93.208474000017247,37.142309999697879],[-93.208468000169475,37.142323000156338],[-93.208463999971514,37.142337000261932],[-93.208463000146608,37.142350999648841],[-93.208459999773552,37.142364999749248],[-93.208458000123741,37.142388000266614],[-93.208457000298807,37.142403000008727],[-93.208455999575591,37.142417000099513],[-93.208454999750685,37.142431999835871],[-93.208454999750685,37.1424459999213],[-93.20845399992578,37.142460000004128],[-93.208448000077993,37.142474000084363],[-93.208443000055112,37.142486999798493],[-93.208438000032231,37.142500999873732],[-93.208427000161606,37.142512000289088],[-93.208413999742803,37.142522000339774],[-93.208448000077993,37.142549000112062],[-93.208366000062227,37.142839000187735],[-93.208275999650539,37.143158000132566],[-93.208049999694722,37.143282999961862],[-93.20779000030204,37.143322999748989],[-93.207673000126178,37.143426999812682],[-93.207426000253975,37.144085000247536],[-93.20738199987305,37.144884000342998],[-93.207141999673539,37.145926000211688],[-93.207114999909351,37.146098000296718],[-93.206816999983516,37.146353999782107],[-93.20629200027696,37.146737000300433],[-93.204769000137532,37.148127000083953],[-93.203322999990974,37.149486000295916],[-93.203107000080919,37.149749999761312],[-93.203054000377492,37.149819000283301],[-93.202999000125885,37.14985199976357],[-93.202854000360929,37.150000000336462],[-93.202565999582532,37.150204000244997],[-93.202503999658262,37.150270000287101],[-93.202388000205602,37.150483999897247],[-93.20235300004552,37.150483999897247],[-93.202271000029754,37.150610000046925],[-93.202030999830228,37.150847000219947],[-93.201805999699332,37.151181999723129],[-93.201665000132351,37.151340000157873],[-93.201547000131569,37.151456000013098],[-93.20150299975063,37.151449999975583],[-93.201433000328748,37.151528999954166],[-93.201377000252265,37.151680999644675],[-93.201292999688363,37.151806999947816],[-93.201183999908409,37.151916000279378],[-93.201046999641051,37.152003999762364],[-93.200945000432128,37.152163000147056],[-93.200721999951043,37.152352000034313],[-93.200510000238936,37.152615000004303],[-93.199854000112822,37.153068000247117],[-93.199683000408598,37.153384000064598],[-93.198982000076626,37.154149000058652],[-93.199582000126242,37.159660000171904],[-93.198279000094857,37.162968000112663],[-93.198053999963946,37.163183999756924],[-93.197961999902446,37.163253000189307],[-93.197839999703717,37.163352000326206],[-93.197764000434034,37.163459999676817],[-93.197672000372535,37.163520999891432],[-93.197549000348872,37.163559000258431],[-93.197381999944312,37.163596999890444],[-93.197212999889913,37.163596999890444],[-93.19704499966042,37.163559000258431],[-93.19680500035922,37.163567000220233],[-93.196637000129726,37.163496999988894],[-93.196499000037463,37.163475000250514],[-93.196324999960197,37.16346999982099],[-93.196339000203892,37.163560000343161],[-93.196353000447601,37.163648999958738],[-93.196360000120293,37.163694000126711],[-93.196376999838719,37.16380100033885],[-93.196393999557174,37.163907999683644],[-93.196304999868701,37.163866999965968],[-93.196299999845834,37.163826000226059],[-93.196184000393202,37.163722000297184],[-93.195977999630543,37.163672999813059],[-93.195915999706287,37.163607000016491],[-93.19581299977412,37.163590000016157],[-93.195744000177143,37.163595999806162],[-93.195682000252859,37.163628999716451],[-93.195435000380655,37.163958000094929],[-93.195304999786003,37.164045999879477],[-93.195242999861733,37.16410700033704],[-93.195160999845967,37.164155999823919],[-93.194810000216677,37.1643049996757],[-93.194646000185145,37.164403999866401],[-93.19441199983342,37.164589999722146],[-93.194302000228561,37.164656000092059],[-93.194241000129182,37.164721999688453],[-93.193938000180495,37.164909000260259],[-93.193656999973086,37.165040999669493],[-93.193389000184496,37.165250000111925],[-93.193224000328058,37.165348999780647],[-93.19294300012065,37.165475000212751],[-93.192791999609611,37.165508000018527],[-93.19184400030376,37.165628999898871],[-93.191700000363696,37.165650999726154],[-93.19158900003562,37.165640999870497],[-93.191584000012753,37.165576999761051],[-93.191582000362942,37.165558000087223],[-93.191592000408676,37.164625000055608],[-93.191628000393692,37.161468000271711],[-93.191616999624713,37.161027000233261],[-93.19107100000177,37.161015000244937],[-93.189890999994006,37.160991000262634],[-93.188110000111692,37.160955000274868],[-93.187123000447798,37.160936000155097],[-93.182128000057133,37.16111800020186],[-93.181178000203147,37.160771000308252],[-93.180729999591179,37.16064299966267],[-93.18049199993979,37.160548000055762],[-93.180297999771057,37.160503000162656],[-93.176870999725651,37.16094100003636],[-93.176306999661051,37.160931000273514],[-93.176157999698134,37.161766999649195],[-93.176157999698134,37.161802999966156],[-93.176157999698134,37.161826000298845],[-93.176156999873228,37.161885000186594],[-93.176156000048309,37.1619110000982],[-93.176156000048309,37.161947999736782],[-93.176151999850347,37.162033000114853],[-93.176141999804614,37.162291000264347],[-93.176139000329883,37.162377999741594],[-93.176136999781733,37.16241100018366],[-93.176135000131922,37.162509999991535],[-93.176135000131922,37.162543999758284],[-93.176120000063293,37.162830000096321],[-93.176078000230504,37.163690999877716],[-93.176064999811715,37.163978000250218],[-93.175269999768418,37.163988000325851],[-93.172887000186677,37.16401699975026],[-93.172092999968299,37.164027999899311],[-93.172061000181259,37.164027999899311],[-93.172010000127628,37.164030000056385],[-93.171964999921769,37.164030000056385],[-93.171933999959634,37.164031000134933],[-93.171785999821637,37.164042000281952],[-93.171340999582711,37.164078000231221],[-93.171194000167944,37.164089999733278],[-93.171191999619793,37.164285000322828],[-93.171195999817755,37.164374999874546],[-93.17124299967341,37.165229000230596],[-93.171258999566945,37.165513999656277],[-93.17124299967341,37.166995000065953],[-93.171195999817755,37.171438999651841],[-93.17118099974914,37.172920999867756],[-93.171175999726273,37.172942999719638],[-93.17116499985562,37.173011999831708],[-93.171160999657658,37.173035000332227],[-93.171163000205809,37.173239000357363],[-93.171169999878472,37.173850999991188],[-93.171173000251542,37.174054999960497],[-93.171172000426623,37.174092000095946],[-93.171172000426623,37.174111999716665],[-93.171169999878472,37.174168000201192],[-93.171168000228661,37.174206000225141],[-93.171168000228661,37.17424400023004],[-93.171162000380889,37.1744129997752],[-93.171144999764138,37.174919999721588],[-93.171139999741257,37.175089999834221],[-93.171123999847723,37.175099999871051],[-93.171078999641892,37.175130999905193],[-93.171063999573278,37.175141999868046],[-93.17105600007568,37.175592999830236],[-93.171032999611143,37.176946999933435],[-93.171025999938436,37.177398999758488],[-93.170919999633227,37.177369999743242],[-93.170795999784687,37.177350000269193],[-93.170670000286293,37.177330000074129],[-93.170093999627795,37.177289999668083],[-93.169860000174396,37.177289999668083],[-93.169847999580497,37.177289999668083],[-93.169811999595495,37.177289999668083],[-93.169799999899936,37.177289999668083],[-93.169616999601814,37.177287999861953],[-93.169070999978871,37.177281999727455],[-93.168889000404008,37.177280999824319],[-93.168881000008071,37.177293999995925],[-93.168516999960005,37.177777000272016],[-93.168249000171414,37.178030000172647],[-93.168055999827558,37.178162000282349],[-93.167844000115451,37.178265999664092],[-93.167813999978222,37.17827400021627],[-93.1673970002267,37.17839200003084],[-93.16728699972353,37.178413999721165],[-93.167218999951459,37.178409000280119],[-93.167191000362379,37.17839200003084],[-93.167183999791376,37.178309999827412],[-93.167150000354482,37.178303999774144],[-93.166500000076155,37.17845199975671],[-93.166284999991021,37.178501999849779],[-93.165727999599085,37.178836999905691],[-93.165686999591202,37.178880999736435],[-93.165562999742647,37.179046000126],[-93.165412000129905,37.179347999727661],[-93.165291999581001,37.179768999951868],[-93.165268000189855,37.179854000326202],[-93.165041000409147,37.180315000134428],[-93.165048000081839,37.180452999713125],[-93.16500000040125,37.180557000235119],[-93.164971999913845,37.180781999849152],[-93.164985000332649,37.180822999693909],[-93.165012999921743,37.180914000160072],[-93.16511599985391,37.180953000224079],[-93.165185000349183,37.180953000224079],[-93.165247000273453,37.180891999766416],[-93.165268000189855,37.180671999771697],[-93.16531599987043,37.180629000127247],[-93.165350000205621,37.180634000137104],[-93.165418999802597,37.180700000092877],[-93.165590000405132,37.18069500008739],[-93.16561799999424,37.180744000269904],[-93.165582999834129,37.180825999978403],[-93.165412000129905,37.181029999722405],[-93.165370000297116,37.181139999994194],[-93.16536799974898,37.181153000217478],[-93.165362999726099,37.181186000333668],[-93.16535100003054,37.181287000296109],[-93.165350000205621,37.181303999893828],[-93.165341999809712,37.181320000353764],[-93.165239999702465,37.181519000244073],[-93.165192000021889,37.181557000149127],[-93.164982999784499,37.181820999978811],[-93.164957999670136,37.181853999803167],[-93.164780000293234,37.182122999937548],[-93.164305999741984,37.182673000324669],[-93.164234999596886,37.182724000317727],[-93.16410599972545,37.182821000335778],[-93.163728000331986,37.183183999961997],[-93.163605000308351,37.183304000342012],[-93.163514999896648,37.183425000353196],[-93.163295999613538,37.183627999699979],[-93.164243999817714,37.183677999945395],[-93.164746999782949,37.183705999867954],[-93.165407000107024,37.183741999753195],[-93.166819999743311,37.183818999986798],[-93.169106000138967,37.183839999711608],[-93.170559999783123,37.183854000001986],[-93.170623000430624,37.183909999706309],[-93.170815000051249,37.184078000001428],[-93.170878999625344,37.184135000067791],[-93.170876000150614,37.184162999820934],[-93.170871000127747,37.184249999882347],[-93.170870000302827,37.184279999929636],[-93.170860000257079,37.184647000354865],[-93.170850000211345,37.185019999948373],[-93.170840000165612,37.185300000173036],[-93.170832999594595,37.185751000322995],[-93.170830000119864,37.186050000235817],[-93.170830000119864,37.186120000329218],[-93.170825000096997,37.186373999980212],[-93.170820000074116,37.186649999646832],[-93.170810000028382,37.187136000248479],[-93.170810000028382,37.187180000254564],[-93.170810000028382,37.187330000277839],[-93.170799999982634,37.18739000006061],[-93.170799999982634,37.187539999666775],[-93.170799000157729,37.187597999749528],[-93.170789999936886,37.188221999672791],[-93.170789999936886,37.188279999947412],[-93.170779999891153,37.188429999932708],[-93.170774999868286,37.188514999863727],[-93.170763000172713,37.188772999767146],[-93.170759999799671,37.188860000243146],[-93.170753999951884,37.189133000173044],[-93.170749999753909,37.189330000028463],[-93.170739999708175,37.189769999749572],[-93.170739999708175,37.189954999688005],[-93.170739999708175,37.190230000132232],[-93.170729999662427,37.190850000165682],[-93.17070999957096,37.19154000019644],[-93.170690000377775,37.192590000030577],[-93.170700000423508,37.192839999883475],[-93.170719999616693,37.193049999692711],[-93.170789999936886,37.193369999982714],[-93.170789999936886,37.194010000071991],[-93.170779999891153,37.194660000054874],[-93.170779999891153,37.195299999942847],[-93.170739999708175,37.196679999665584],[-93.170729999662427,37.196769999984646],[-93.17063000010333,37.196759999954487],[-93.170610000011834,37.196810000092036],[-93.170599999966086,37.196860000196416],[-93.170579999874619,37.196900000256122],[-93.170569999828857,37.197160000127347],[-93.170509999554412,37.201010000031602],[-93.170490000361227,37.201659999848602],[-93.170480000315493,37.2027499997142],[-93.170470000269759,37.203259999877915],[-93.170460000224011,37.203829999770676],[-93.170470000269759,37.204669999862688],[-93.170450000178278,37.205559999972337],[-93.170450000178278,37.205720000245726],[-93.1704099999953,37.207089999699285],[-93.170399999949552,37.207670000017025],[-93.170389999903804,37.207750000105726],[-93.17037499983519,37.208468000253717],[-93.170333999827307,37.210621999772286],[-93.170319999583597,37.211339999779575],[-93.170306000238213,37.212081000164751],[-93.170264000405425,37.214307999663234],[-93.17025000016173,37.215050000349102],[-93.170240000115982,37.215110000278493],[-93.170235000093101,37.21529900010178],[-93.170215999826539,37.216048999752353],[-93.170209999978752,37.216299999988507],[-93.170189999887256,37.216910000293517],[-93.170159999750041,37.217869999813985],[-93.170189999887256,37.218710000281966],[-93.170189000062351,37.218741000297385],[-93.170183000214578,37.21935200023988],[-93.17017499981867,37.219968999845072],[-93.170169999795789,37.220430000088868],[-93.170136000358895,37.221820999882262],[-93.170129999612811,37.222089999965668],[-93.170149999704279,37.222250000238354],[-93.170230000070234,37.222419999664382],[-93.170165999597828,37.222418000338202],[-93.169973999977188,37.222415000275831],[-93.169911000227998,37.222414000255036],[-93.169946000388109,37.222655999898699],[-93.168666999747828,37.222619999971293],[-93.167029999805592,37.22257499985907],[-93.164099000052758,37.22249399973245],[-93.162576999738235,37.22245200032139],[-93.162576999738235,37.223090999868624],[-93.16257799956314,37.223921000127099],[-93.162514999813936,37.225007999646238],[-93.162478999828949,37.22564699971177],[-93.163134000130142,37.225657000205928],[-93.165099000135456,37.225687000249948],[-93.165755000261569,37.225697000023551],[-93.166362999808797,37.226473999835903],[-93.166885000040637,37.227139999945116],[-93.169000999658678,37.22714399977761],[-93.169989000045817,37.227146999651872],[-93.170247999613593,37.227145999693811],[-93.170384999880937,37.227145999693811],[-93.170370999637228,37.227812000305576],[-93.170331000352576,37.229697999735833],[-93.170322000131762,37.230171000325143],[-93.170306000238213,37.230972999647186],[-93.170305000413322,37.23099800018722],[-93.17028299977369,37.232059999795709],[-93.170278999575729,37.233058999920445],[-93.170269000428306,37.236058999778471],[-93.17026600005525,37.237060000205744],[-93.17026600005525,37.237103999715259],[-93.17026600005525,37.237238999707877],[-93.170266999880155,37.237283999651666],[-93.172863999722153,37.237375999818724],[-93.180656999796241,37.237653000180181],[-93.183255000361456,37.237745999714427],[-93.183332000354355,37.237757999669],[-93.183561999609807,37.237796999687127],[-93.183640000325923,37.23781000016546],[-93.18456000004268,37.237800999669489],[-93.18732000009129,37.237776999772024],[-93.188240999632953,37.237768999804537],[-93.188235999610086,37.237870999684318],[-93.188229999762299,37.238039999840431],[-93.188238000158222,37.238177999737722],[-93.188239999808033,37.238210000144235],[-93.188249999853795,37.238279999779245],[-93.188203999823031,37.238294999794761],[-93.188219999716566,37.238372999970267],[-93.188216000416915,37.238474999747929],[-93.18805800023317,37.24576499990075],[-93.188049000012342,37.246176000192797],[-93.188027000271035,37.247044000020331],[-93.188027000271035,37.247060999824875],[-93.188255999701582,37.247023999698591],[-93.188649000061957,37.246950000106544],[-93.18903599967625,37.246863999793661],[-93.18927300040103,37.246809999713314],[-93.189484000288218,37.246754999896247],[-93.189759999574434,37.246678000228002],[-93.190038000307084,37.246593000019892],[-93.190272999585417,37.246514999769794],[-93.19050100008937,37.24643400033225],[-93.190727000045186,37.246348999848976],[-93.191629000218583,37.245962999653138],[-93.191921000296645,37.24581699987889],[-93.192157000298195,37.245694000354],[-93.192414000216147,37.245548000058591],[-93.19264400036991,37.245412000214642],[-93.192855000257111,37.245283000293647],[-93.193118000022821,37.245118000239096],[-93.193360999697092,37.244960999743419],[-93.193620000163165,37.244763000218818],[-93.193852999791673,37.244578999926993],[-93.194165999786122,37.244339000021647],[-93.194361999604695,37.244161999682213],[-93.194626000093663,37.243904000345786],[-93.194899999730055,37.243629000266353],[-93.195196000006064,37.243294000270097],[-93.195574000297839,37.242813000342089],[-93.196683000160476,37.241417999662531],[-93.197057000254304,37.240972999683784],[-93.197195000346539,37.240824999986096],[-93.197351999807069,37.240667999844163],[-93.197508000341003,37.240523000319975],[-93.197637000212438,37.240409000207187],[-93.197808999741582,37.240254000197581],[-93.19813000013194,37.23998700012104],[-93.198403999768317,37.239787999896166],[-93.198658000211537,37.239609000010532],[-93.198940000243837,37.239429999699816],[-93.199189999590772,37.239269000323695],[-93.199509000331318,37.239096999948472],[-93.199819999777631,37.2389389999814],[-93.200140000343083,37.23878600013218],[-93.200384999667165,37.238673999863387],[-93.200706999882428,37.238547000181022],[-93.201058000410029,37.238417999952283],[-93.201399999818477,37.238306999661987],[-93.201576000443879,37.238256000034283],[-93.201933999745847,37.238160000262944],[-93.202348999847572,37.238057000245689],[-93.20267000023793,37.237988000217868],[-93.20307799976861,37.237896000082543],[-93.203329999663694,37.237838999849082],[-93.203629000312745,37.237778000304331],[-93.205318000133531,37.237424999683107],[-93.206669999670424,37.234643000085107],[-93.207479999782336,37.234659999826007],[-93.207498000224007,37.234659999826007],[-93.207970000227107,37.234679999852851],[-93.208520999872917,37.234700999732283],[-93.209009999594457,37.234719999890594],[-93.209209999611005,37.234719999890594],[-93.210177000081757,37.234750999762184],[-93.210419999755999,37.234759999907091],[-93.210730000275703,37.23474999990497],[-93.210746000169223,37.235050999960606],[-93.210796000397949,37.23595499990995],[-93.210812000291469,37.23627499992719],[-93.210808999918413,37.23632899968883],[-93.210808000093508,37.236347000316009],[-93.210806000443696,37.236375000011577],[-93.210802000245735,37.236460000300845],[-93.210802000245735,37.236488999788662],[-93.210839999880562,37.236500000109324],[-93.21088000006354,37.236530000130571],[-93.210896999781966,37.236570999734994],[-93.210910000200755,37.236599999895255],[-93.210910000200755,37.23668999980373],[-93.21089599995706,37.236974000050104],[-93.210890000109288,37.237110000101453],[-93.210875000040659,37.237326000099451],[-93.210870000017778,37.237410000209664],[-93.210870000017778,37.237709999839097],[-93.21088000006354,37.237889999758863],[-93.210891999759099,37.237976000299852],[-93.210910000200755,37.238089999801311],[-93.210921999896343,37.238191000150337],[-93.210933999591887,37.23830000027602],[-93.210940000337999,37.238356000351509],[-93.210950000383733,37.238440000029087],[-93.210953999683383,37.238529000079183],[-93.211808000176219,37.238559000008081],[-93.213405999760411,37.238617000218277],[-93.214640000194834,37.238661000249238],[-93.21503900040301,37.238676000188946],[-93.215291000298095,37.238681999734872],[-93.215584000201062,37.238688999800495],[-93.215830000248346,37.238687999995513],[-93.216232999756159,37.238684999865256],[-93.217950000064363,37.238674999668596],[-93.218180000218112,37.238673000058199],[-93.218829999598142,37.238669999927346],[-93.219063000124962,37.238679000319557],[-93.21958000033392,37.238699999800176],[-93.219765000281839,37.238703999734625],[-93.219999999560173,37.238709999993503],[-93.220151999896132,37.23871399992742],[-93.220608000005711,37.238727000247607],[-93.220760000341684,37.238731999985085],[-93.220751999945747,37.239253999786868],[-93.220748999572706,37.239438000206185],[-93.220715000135826,37.241557000293781],[-93.220705000090092,37.242264000272222],[-93.220741999900014,37.243144999663123],[-93.22085300022809,37.245787999689234],[-93.220890000038025,37.246669999775037],[-93.221280999850265,37.246685000266105],[-93.221629999829716,37.246700000039084],[-93.221690000104175,37.246700000039084],[-93.222189999696383,37.246730000291187],[-93.222310000245287,37.246740000134217],[-93.222439999941642,37.246730000291187],[-93.222455999835148,37.246726000067568],[-93.222490000170339,37.246719999731781],[-93.222629999912428,37.24668000034108],[-93.222829999928962,37.246609999926171],[-93.224318999733214,37.246566999945507],[-93.224439000282118,37.246564000128878],[-93.224672999735532,37.246557000079527],[-93.224671999910626,37.246569999762038],[-93.224671000085706,37.246593000019892],[-93.224671000085706,37.246602999881091],[-93.224665000237934,37.24663899979948],[-93.224409000144902,37.248700000238244],[-93.224327999954056,37.249335000353994],[-93.224318999733214,37.249406999708441],[-93.22430500038783,37.249526000248437],[-93.224296999991921,37.249594999724401],[-93.224281999923292,37.249722999755924],[-93.224235000067623,37.25012999986933],[-93.224230999869661,37.250160999838805],[-93.22420999995326,37.250349999768979],[-93.224205999755299,37.250524999864247],[-93.224198000257715,37.250969000288364],[-93.224195999709565,37.251053000209559],[-93.224193000234834,37.251228999740782],[-93.224190999686698,37.251652000150344],[-93.224189999861792,37.251693999741917],[-93.224189999861792,37.251805999968411],[-93.224188000211967,37.252922999947941],[-93.224187000387047,37.253346999752722],[-93.22418400001402,37.253419000278555],[-93.224178000166205,37.253636000334808],[-93.224175999618083,37.253709000190156],[-93.224132999960375,37.25406200033418],[-93.224149999678815,37.254623999978243],[-93.224187000387047,37.255826999838945],[-93.224236999717448,37.257376000346824],[-93.224266999854677,37.25829399998922],[-93.224261000006905,37.258334999908556],[-93.224245000113356,37.258458000247565],[-93.224240000090504,37.258500000334777],[-93.224250999961157,37.25896299999927],[-93.224283999573117,37.260351999791069],[-93.224295000342082,37.260815999737332],[-93.224312999885427,37.26136899992899],[-93.224368999961925,37.263028999932196],[-93.224388000228501,37.263582999793293],[-93.224388000228501,37.263677999876293],[-93.224390999703232,37.263963000121322],[-93.224392000426448,37.264057999725033],[-93.224373999984806,37.264301999738329],[-93.224331000327098,37.264873000318794],[-93.224322999931175,37.26498400008299],[-93.224318999733214,37.265035000209629],[-93.22411899971668,37.26776499972614],[-93.224050999944609,37.268691999660071],[-93.224025000005327,37.269452999850301],[-93.223948999837361,37.271738000186232],[-93.223925000446229,37.272499999684989],[-93.223886999913077,37.272679000065899],[-93.222699000407715,37.272823999898748],[-93.222075000068642,37.27289999994116],[-93.217001999860187,37.273519000298045],[-93.216088999816122,37.273520000355703],[-93.215098999779158,37.2735229998138],[-93.214467999767379,37.273142999834619],[-93.214226999742962,37.272997999901364],[-93.21414100042756,37.272994999707556],[-93.213886000159434,37.27298699990488],[-93.213800999770612,37.272984999775396],[-93.213356000429997,37.272983999710625],[-93.213276999888976,37.272983999710625],[-93.213084000443445,37.272968000102153],[-93.210940000337999,37.27279099982821],[-93.210225999587237,37.272733000189106],[-93.209165000303472,37.272694999735791],[-93.205982999582176,37.272581999760561],[-93.204923000123316,37.2725450000165],[-93.203179999875857,37.272520999747741],[-93.202361000441442,37.27250999968156],[-93.20151699999434,37.272499000328636],[-93.197951000031779,37.272451999825975],[-93.196207999784335,37.27242999967185],[-93.195806999926333,37.272428000242428],[-93.195574000297839,37.272426000098029],[-93.193672000041715,37.272415000018029],[-93.193039000380125,37.27241199980093],[-93.192968000235012,37.272978000036574],[-93.192753999974769,37.274678999643008],[-93.192683999654577,37.275246000025341],[-93.191476000057719,37.275207000090433],[-93.187852000368835,37.275090000164496],[-93.186643999873681,37.275052000186072],[-93.18663999967572,37.275219999832707],[-93.186633999827947,37.275465000164374],[-93.186629999629986,37.27570999969862],[-93.186629999629986,37.27594000019883],[-93.186610000436801,37.276706000116327],[-93.186600000391067,37.277120000322462],[-93.186586000147358,37.277561999797477],[-93.186570000253838,37.278070000095973],[-93.186540000116608,37.278839999730081],[-93.186539000291688,37.278886999818432],[-93.18653000007086,37.279330000334461],[-93.186514000177326,37.279773999647368],[-93.186465999598454,37.281105999740149],[-93.186449999704919,37.281550000012444],[-93.186415000443134,37.282472999854001],[-93.186320000008564,37.285059999834864],[-93.186314999985711,37.285242999975097],[-93.18630999996283,37.285509999756343],[-93.186273999977814,37.286167000155366],[-93.186270999604773,37.286217000338091],[-93.186262000282255,37.286368999746216],[-93.186259999734133,37.286419999681044],[-93.186249999688386,37.286640000068729],[-93.186249999688386,37.286705000320076],[-93.186249999688386,37.286910000250245],[-93.186239999642638,37.287439999694975],[-93.186232999969945,37.287564000247933],[-93.186219999551156,37.287849999994819],[-93.18621299987845,37.287951000100541],[-93.186210000403733,37.287999999947296],[-93.186210000403733,37.288256999904547],[-93.186210000403733,37.288359999899605],[-93.186200000357999,37.288560000320075],[-93.186198999634755,37.288620000342533],[-93.186200000357999,37.288897000254714],[-93.186200000357999,37.289080000354573],[-93.186180000266489,37.289589999783942],[-93.186170000220756,37.290100000044426],[-93.186170000220756,37.290510999975361],[-93.186170000220756,37.290620000155926],[-93.186160000175022,37.291050000350864],[-93.186152999604005,37.291557999654806],[-93.186150999954179,37.291739000083304],[-93.186150000129274,37.291839999971245],[-93.186130000037778,37.292309999817228],[-93.186099999900549,37.292749999809743],[-93.186095999702587,37.293081000057107],[-93.186089999854815,37.293589999731111],[-93.186084999831934,37.29379699977455],[-93.186078999984161,37.294017999817207],[-93.186048999846932,37.295301999757804],[-93.186039999626104,37.295730999870891],[-93.186042000174226,37.295817999885266],[-93.186048000022012,37.29608200002766],[-93.186049999671837,37.296170000107416],[-93.186026000280719,37.296813000278227],[-93.185955999960512,37.298744999850683],[-93.185940000066992,37.299200000113807],[-93.185940000066992,37.299390000304236],[-93.185935999869017,37.299473999806665],[-93.185930000021244,37.299649999786972],[-93.185914999952615,37.299725999894768],[-93.185899999884029,37.299809999736546],[-93.185930000021244,37.299899999871243],[-93.185938000417167,37.300009000025149],[-93.185940000066992,37.300030000272656],[-93.185916999602455,37.300624000149242],[-93.185909999929763,37.300829999720591],[-93.185899999884029,37.301390000344924],[-93.185889999838267,37.301602999897355],[-93.185869999746785,37.302049999734251],[-93.185827000089077,37.303925000307324],[-93.185810000370651,37.304700000113286],[-93.185790000279155,37.305415999984859],[-93.185770000187674,37.306200000327728],[-93.185735000027563,37.307564000136431],[-93.185719999958948,37.308159999719287],[-93.185709999913215,37.308279999888782],[-93.185694999844586,37.308496999732746],[-93.185652000186906,37.309150999975394],[-93.185637999943197,37.309368999744855],[-93.185703000240522,37.309368999744855],[-93.185898000234189,37.309370000040538],[-93.185964000356421,37.30937100033627],[-93.186946999822396,37.309378999843652],[-93.189896000016873,37.309404999665595],[-93.190880000206064,37.309414000178975],[-93.191183000154766,37.309245999706832],[-93.191609999952021,37.309252000061896],[-93.193930999609478,37.309291000214579],[-93.194704999736373,37.309303999784689],[-93.195201000028945,37.309306999959965],[-93.196688000183357,37.309318999945354],[-93.197185000300806,37.309323999998249],[-93.197185000300806,37.309107999982338],[-93.197183999577589,37.308536999869361],[-93.197185000300806,37.308459999783871],[-93.197186000125711,37.30824499974004],[-93.197254999722702,37.306489999870927],[-93.197283000210106,37.305784000084628],[-93.197288000232973,37.305147000120051],[-93.201209000022757,37.305111999942056],[-93.202480000267116,37.30510100035233],[-93.202860000208716,37.305402000108579],[-93.202948999897188,37.305488999654642],[-93.203215999860859,37.305753000149572],[-93.203306000272562,37.305841000346781],[-93.203478999626597,37.306002000327268],[-93.203885000405776,37.306378999864975],[-93.204000000033517,37.306485999963634],[-93.204174000110783,37.306648000324181],[-93.204964000131184,37.307375999805792],[-93.206014000442622,37.308343000115428],[-93.207812999868253,37.308348000233231],[-93.208682000429718,37.308350999732134],[-93.208889000118958,37.308352000041424],[-93.20898799985315,37.308364000179232],[-93.209284999954079,37.308399999866722],[-93.209383999688285,37.308413000305343],[-93.209380000388649,37.308478000321273],[-93.209371000167806,37.308676999822843],[-93.20936799979475,37.308742999914628],[-93.209360000297139,37.308821000013353],[-93.20935100007631,37.308921000241433],[-93.20935100007631,37.309004000229677],[-93.20935199990123,37.309322999701898],[-93.209822000254505,37.309320999823647],[-93.210085000020229,37.309320000241769],[-93.210099000263952,37.309958999726142],[-93.210141999921646,37.311877999698922],[-93.210156999990261,37.312517999844701],[-93.210199999647969,37.313019000321937],[-93.211911000108373,37.312972999654406],[-93.213238000429243,37.312938000261447],[-93.215834000446293,37.312851000046301],[-93.216315999596844,37.313134000081554],[-93.216724000025835,37.313816000197242],[-93.217425000357792,37.314987000189689],[-93.217473999863302,37.31506999991111],[-93.217678000077782,37.315410000318231],[-93.218596999969634,37.316254000170446],[-93.218945999949099,37.316575000000242],[-93.219000000375772,37.316862999855978],[-93.219757999710822,37.31692700022974],[-93.219679999893017,37.317219999693322],[-93.220813999870032,37.317271000144046],[-93.221163999674403,37.317287999810326],[-93.222213999985826,37.31734200006953],[-93.222563999790196,37.317359999909179],[-93.222680999966045,37.317372000037984],[-93.223031999595335,37.317408999887391],[-93.223149999596103,37.317422000196977],[-93.223711000185986,37.317435999978358],[-93.225395999808811,37.317479999682469],[-93.225958000223599,37.317495000355116],[-93.227862000129562,37.317464999721317],[-93.230694999973082,37.317421000008373],[-93.233577000220436,37.317376000080507],[-93.23548199995129,37.317347000303258],[-93.235990999764311,37.317323000035657],[-93.236499999577319,37.317358000244745],[-93.236647999715345,37.317369000184563],[-93.237626999881641,37.317641999929876],[-93.238451000237262,37.31813799965402],[-93.239281000440641,37.318570000042428],[-93.240033999752825,37.318962999975305],[-93.240016000209479,37.319664000232692],[-93.239971999828555,37.321344000279367],[-93.239924000147994,37.323212999805101],[-93.239815000368026,37.327490000068501],[-93.240131999662111,37.327495999681595],[-93.240733000434972,37.327508000334987],[-93.24855999994594,37.327680000203387],[-93.254307999648788,37.327800999978756],[-93.25438899983962,37.327800999978756],[-93.257907000121605,37.327825999807658],[-93.257863999565586,37.328496999737311],[-93.257888999679949,37.328497999778506],[-93.257764000006475,37.33167899989553],[-93.257013000344102,37.331645999926202],[-93.253255999687525,37.331482999865017],[-93.250262000185515,37.331354000280164],[-93.249220000270029,37.331340000234377],[-93.249129999858326,37.331330000200083],[-93.249099999721111,37.331320000164403],[-93.249040000344976,37.331310000127452],[-93.248840000328414,37.331300000089172],[-93.24864000031188,37.331300000089172],[-93.24867000044911,37.331469999844906],[-93.248689999642281,37.331719999837254],[-93.248580000037421,37.331810000345094],[-93.248610000174665,37.331840000252356],[-93.24864000031188,37.331860000183838],[-93.248650000357628,37.331900000030878],[-93.248630000266132,37.333000000335026],[-93.24864000031188,37.333140999704177],[-93.248637999763744,37.334141000294878],[-93.248594000281116,37.335220000228276],[-93.248585999885208,37.33539200029729],[-93.248431000074504,37.339143999671272],[-93.248380000020887,37.340395999793834],[-93.248369999975139,37.34058799990185],[-93.248279999563451,37.342540000037232],[-93.248084999569798,37.346762000216437],[-93.245871999867362,37.346713000098234],[-93.243726000112076,37.346667000060208],[-93.2423829998977,37.346643999673518],[-93.242350000285739,37.347099999752622],[-93.242258000224226,37.348421000345517],[-93.24206700042852,37.351146000219515],[-93.240735999909688,37.35135999990294],[-93.238958000400459,37.351647000229221],[-93.238945999806589,37.351898999645847],[-93.238910999646464,37.352657000114341],[-93.238899999775839,37.352910000141236],[-93.238898999950919,37.352935999898136],[-93.23889700030108,37.353015000257663],[-93.23889700030108,37.353041999692607],[-93.238892000278213,37.353262999806738],[-93.238879999684329,37.353829999737499],[-93.238876000384693,37.353925999815644],[-93.238867999988784,37.354147000183481],[-93.239006999905953,37.354149999996622],[-93.239423999657461,37.354159000149295],[-93.239564000297861,37.354161999961903],[-93.240396999975985,37.354180999962608],[-93.240765000222027,37.354190000111622],[-93.241874999909598,37.354216000139211],[-93.241824999680873,37.355236000157625],[-93.24178500039622,37.356068999649651],[-93.241780000373353,37.356100000251239],[-93.24176699995455,37.356192999837035],[-93.241762999756588,37.356225000059453],[-93.241602999923018,37.358981999884357],[-93.238724999873639,37.358944999802453],[-93.238719999850758,37.359145000240218],[-93.238712000353161,37.359547000200365],[-93.238687000238812,37.359943999894973],[-93.238672999995103,37.359951000108175],[-93.238667000147331,37.359985000114307],[-93.238682000215931,37.360064999815975],[-93.238672000170183,37.360096999815589],[-93.238669999622061,37.360239999669339],[-93.238659999576313,37.360269999644025],[-93.238650000428891,37.360809999993741],[-93.238640000383143,37.361420000104843],[-93.238610000245927,37.362660000028583],[-93.238590000154417,37.363860000229906],[-93.238590000154417,37.36395000006042],[-93.238570999887855,37.364433000305539],[-93.238539999925706,37.365249999851336],[-93.238524999857106,37.366156000282317],[-93.238519999834224,37.366510000012745],[-93.238509999788477,37.366730000205663],[-93.238499999742743,37.366899999718271],[-93.238482000199397,37.368366000084954],[-93.238479999651261,37.368620000210605],[-93.238450000412342,37.36930000023807],[-93.238450000412342,37.369730000119148],[-93.238351999604745,37.373272999686606],[-93.23834999995492,37.373359999889246],[-93.238339999909158,37.374150000343924],[-93.238319999817691,37.374909999796778],[-93.239288999938253,37.374935999784604],[-93.242197999949781,37.37501700010079],[-93.243167999895235,37.375044000186762],[-93.245828000384748,37.375050000283835],[-93.25231300040457,37.375065000167545],[-93.2538089998815,37.375067999858416],[-93.25647000019589,37.375075000088387],[-93.257158000109058,37.375067999858416],[-93.259225000221619,37.375050000283835],[-93.259913999959707,37.375044000186762],[-93.262120999814357,37.375036999953899],[-93.262814999575298,37.375034000261785],[-93.267096999938431,37.375022000064583],[-93.270137000369516,37.375012000136678],[-93.271518000218748,37.375008000307929],[-93.272798999610515,37.375004999900824],[-93.274419999659258,37.374999999935959],[-93.274510999895838,37.374789000256534],[-93.27455000025391,37.37470000000404],[-93.274570000345392,37.374650000136683],[-93.274669999904503,37.374330000196366],[-93.274710000087481,37.374159999672855],[-93.274714000285428,37.374134000129885],[-93.274750000270444,37.373908000043997],[-93.274750000270444,37.373894000079474],[-93.274751000095364,37.373853999758424],[-93.274751999920284,37.373840999935084],[-93.274809999646592,37.372009999781085],[-93.274811000369823,37.371939000126197],[-93.274819999692326,37.371440000293759],[-93.27482999973806,37.371109999775811],[-93.274789999555097,37.37070000024702],[-93.274700000041719,37.370110000353435],[-93.274638000117449,37.369864999971895],[-93.274591000261779,37.369681000001442],[-93.274572999820123,37.369613000193006],[-93.27455000025391,37.369520000103243],[-93.274513000443989,37.369412999811324],[-93.274490999804371,37.369347000182351],[-93.274479999933703,37.369316000055314],[-93.274448000146663,37.369223000311358],[-93.274438000100901,37.369193000346314],[-93.274458000192396,37.368196000324374],[-93.274735000201829,37.368198000063444],[-93.277387000295406,37.368217000080463],[-93.277739999574493,37.368220000045177],[-93.281089999626985,37.368244999984128],[-93.281697000247618,37.368249999685354],[-93.28409800027103,37.368265999726503],[-93.285214999631293,37.368274000102772],[-93.289167000281523,37.368303000210219],[-93.293093999919094,37.368332000306452],[-93.293094999744014,37.368280000027475],[-93.293099999766866,37.368123000174613],[-93.293102000315031,37.368071999978916],[-93.29315900021642,37.366765999773413],[-93.29333099974555,37.362849000142909],[-93.293389000370198,37.361544000019684],[-93.293428999654864,37.36007999983979],[-93.293550999853593,37.355688999711369],[-93.293591999861476,37.354225999982624],[-93.29363200004444,37.352404999671776],[-93.293750999870127,37.34694399966137],[-93.293791999878025,37.345123999643384],[-93.293791000053105,37.345102000032547],[-93.293789000403279,37.345039999731156],[-93.293789000403279,37.345018999916967],[-93.29377599998449,37.345018999916967],[-93.293738000349649,37.345018999916967],[-93.293725999755765,37.345018999916967],[-93.293738000349649,37.344878999815322],[-93.29377599998449,37.34445800025803],[-93.293789000403279,37.344318999655194],[-93.293740999824394,37.343516000003845],[-93.293692000318899,37.342663999717871],[-93.29213300019444,37.342608000094813],[-93.291329999755234,37.342579999910498],[-93.2911299997387,37.342579999910498],[-93.290517999993511,37.342579999910498],[-93.290149999747499,37.342579999910498],[-93.289399999910032,37.342589999875507],[-93.28930000035092,37.342589999875507],[-93.28808400035814,37.342598000132213],[-93.287839999960681,37.342599999839173],[-93.287273000421322,37.342599999839173],[-93.287316000079031,37.340699999976238],[-93.287342000018299,37.339580000286773],[-93.289411999605591,37.339634000239208],[-93.291919999759131,37.339700000287166],[-93.2938200003654,37.339749999873625],[-93.2938200003654,37.339589999937026],[-93.293830000411177,37.339370000181738],[-93.2938399995586,37.338630000301265],[-93.29385700017535,37.338268999684381],[-93.293869999695801,37.338000000255043],[-93.293879999741563,37.337700000246301],[-93.293950000061756,37.335490000276792],[-93.293950000061756,37.335389999684189],[-93.293992999719478,37.333826000320023],[-93.294000000290481,37.333610000002444],[-93.294010000336229,37.332670000077883],[-93.294030000427696,37.33253999968678],[-93.294049999620881,37.332380000105381],[-93.294059999666615,37.332349999699524],[-93.294083999956072,37.331680999893216],[-93.294155000101185,37.32967699980631],[-93.294180000215533,37.329008999803541],[-93.294227999896108,37.328244999645619],[-93.294360000140585,37.326202000126145],[-93.294374000384281,37.325993999915028],[-93.294376000034106,37.325955999931011],[-93.294386999904759,37.325786999919757],[-93.294413999668933,37.325361000081443],[-93.294413999668933,37.325193000245839],[-93.294500999707594,37.323744000003295],[-93.294761999823493,37.319397999680831],[-93.294849999687031,37.317950000045819],[-93.294873000151568,37.317483999719244],[-93.294941999748559,37.316087999678388],[-93.294942999573465,37.316076000059049],[-93.294957999642065,37.315623000165957],[-93.294967999687813,37.31554200005349],[-93.294981000106617,37.315446000204076],[-93.294990000327445,37.315298999906794],[-93.294995000350312,37.315218000159653],[-93.29505100042681,37.314322000318022],[-93.295058999924422,37.31417900017874],[-93.29525499974298,37.311061999809958],[-93.295320999865226,37.310023999834542],[-93.295334000284029,37.309788999891495],[-93.295375000291898,37.309085000241765],[-93.295390000360527,37.308850999809955],[-93.295405000429142,37.308589000086656],[-93.295453000109717,37.307802999726114],[-93.295455999584448,37.307768999672419],[-93.295465999630181,37.307542000243679],[-93.295513000384162,37.306717999948496],[-93.295655999600982,37.30424700026812],[-93.295686999563117,37.303722000322495],[-93.29571300040071,37.303425000342848],[-93.296136000000004,37.303444999976534],[-93.296239999757077,37.303449999705471],[-93.297406000419457,37.303493999735387],[-93.297829999843671,37.30350999999974],[-93.298203000112565,37.303505999933925],[-93.298829999926369,37.303499999834898],[-93.299275999990215,37.303472000080923],[-93.299310000325406,37.303470000047056],[-93.299322999845856,37.303468000013147],[-93.299549999626592,37.303440000247264],[-93.299690000267006,37.303400000257362],[-93.299690000267006,37.303299999832284],[-93.299710000358488,37.303110000230369],[-93.29974999964314,37.302950000155612],[-93.299757000214157,37.302707999708389],[-93.299820999788253,37.300615000012904],[-93.299840000054814,37.300009999730811],[-93.299840000054814,37.299918000314015],[-93.298768999827018,37.299862999979766],[-93.296747999745193,37.299760999721144],[-93.295559000414926,37.299701000008852],[-93.295294000101052,37.299686999783233],[-93.294489000012007,37.299646999940997],[-93.29398299967373,37.299602999804144],[-93.293129000079205,37.299528999710766],[-93.293135999751883,37.298864000317238],[-93.293141999599669,37.298357000054303],[-93.293140999774764,37.29826400031596],[-93.293139999949844,37.297984999696283],[-93.293139999949844,37.297892999946349],[-93.293155999843378,37.297328000304034],[-93.293205000247184,37.295631999732123],[-93.29322199996561,37.29506800002919],[-93.294130999811713,37.295077999885898],[-93.294591000119269,37.295083000171047],[-93.298701000054947,37.295127999864093],[-93.300071999858403,37.295142999993999],[-93.30008000025434,37.294920000136585],[-93.300095000322955,37.294715999652816],[-93.300100000345807,37.294650000113513],[-93.300102999820567,37.294583999801667],[-93.300107999843419,37.294485000297264],[-93.300108999668339,37.294470999815438],[-93.300120000437317,37.294239999707564],[-93.300169999767718,37.293599999784234],[-93.300169999767718,37.293379999736771],[-93.300209999950681,37.292511000263033],[-93.300219999996415,37.29230000030725],[-93.300235999889935,37.291852999699302],[-93.29948000020471,37.291843000128573],[-93.297214999725426,37.291812999979072],[-93.296459999865107,37.2918029996884],[-93.296489000177417,37.291218999844432],[-93.296577000040969,37.289467000271529],[-93.296607000178199,37.288884000015905],[-93.296637000315442,37.288311000287294],[-93.296673000300444,37.287649999831295],[-93.296766000186864,37.28659600018559],[-93.296817000240495,37.286024999969776],[-93.296989999594516,37.278240000145054],[-93.296994999617397,37.27730199974787],[-93.296987999944704,37.274434999658119],[-93.296987999944704,37.274205000278279],[-93.29699200014268,37.274133000321832],[-93.2992609999216,37.274264000260807],[-93.301375999714736,37.274386000271832],[-93.306648999939739,37.27466499976488],[-93.309111999887421,37.274796000207772],[-93.309758999792706,37.274829000114224],[-93.311702000056698,37.274929999824693],[-93.312349999786903,37.274963999710927],[-93.312768000261642,37.274968999903102],[-93.314021999889277,37.274983999762959],[-93.314441000188921,37.274988999953848],[-93.314438999640785,37.275024999888728],[-93.314435000341135,37.275134000341275],[-93.314435000341135,37.275171000242537],[-93.314724999871032,37.275214000336838],[-93.314848999719601,37.275233000287557],[-93.314786999795331,37.275984999903699],[-93.314764000229104,37.276278000199454],[-93.314677000190471,37.277495000217002],[-93.31467299999251,37.277569999828735],[-93.314496000440514,37.281451999749393],[-93.314462000105323,37.282218000039776],[-93.314987999636784,37.282274000350505],[-93.316315999782532,37.282347000322837],[-93.320300000219845,37.282566999752561],[-93.321629000190512,37.282641000091928],[-93.321830999856886,37.282654999916154],[-93.322437999579194,37.282698999959337],[-93.322640999968797,37.282713999708285],[-93.322707999915949,37.282718000165012],[-93.322909999582293,37.282730000104301],[-93.322978000252675,37.282734999780651],[-93.323035000154093,37.282738000301038],[-93.323205999858303,37.282750000237179],[-93.323262999759706,37.282753999977182],[-93.323283999676107,37.282753999977182],[-93.323347000323608,37.282756999782102],[-93.323369000064929,37.282757999717028],[-93.32453700037712,37.28257499996662],[-93.324932000387349,37.282513000250994],[-93.325498000101774,37.282493000055126],[-93.327196000143388,37.282435000028968],[-93.327459999734032,37.282426999800023],[-93.327475999627552,37.282425999860692],[-93.327762999682719,37.28241699969135],[-93.329602000189681,37.282393999650765],[-93.335118999913817,37.282324000260907],[-93.336959000245656,37.282302000132887],[-93.336964000268537,37.280911000033953],[-93.336982999636803,37.276739999915193],[-93.336990000207791,37.275349999991299],[-93.33711400005636,37.275357000224403],[-93.337485999602038,37.275379000237955],[-93.337611000173837,37.275386999786441],[-93.337617999846515,37.27520199991401],[-93.337642000135972,37.274647999756162],[-93.337651000356786,37.274464000257261],[-93.337688000166722,37.273685999736159],[-93.337801999969528,37.271350999885591],[-93.337841000327586,37.270574000174889],[-93.33790400007679,37.268992999972717],[-93.33809499987251,37.264253000191722],[-93.338160000169822,37.262672999736743],[-93.338257000254217,37.261192000271983],[-93.338393999623236,37.259122999950577],[-93.33843899982908,37.258439999896609],[-93.338449999699733,37.258284999794682],[-93.338448999874814,37.258271999988445],[-93.338434999631119,37.257922999896614],[-93.338468999966324,37.257329999972242],[-93.33848400003491,37.257078999749538],[-93.33861200008144,37.256774000031157],[-93.338780000310919,37.256375999767563],[-93.338780000310919,37.256030999916206],[-93.338781000135839,37.255814999901311],[-93.338781999960744,37.255323999681934],[-93.338991000198135,37.255311999664222],[-93.339382000010374,37.255290999807258],[-93.33962100038498,37.255278000199347],[-93.339832000272168,37.255266999759371],[-93.341259999977055,37.255235000160226],[-93.342692999704795,37.255204000133382],[-93.344408000363174,37.255166000129257],[-93.34554300016508,37.255140000153027],[-93.346142000389804,37.255126999804027],[-93.346971999694887,37.255109000087096],[-93.347254999552106,37.248766999697814],[-93.345880000448986,37.248759999853114],[-93.345722000265241,37.248759999853114],[-93.345251999911966,37.248763000297416],[-93.345094999553112,37.248765000355156],[-93.344765999665142,37.248759000181728],[-93.344714999611526,37.248759000181728],[-93.34415999976774,37.248748999891539],[-93.344085000322977,37.248748000220012],[-93.34418999990497,37.24869299967223],[-93.34356200026626,37.248687999880495],[-93.34274299993352,37.24868300008837],[-93.342743999758426,37.248729000022315],[-93.342638000351528,37.248728000350475],[-93.342443000357846,37.248726999963573],[-93.339639999753231,37.248709999819845],[-93.339423000018257,37.248705999701343],[-93.339079999886579,37.248700000238244],[-93.338417000087759,37.248691999999956],[-93.338431000331482,37.24799400025168],[-93.338473999989176,37.245900000113444],[-93.338489000057791,37.245202999965571],[-93.338489000057791,37.245078999718345],[-93.338492000430847,37.244447999838037],[-93.338504999951311,37.242184000315092],[-93.338509999974193,37.241429999747737],[-93.338518000370101,37.241198000146063],[-93.338520000019926,37.241160000229527],[-93.338535000088555,37.240501999916958],[-93.338540000111422,37.240310000251668],[-93.338540000111422,37.240270000319455],[-93.33855000015717,37.24016999968083],[-93.338560000202904,37.239869999829644],[-93.338570000248637,37.239640000017133],[-93.338590000340133,37.239249999881608],[-93.338580000294399,37.239089999920736],[-93.338570000248637,37.239039999908051],[-93.338540000111422,37.238920000171269],[-93.338499999928459,37.23868000012466],[-93.338499999928459,37.238429999799934],[-93.338499999928459,37.238279999779245],[-93.338540000111422,37.237779999938425],[-93.338542999586153,37.237712000190236],[-93.33855000015717,37.237570000160623],[-93.338580000294399,37.237069999901507],[-93.33865800011219,37.235575999759547],[-93.338660999586921,37.235512000272628],[-93.338663999959977,37.235404000255357],[-93.338669999807763,37.235250999668011],[-93.338699999944978,37.23438999965974],[-93.338699999944978,37.2341899998138],[-93.338709999990726,37.234099999781542],[-93.33872099986138,37.233727000258767],[-93.338730000082208,37.233440000315028],[-93.338750000173704,37.233070000026423],[-93.338771999915011,37.232611000288024],[-93.338790000356681,37.232240000331892],[-93.338792999831412,37.232169000203513],[-93.338805000425282,37.231959999709495],[-93.338810000448163,37.231889999927844],[-93.338822000143722,37.231594000337083],[-93.338858000128724,37.230706000314434],[-93.338869999824297,37.230409999651762],[-93.338899999961527,37.229860000162859],[-93.338899999961527,37.229659999744172],[-93.338940000144504,37.228780000039954],[-93.338940000144504,37.228710000167098],[-93.338970000281734,37.227989999644812],[-93.338990000373215,37.226770000213236],[-93.339059999795097,37.226770000213236],[-93.339089999932341,37.226310000064267],[-93.339090999757232,37.226158000306413],[-93.339109000198903,37.225933999991845],[-93.339140000161038,37.225533999972228],[-93.339145000183905,37.225488000188015],[-93.339149000381866,37.225455000123404],[-93.339166999925226,37.225342000096163],[-93.339173999597918,37.225304000055296],[-93.339183999643666,37.22523299983353],[-93.339217999978842,37.225020000197766],[-93.339229999674416,37.224949999695802],[-93.339233999872377,37.224762999712063],[-93.339247000291167,37.224205999828492],[-93.339252000314019,37.224020000145444],[-93.339248999940992,37.223837000009652],[-93.339243000093205,37.223290999826872],[-93.339241000443394,37.223109000079731],[-93.33924499974303,37.222859000339952],[-93.339258000161806,37.222109999750089],[-93.339263000184687,37.221861000303782],[-93.339264000009607,37.221739999661239],[-93.339269999857393,37.221380000249361],[-93.339272000405529,37.22126000030196],[-93.339272000405529,37.221122000198022],[-93.339274999880246,37.220707999801967],[-93.339275999705166,37.22057100016405],[-93.339277000428382,37.220427999994577],[-93.339283000276183,37.220002000164094],[-93.339285999750913,37.219859999685923],[-93.339288000299035,37.219776000053031],[-93.339294999971756,37.219528000114245],[-93.339298000344783,37.219445000171817],[-93.339300999819528,37.21887700032994],[-93.339989999557616,37.218874000126732],[-93.3437630001077,37.218864000163855],[-93.345020999933269,37.218860999960143],[-93.345681000257343,37.218858999824242],[-93.347661000331271,37.218856000335684],[-93.348321999581941,37.218855000267645],[-93.348340999848531,37.218307000352667],[-93.348371999810681,37.217434999778895],[-93.348387999704201,37.216966999895284],[-93.348397999749935,37.216662000232127],[-93.348417999841431,37.216115000228804],[-93.348449999628471,37.216116000333159],[-93.348546999712852,37.216118999930664],[-93.348580000223123,37.216120000034927],[-93.348556999758586,37.215799000220336],[-93.348490999636354,37.21483799997803],[-93.348468999895033,37.214517999841867],[-93.348484999788582,37.214070000232653],[-93.348508000253105,37.21348999974456],[-93.348524000146639,37.213076999815847],[-93.348536999667104,37.212726999901122],[-93.348545000063027,37.212529000137842],[-93.348550999910799,37.212372999893347],[-93.348557999583505,37.212233999830261],[-93.348560000131641,37.212169999848946],[-93.348562999606372,37.212112000042538],[-93.3485719998272,37.211929999793213],[-93.348586999895815,37.211629999901987],[-93.348687000353252,37.209683000005803],[-93.348720999790118,37.209034000084905],[-93.348774000391884,37.208199999740017],[-93.348849999661567,37.207017999995216],[-93.348903000263306,37.207026999872539],[-93.348979000431299,37.205762999912537],[-93.349007999845298,37.205294999891429],[-93.34902999958662,37.204930000159912],[-93.349046000378451,37.204433000341396],[-93.349097000432067,37.202944999973255],[-93.349099999906812,37.202869999768097],[-93.349119999998294,37.202449999817965],[-93.349119999998294,37.202188999990035],[-93.349121999648119,37.201409000282162],[-93.349124000196255,37.201149000019377],[-93.349142999564521,37.200935000050322],[-93.34915500015839,37.200802999673257],[-93.349200000364235,37.200293000080556],[-93.349219999557405,37.200080000148084],[-93.349242000197023,37.198849999645844],[-93.348629999553538,37.198700999944812],[-93.348473999917914,37.197930000217738],[-93.349305999771119,37.197744000151474],[-93.349305999771119,37.197724999980423],[-93.349308000319269,37.197668000154088],[-93.34930999996908,37.197650000313011],[-93.34930999996908,37.197629999768942],[-93.34930999996908,37.197572999870872],[-93.34930999996908,37.197553999656783],[-93.349305999771119,37.197484999780599],[-93.349294000075574,37.197289000088915],[-93.349248999869744,37.196496000110528],[-93.349233999801115,37.196232000058913],[-93.349232000151289,37.196155000317241],[-93.349228999778234,37.195923999905283],[-93.349227999953342,37.195848000222355],[-93.349231000326384,37.195817999761573],[-93.349242000197023,37.195706000082602],[-93.349248000044824,37.195639999644463],[-93.349308000319269,37.195020000301639],[-93.34932900023567,37.194812999975916],[-93.349337999558173,37.194646000336597],[-93.349366000045592,37.194149000068613],[-93.34937600009134,37.193983000073828],[-93.34932900023567,37.193233000082721],[-93.349187999770365,37.190982999777468],[-93.349140999914695,37.190233999774783],[-93.349114999975413,37.189672000329622],[-93.349106999579504,37.189480000075029],[-93.349038999807448,37.187988999798883],[-93.349013999693085,37.18742899964338],[-93.349083000188386,37.186593999827146],[-93.34920100018914,37.185194000143618],[-93.349299999923346,37.184092000247695],[-93.349375000266434,37.183258999685052],[-93.349357999649683,37.183183999961997],[-93.34933000006059,37.183060000084787],[-93.349354000350033,37.182974999739628],[-93.349357999649683,37.18296299965796],[-93.349380000289287,37.182890000014567],[-93.349380000289287,37.182874999716361],[-93.349383999588937,37.182830000235221],[-93.349385000312168,37.182815999754979],[-93.349402000030608,37.182678000199175],[-93.349580000305835,37.181236999899305],[-93.34961200009289,37.181148000241983],[-93.349710999827082,37.180885000062744],[-93.349744000337367,37.180796999847288],[-93.349776999949327,37.180699000234931],[-93.34978199997218,37.180682999643501],[-93.349899999972976,37.180342999872259],[-93.349940000155954,37.180230000278883],[-93.350042000263201,37.179316000116209],[-93.350091999593602,37.178872000082215],[-93.350099000164604,37.178811999974187],[-93.349988999661434,37.17727800011474],[-93.350014999600688,37.176567999648881],[-93.350049999760813,37.175649999857612],[-93.350553999550954,37.175679999741753],[-93.350920999972089,37.175684000154853],[-93.351963999712481,37.175696999885488],[-93.352521999929323,37.175704999993947],[-93.352552000066538,37.175704999993947],[-93.354501000178317,37.17580099979758],[-93.354655999989021,37.175826000009792],[-93.355122000144348,37.175902999723725],[-93.355277999779972,37.175928999823213],[-93.355353000123031,37.175936999907108],[-93.355406999651379,37.175944000069279],[-93.355656999896638,37.175972999916183],[-93.355737000262579,37.175908999967746],[-93.35597800028701,37.175717999720966],[-93.356058999579545,37.175655000197011],[-93.356032999640291,37.175448999682573],[-93.356017999571662,37.175335999926254],[-93.356009000249159,37.175256999774511],[-93.356010999898984,37.175181999979841],[-93.356021999769624,37.174821999642845],[-93.356062999777507,37.173518999874034],[-93.356077000021216,37.173084999715677],[-93.356102999960484,37.172540000213175],[-93.356117000204193,37.172221999644904],[-93.35612100040214,37.172153000243021],[-93.358642000076159,37.17212500033289],[-93.359338000385236,37.172116999845407],[-93.359505999716419,37.172115999873867],[-93.359690999664338,37.172121999702831],[-93.359851000396219,37.172127000275722],[-93.359865999566523,37.172128000247071],[-93.360186000131989,37.172137999960128],[-93.360248999881165,37.172139999902555],[-93.360321999676117,37.17214199984501],[-93.360352999638252,37.172142999816153],[-93.360436000377234,37.172145999729622],[-93.360480999684754,37.172144999758515],[-93.360616000302286,37.17214199984501],[-93.360781999983644,37.17214799967185],[-93.360648999914247,37.172347000102214],[-93.359723000349703,37.173098999852044],[-93.359687000364701,37.173528000165931],[-93.35963600031107,37.174138999661501],[-93.359615000394683,37.174399999823649],[-93.359603999625705,37.174782999992502],[-93.359576000036611,37.175718999644843],[-93.359575000211706,37.175749000217316],[-93.359570000188825,37.17593400014416],[-93.359560000143077,37.176318000325978],[-93.35974400026609,37.176896000334473],[-93.359766999832317,37.17697099985913],[-93.359818999710868,37.177131999789715],[-93.359901999551539,37.177393000348623],[-93.360557999677653,37.177457999656475],[-93.360695999769931,37.1774559998548],[-93.361121999742281,37.177451000350359],[-93.36119700008534,37.177432999984369],[-93.361715000119204,37.177316000006002],[-93.361789999563953,37.17730000012947],[-93.361819999701183,37.177219999980174],[-93.36185999988416,37.177180000231637],[-93.361930000204353,37.177150000227414],[-93.362019999717731,37.177129999979407],[-93.362259999917228,37.177109999726049],[-93.362294000252433,37.17711300015808],[-93.36243999984228,37.177129999979407],[-93.362563999690835,37.177134000315725],[-93.362690000087554,37.177139999746167],[-93.362931000111956,37.177190999896176],[-93.362969999571717,37.177199999750698],[-93.363049999937672,37.177229999735069],[-93.363122999732596,37.177247000245785],[-93.36325999999994,37.177279999921126],[-93.363343999665517,37.177304999643908],[-93.363359999559052,37.177309999873728],[-93.363419999833511,37.177309999873728],[-93.363500000199451,37.177314000200568],[-93.363740000398963,37.177325999748192],[-93.363819999866607,37.177330000074129],[-93.363827000437595,37.177151000132334],[-93.363850000003822,37.176620000096975],[-93.363855999851594,37.176436000332792],[-93.363868000445493,37.176060000105835],[-93.363869000270384,37.175999999911689],[-93.363875000118171,37.175795000260806],[-93.36387599994309,37.175771999884702],[-93.363900000232547,37.175059999715856],[-93.363916999950959,37.174694999826492],[-93.363920000324015,37.174639999670681],[-93.363930000369763,37.174260000037982],[-93.363930000369763,37.174180000248498],[-93.363969999654415,37.173107000235547],[-93.364070000111852,37.170499999969337],[-93.3640800001576,37.169740000099878],[-93.364074000309813,37.169647999770362],[-93.36406000006609,37.169380000319507],[-93.363969999654415,37.168499999840257],[-93.36440999987046,37.168489999645772],[-93.365235000051001,37.168489999645772],[-93.365260000165335,37.168489999645772],[-93.366880000389159,37.168520000225257],[-93.369032999817136,37.168539999889113],[-93.370299999863533,37.168552000114438],[-93.370841000361921,37.168557000207741],[-93.372464000060489,37.168571999769824],[-93.373006000383768,37.168576999861806],[-93.373244999860049,37.168578999898493],[-93.373248000233119,37.168523000282562],[-93.373817000320599,37.16852500032067],[-93.373886999742467,37.16852500032067],[-93.376538999836043,37.168532999756835],[-93.377424000291043,37.168535999813614],[-93.377430999963721,37.168556000189085],[-93.377451999880108,37.168614999834219],[-93.377460000276045,37.168636000206391],[-93.377502000108819,37.168636000206391],[-93.377627999607213,37.168639000259034],[-93.377670000338327,37.168640000276596],[-93.37839000003855,37.168649999735379],[-93.378809000338208,37.168649999735379],[-93.379062999883104,37.168649999735379],[-93.380194000385373,37.168649999735379],[-93.382669999853533,37.168659999908691],[-93.384073000342383,37.16867900023437],[-93.384239999848646,37.168710000039603],[-93.384846999570968,37.168695999805827],[-93.385312999726295,37.168685000336176],[-93.385549999552751,37.168680000251349],[-93.387559999763894,37.168689999704895],[-93.387560999588814,37.168642000311614],[-93.387563999961856,37.168496999782043],[-93.387565999611681,37.168450000286299],[-93.38765500019845,37.168452000326354],[-93.38783199975046,37.1684579997304],[-93.387846999819075,37.1683659999876],[-93.387862999712596,37.168278000222173],[-93.387870000283613,37.168176000024218],[-93.387892000024905,37.167871000063691],[-93.387900000420842,37.167770000061275],[-93.387900000420842,37.167637999691664],[-93.387900000420842,37.167326000179131],[-93.387900000420842,37.167242000062728],[-93.387900000420842,37.16711100024034],[-93.387900000420842,37.166327000212839],[-93.387902999895573,37.16414100010126],[-93.387902999895573,37.163975000012492],[-93.387903999720493,37.163191999758411],[-93.387914999591118,37.162622000218107],[-93.387950999576134,37.160931000273514],[-93.387950999576134,37.16091399967133],[-93.387960999621882,37.160449999951851],[-93.387809000184234,37.160458999652533],[-93.387810000009139,37.160409999916737],[-93.387814000207115,37.160352999848023],[-93.387818000405076,37.160282000091719],[-93.387820000054887,37.160250000280556],[-93.387826999727579,37.160069999837653],[-93.387830000100635,37.159999999947381],[-93.387880000329346,37.159169999784886],[-93.387892999849839,37.158788000099847],[-93.387989999934206,37.156120000188515],[-93.388020999896341,37.155151999954704],[-93.388060000254399,37.153939999709337],[-93.388071999949972,37.15392099997436],[-93.388107999934974,37.153865999734954],[-93.388119999630547,37.153848000194657],[-93.388323999845042,37.153751999710032],[-93.388935999590231,37.153467000327801],[-93.389140999629646,37.153372000294986],[-93.390370000041216,37.152792999843342],[-93.390492000239945,37.152735000247525],[-93.390873999831371,37.152554000296924],[-93.391138000320325,37.152430999786553],[-93.393382999809802,37.149565000178356]]]},"properties":{"GEOID":"2928860","NAME":"Springfield R-XII School District","BASENAME":"Springfield R-XII School District"}}]}