{"type": "FeatureCollection", "features": [{"type": "Feature", "properties": {"FID": 0, "population": 6174, "D_STRICT": 1, "Representa": "David Sundwall", "Redistrict": "Proposed District 1 - 6,174"}, "geometry": {"type": "Polygon", "coordinates": [[[-12447733.8, 4963762.1], [-12447689.1, 4963784.1], [-12447566.4, 4963835.5], [-12447499.5, 4963872.3], [-12447482.7, 4963850.2], [-12447387.9, 4963769.4], [-12447360, 4963740.1], [-12447321, 4963666.6], [-12447281.9, 4963593.2], [-12447270.7, 4963563.8], [-12447237.3, 4963461], [-12447231.7, 4963446.3], [-12447198.2, 4963343.5], [-12447148, 4963240.7], [-12447097.8, 4963189.3], [-12446991.8, 4963079.1], [-12446958.3, 4963020.3], [-12446947.2, 4963005.7], [-12446941.6, 4962968.9], [-12446936, 4962917.5], [-12446930.4, 4962792.7], [-12446919.3, 4962711.9], [-12446908.1, 4962623.8], [-12446902.6, 4962513.6], [-12446897, 4962484.3], [-12446885.8, 4962396.1], [-12446874.7, 4962249.3], [-12446869.1, 4962212.6], [-12446924.9, 4962212.6], [-12447019.7, 4962212.6], [-12447187.1, 4962219.9], [-12447376.7, 4962219.9], [-12447532.9, 4962227.2], [-12447572, 4962219.9], [-12447650.1, 4962219.9], [-12447650.1, 4962594.4], [-12447650.1, 4962704.6], [-12447655.7, 4962748.6], [-12447655.7, 4962800], [-12447655.7, 4962807.4], [-12447806.3, 4962675.2], [-12447878.8, 4962609.1], [-12447929, 4962557.7], [-12447951.3, 4962513.6], [-12447979.2, 4962476.9], [-12447984.8, 4962447.5], [-12448001.5, 4962396.1], [-12448001.5, 4962293.3], [-12448001.5, 4962264], [-12448018.3, 4962219.9], [-12448051.8, 4962124.4], [-12448062.9, 4962095.1], [-12448079.6, 4962058.4], [-12448135.4, 4961911.5], [-12448180.1, 4961786.7], [-12448196.8, 4961757.3], [-12448274.9, 4961772], [-12448330.7, 4961750], [-12448353, 4961750], [-12448408.8, 4961757.3], [-12448447.8, 4961772], [-12448475.7, 4961794], [-12448531.5, 4961845.4], [-12448537.1, 4961874.8], [-12448537.1, 4961889.5], [-12448525.9, 4961911.5], [-12448520.4, 4961933.5], [-12448531.5, 4961970.2], [-12448553.8, 4961992.3], [-12448637.5, 4962014.3], [-12448665.4, 4962065.7], [-12448754.7, 4962109.8], [-12448777, 4962124.4], [-12448810.4, 4962124.4], [-12448827.2, 4962124.4], [-12448855.1, 4962146.5], [-12448871.8, 4962175.8], [-12448883, 4962190.5], [-12448905.3, 4962256.6], [-12448927.6, 4962286], [-12448949.9, 4962300.7], [-12448983.4, 4962308], [-12449011.3, 4962315.4], [-12449111.7, 4962308], [-12449139.6, 4962308], [-12449167.5, 4962322.7], [-12449189.8, 4962352.1], [-12449200.9, 4962366.8], [-12449223.3, 4962366.8], [-12449279, 4962366.8], [-12449396.2, 4962374.1], [-12449440.8, 4962366.8], [-12449457.6, 4962396.1], [-12449569.1, 4962535.7], [-12449658.4, 4962645.8], [-12449809, 4962822.1], [-12449820.2, 4962836.8], [-12449842.5, 4962888.2], [-12449853.6, 4962902.8], [-12449864.8, 4962946.9], [-12449881.5, 4963049.7], [-12449887.1, 4963086.4], [-12449892.7, 4963189.3], [-12449892.7, 4963284.7], [-12449903.9, 4963387.5], [-12449915, 4963439], [-12449954.1, 4963600.5], [-12449982, 4963710.7], [-12450009.8, 4963820.9], [-12450026.6, 4963879.6], [-12450032.2, 4963916.3], [-12450048.9, 4963967.7], [-12450048.9, 4963989.8], [-12450060.1, 4964048.5], [-12450082.4, 4964166], [-12450149.3, 4964415.8], [-12450166.1, 4964474.5], [-12450188.4, 4964555.3], [-12450199.5, 4964584.7], [-12450210.7, 4964643.5], [-12450227.4, 4964702.2], [-12450233, 4964731.6], [-12450244.2, 4964775.7], [-12450043.3, 4964775.7], [-12449803.4, 4964775.7], [-12449652.8, 4964775.7], [-12449619.3, 4964783], [-12449580.3, 4964812.4], [-12449479.9, 4964658.2], [-12449446.4, 4964599.4], [-12449412.9, 4964540.6], [-12449351.6, 4964452.5], [-12449334.8, 4964415.8], [-12449161.9, 4964415.8], [-12449078.2, 4964415.8], [-12448910.9, 4964408.4], [-12448866.2, 4964408.4], [-12448821.6, 4964408.4], [-12448721.2, 4964408.4], [-12448459, 4964408.4], [-12448247, 4964408.4], [-12448230.3, 4964401.1], [-12448180.1, 4964408.4], [-12448096.4, 4964430.5], [-12448074.1, 4964437.8], [-12448046.2, 4964210.1], [-12448035, 4964173.4], [-12448001.5, 4964122], [-12447984.8, 4964107.3], [-12447945.8, 4964055.9], [-12447850.9, 4963931], [-12447839.8, 4963916.3], [-12447733.8, 4963762.1]]]}}, {"type": "Feature", "properties": {"FID": 1, "population": 6675, "D_STRICT": 2, "Representa": "Matt Durham", "Redistrict": "Proposed District 2 - 6,675"}, "geometry": {"type": "Polygon", "coordinates": [[[-12447187.1, 4965113.6], [-12447192.6, 4964694.9], [-12447192.6, 4964672.8], [-12447192.6, 4964562.7], [-12447410.2, 4964577.4], [-12447521.8, 4964577.4], [-12447605.5, 4964562.7], [-12447717, 4964540.6], [-12447878.8, 4964511.3], [-12447890, 4964511.3], [-12447917.9, 4964503.9], [-12447945.8, 4964496.6], [-12448012.7, 4964467.2], [-12448074.1, 4964437.8], [-12448096.4, 4964430.5], [-12448180.1, 4964408.4], [-12448230.3, 4964401.1], [-12448247, 4964408.4], [-12448459, 4964408.4], [-12448721.2, 4964408.4], [-12448821.6, 4964408.4], [-12448866.2, 4964408.4], [-12448910.9, 4964408.4], [-12449078.2, 4964415.8], [-12449161.9, 4964415.8], [-12449334.8, 4964415.8], [-12449351.6, 4964452.5], [-12449412.9, 4964540.6], [-12449446.4, 4964599.4], [-12449479.9, 4964658.2], [-12449580.3, 4964812.4], [-12449619.3, 4964783], [-12449652.8, 4964775.7], [-12449803.4, 4964775.7], [-12450043.3, 4964775.7], [-12450244.2, 4964775.7], [-12450244.2, 4964805.1], [-12450260.9, 4964981.3], [-12450266.5, 4965010.7], [-12450272, 4965084.2], [-12450288.8, 4965201.7], [-12450305.5, 4965326.6], [-12450322.3, 4965400], [-12450333.4, 4965466.1], [-12450350.1, 4965561.6], [-12450400.4, 4965760], [-12450417.1, 4965818.7], [-12450461.7, 4965995], [-12450478.5, 4966053.8], [-12450539.8, 4966296.2], [-12450511.9, 4966296.2], [-12450383.6, 4966296.2], [-12450322.3, 4966296.2], [-12450015.4, 4966296.2], [-12449954.1, 4966296.2], [-12449814.6, 4966296.2], [-12449714.2, 4966296.2], [-12449597, 4966296.2], [-12449485.5, 4966296.2], [-12449312.5, 4966296.2], [-12449189.8, 4966296.2], [-12449128.4, 4966296.2], [-12448961.1, 4966296.2], [-12448821.6, 4966296.2], [-12448810.4, 4966296.2], [-12448693.3, 4966296.2], [-12448542.7, 4966296.2], [-12448425.5, 4966296.2], [-12448247, 4966296.2], [-12448035, 4966296.2], [-12448007.1, 4966296.2], [-12447733.8, 4966296.2], [-12447700.3, 4966296.2], [-12447588.7, 4966296.2], [-12447549.7, 4966296.2], [-12447242.9, 4966296.2], [-12447187.1, 4966296.2], [-12447187.1, 4966097.9], [-12447187.1, 4966090.5], [-12447187.1, 4965980.3], [-12447187.1, 4965862.8], [-12447181.5, 4965745.3], [-12447187.1, 4965627.7], [-12447187.1, 4965576.3], [-12447187.1, 4965517.6], [-12447187.1, 4965400], [-12447187.1, 4965333.9], [-12447187.1, 4965253.1], [-12447187.1, 4965113.6]]]}}, {"type": "Feature", "properties": {"FID": 2, "population": 6540, "D_STRICT": 3, "Representa": "Natalie Bradley", "Redistrict": "Proposed District 3 - 6,540"}, "geometry": {"type": "Polygon", "coordinates": [[[-12450913.6, 4960766.1], [-12450947.1, 4960854.2], [-12451086.5, 4961258], [-12451170.2, 4961493], [-12451181.4, 4961515], [-12451209.3, 4961573.7], [-12451220.4, 4961617.8], [-12451248.3, 4961661.8], [-12451265, 4961698.6], [-12451343.1, 4961852.8], [-12451376.6, 4961904.2], [-12451415.7, 4961977.6], [-12451443.6, 4962021.6], [-12451493.8, 4962095.1], [-12451538.4, 4962146.5], [-12451583, 4962205.2], [-12451583, 4962388.8], [-12451583, 4962462.2], [-12451583, 4962638.5], [-12451583, 4962711.9], [-12451583, 4962741.3], [-12451583, 4962954.3], [-12451577.4, 4963159.9], [-12451549.5, 4963159.9], [-12451521.7, 4963167.2], [-12451449.1, 4963189.3], [-12451410.1, 4963211.3], [-12451359.9, 4963240.7], [-12451203.7, 4963306.8], [-12451008.4, 4963380.2], [-12450986.1, 4963387.5], [-12450941.5, 4963394.9], [-12450908, 4963394.9], [-12450863.4, 4963394.9], [-12450835.5, 4963387.5], [-12450696, 4963358.2], [-12450606.8, 4963336.1], [-12450456.1, 4963262.7], [-12450344.6, 4963218.6], [-12450260.9, 4963203.9], [-12450188.4, 4963196.6], [-12450054.5, 4963189.3], [-12449892.7, 4963189.3], [-12449887.1, 4963086.4], [-12449881.5, 4963049.7], [-12449864.8, 4962946.9], [-12449853.6, 4962902.8], [-12449842.5, 4962888.2], [-12449820.2, 4962836.8], [-12449809, 4962822.1], [-12449658.4, 4962645.8], [-12449569.1, 4962535.7], [-12449457.6, 4962396.1], [-12449440.8, 4962366.8], [-12449429.7, 4962344.7], [-12449396.2, 4962256.6], [-12449390.6, 4962219.9], [-12449385, 4962183.2], [-12449390.6, 4962058.4], [-12449390.6, 4962036.3], [-12449390.6, 4961940.9], [-12449396.2, 4961918.8], [-12449396.2, 4961764.6], [-12449396.2, 4961720.6], [-12449401.8, 4961610.4], [-12449401.8, 4961507.6], [-12449407.4, 4961353.4], [-12449407.4, 4961287.4], [-12449412.9, 4961155.2], [-12449412.9, 4961081.8], [-12449412.9, 4961001], [-12449412.9, 4960898.2], [-12449412.9, 4960846.8], [-12449412.9, 4960788.1], [-12449407.4, 4960751.4], [-12449412.9, 4960626.6], [-12449412.9, 4960421], [-12449412.9, 4960340.2], [-12449412.9, 4960237.4], [-12449412.9, 4960200.7], [-12449412.9, 4960075.9], [-12449412.9, 4959958.5], [-12449418.5, 4959819], [-12449418.5, 4959789.6], [-12449485.5, 4959789.6], [-12449680.7, 4959782.3], [-12449926.2, 4959774.9], [-12450210.7, 4959965.8], [-12450417.1, 4960112.6], [-12450450.6, 4960134.7], [-12450523.1, 4960186.1], [-12450567.7, 4960230.1], [-12450623.5, 4960281.5], [-12450662.5, 4960318.2], [-12450690.4, 4960354.9], [-12450729.5, 4960399], [-12450757.4, 4960443], [-12450807.6, 4960523.8], [-12450846.6, 4960597.2], [-12450874.5, 4960655.9], [-12450913.6, 4960766.1]]]}}, {"type": "Feature", "properties": {"FID": 3, "population": 6183, "D_STRICT": 4, "Representa": "Drew Quinn", "Redistrict": "Proposed District 4 - 6,183"}, "geometry": {"type": "Polygon", "coordinates": [[[-12445323.8, 4965326.6], [-12445457.7, 4965054.8], [-12445507.9, 4964952], [-12445703.1, 4964599.4], [-12445798, 4964437.8], [-12445904, 4964254.2], [-12445998.8, 4964085.3], [-12446065.8, 4963945.7], [-12446088.1, 4963887], [-12446116, 4963732.7], [-12446116, 4963600.5], [-12446155, 4963600.5], [-12446199.6, 4963600.5], [-12446322.4, 4963607.9], [-12446372.6, 4963600.5], [-12446400.5, 4963600.5], [-12446422.8, 4963585.8], [-12446445.1, 4963556.5], [-12446473, 4963534.4], [-12446506.5, 4963505.1], [-12446562.3, 4963461], [-12446601.3, 4963431.6], [-12446645.9, 4963402.2], [-12446657.1, 4963394.9], [-12446668.3, 4963372.9], [-12446690.6, 4963306.8], [-12446696.1, 4963299.4], [-12446735.2, 4963270], [-12446768.7, 4963321.4], [-12446785.4, 4963336.1], [-12446807.7, 4963350.8], [-12446824.5, 4963314.1], [-12446846.8, 4963284.7], [-12446891.4, 4963248], [-12446930.4, 4963226], [-12446952.8, 4963211.3], [-12446980.7, 4963211.3], [-12447025.3, 4963203.9], [-12447097.8, 4963189.3], [-12447148, 4963240.7], [-12447198.2, 4963343.5], [-12447231.7, 4963446.3], [-12447237.3, 4963461], [-12447270.7, 4963563.8], [-12447281.9, 4963593.2], [-12447321, 4963666.6], [-12447360, 4963740.1], [-12447387.9, 4963769.4], [-12447482.7, 4963850.2], [-12447499.5, 4963872.3], [-12447566.4, 4963835.5], [-12447689.1, 4963784.1], [-12447733.8, 4963762.1], [-12447839.8, 4963916.3], [-12447850.9, 4963931], [-12447945.8, 4964055.9], [-12447984.8, 4964107.3], [-12448001.5, 4964122], [-12448035, 4964173.4], [-12448046.2, 4964210.1], [-12448074.1, 4964437.8], [-12448012.7, 4964467.2], [-12447945.8, 4964496.6], [-12447917.9, 4964503.9], [-12447890, 4964511.3], [-12447878.8, 4964511.3], [-12447717, 4964540.6], [-12447605.5, 4964562.7], [-12447521.8, 4964577.4], [-12447410.2, 4964577.4], [-12447192.6, 4964562.7], [-12447192.6, 4964672.8], [-12447192.6, 4964694.9], [-12447187.1, 4965113.6], [-12447187.1, 4965253.1], [-12447187.1, 4965333.9], [-12447187.1, 4965400], [-12447187.1, 4965517.6], [-12447187.1, 4965576.3], [-12447187.1, 4965627.7], [-12447181.5, 4965745.3], [-12447187.1, 4965862.8], [-12447187.1, 4965980.3], [-12447187.1, 4966090.5], [-12447187.1, 4966097.9], [-12447187.1, 4966296.2], [-12447153.6, 4966296.2], [-12446863.5, 4966288.9], [-12446813.3, 4966288.9], [-12446785.4, 4966288.9], [-12446757.5, 4966288.9], [-12446657.1, 4966288.9], [-12446551.1, 4966281.5], [-12446433.9, 4966281.5], [-12446182.9, 4966288.9], [-12446127.1, 4966288.9], [-12446071.3, 4966288.9], [-12445731, 4966288.9], [-12445530.2, 4966288.9], [-12445480, 4966288.9], [-12445312.6, 4966281.5], [-12445234.5, 4966288.9], [-12445240.1, 4966112.6], [-12445234.5, 4966002.4], [-12445234.5, 4965782], [-12445262.4, 4965569], [-12445284.8, 4965473.5], [-12445307.1, 4965378], [-12445323.8, 4965326.6]]]}}, {"type": "Feature", "properties": {"FID": 4, "population": 6393, "D_STRICT": 5, "Representa": "Emily Gray", "Redistrict": "Proposed District 5 - 6,393"}, "geometry": {"type": "Polygon", "coordinates": [[[-12446322.4, 4963607.9], [-12446199.6, 4963600.5], [-12446155, 4963600.5], [-12446116, 4963600.5], [-12446121.5, 4963409.6], [-12446121.5, 4962961.6], [-12446132.7, 4962763.3], [-12446143.9, 4962675.2], [-12446149.4, 4962594.4], [-12446160.6, 4962491.6], [-12446166.2, 4962440.2], [-12446188.5, 4962315.4], [-12446210.8, 4962197.9], [-12446110.4, 4962197.9], [-12446149.4, 4962058.4], [-12446155, 4962014.3], [-12446160.6, 4961918.8], [-12446149.4, 4961801.4], [-12446143.9, 4961772], [-12446149.4, 4961683.9], [-12446160.6, 4961632.5], [-12446205.2, 4961485.6], [-12446233.1, 4961368.1], [-12446244.3, 4961287.4], [-12446249.9, 4961177.2], [-12446244.3, 4961118.5], [-12446238.7, 4961045.1], [-12446227.5, 4960979], [-12446199.6, 4960876.2], [-12446177.3, 4960802.8], [-12446143.9, 4960729.3], [-12446104.8, 4960663.3], [-12445959.8, 4960450.4], [-12445909.6, 4960376.9], [-12445864.9, 4960318.2], [-12445837, 4960274.2], [-12445820.3, 4960244.8], [-12445770.1, 4960127.3], [-12445597.2, 4959796.9], [-12445524.6, 4959664.8], [-12445329.4, 4959672.1], [-12444793.8, 4959679.5], [-12444531.6, 4959672.1], [-12444531.6, 4959173], [-12444531.6, 4959143.6], [-12444358.7, 4959143.6], [-12444353.1, 4959114.2], [-12444007.2, 4959121.6], [-12444012.8, 4958607.7], [-12444347.5, 4958607.7], [-12444526.1, 4958615.1], [-12444526.1, 4958607.7], [-12444542.8, 4958519.6], [-12444542.8, 4958086.6], [-12445217.8, 4958086.6], [-12445234.5, 4958086.6], [-12445390.7, 4958093.9], [-12445424.2, 4958093.9], [-12445535.8, 4958093.9], [-12445541.4, 4958027.8], [-12445541.4, 4957983.8], [-12445597.2, 4957998.5], [-12445625, 4958013.2], [-12445641.8, 4958027.8], [-12445652.9, 4958042.5], [-12445658.5, 4958071.9], [-12445658.5, 4958093.9], [-12446037.9, 4958093.9], [-12446088.1, 4958093.9], [-12446166.2, 4958093.9], [-12446216.4, 4958145.3], [-12446277.7, 4958196.7], [-12446227.5, 4958402.2], [-12446188.5, 4958578.4], [-12446138.3, 4958783.9], [-12446233.1, 4958842.6], [-12446383.7, 4958930.7], [-12446467.4, 4959011.5], [-12446478.6, 4959018.8], [-12446500.9, 4959033.5], [-12446512, 4958996.8], [-12446551.1, 4958930.7], [-12446567.8, 4958901.3], [-12446590.2, 4958857.3], [-12446623.6, 4958820.6], [-12446685, 4958754.5], [-12446746.4, 4958703.1], [-12446779.8, 4958681.1], [-12446807.7, 4958659.1], [-12446863.5, 4958629.7], [-12446936, 4958593], [-12447014.1, 4958571], [-12447120.1, 4958549], [-12447226.1, 4958549], [-12447287.5, 4958556.3], [-12447583.1, 4958578.4], [-12447711.5, 4958578.4], [-12447711.5, 4958556.3], [-12447806.3, 4958563.7], [-12448007.1, 4958563.7], [-12448247, 4958556.3], [-12448274.9, 4958556.3], [-12448509.2, 4958563.7], [-12448592.9, 4958563.7], [-12448654.2, 4958556.3], [-12448799.3, 4958527], [-12448961.1, 4958475.6], [-12449072.6, 4958431.5], [-12449156.3, 4958409.5], [-12449223.3, 4958387.5], [-12449290.2, 4958358.1], [-12449318.1, 4958350.8], [-12449329.3, 4958468.2], [-12449334.8, 4958607.7], [-12449334.8, 4958747.2], [-12449334.8, 4958974.7], [-12449334.8, 4959026.1], [-12449334.8, 4959062.8], [-12449340.4, 4959114.2], [-12449357.1, 4959165.6], [-12449407.4, 4959283.1], [-12449457.6, 4959371.2], [-12449558, 4959496], [-12449652.8, 4959591.4], [-12449926.2, 4959774.9], [-12449680.7, 4959782.3], [-12449485.5, 4959789.6], [-12449418.5, 4959789.6], [-12449418.5, 4959819], [-12449412.9, 4959958.5], [-12449412.9, 4960075.9], [-12449412.9, 4960200.7], [-12449412.9, 4960237.4], [-12449412.9, 4960340.2], [-12449412.9, 4960421], [-12449412.9, 4960626.6], [-12449407.4, 4960751.4], [-12449412.9, 4960788.1], [-12449412.9, 4960846.8], [-12449412.9, 4960898.2], [-12449412.9, 4961001], [-12449412.9, 4961081.8], [-12449412.9, 4961155.2], [-12449407.4, 4961287.4], [-12449407.4, 4961353.4], [-12449401.8, 4961507.6], [-12449401.8, 4961610.4], [-12449396.2, 4961720.6], [-12449396.2, 4961764.6], [-12449396.2, 4961918.8], [-12449390.6, 4961940.9], [-12449390.6, 4962036.3], [-12449390.6, 4962058.4], [-12449385, 4962183.2], [-12449390.6, 4962219.9], [-12449396.2, 4962256.6], [-12449429.7, 4962344.7], [-12449440.8, 4962366.8], [-12449396.2, 4962374.1], [-12449279, 4962366.8], [-12449223.3, 4962366.8], [-12449200.9, 4962366.8], [-12449189.8, 4962352.1], [-12449167.5, 4962322.7], [-12449139.6, 4962308], [-12449111.7, 4962308], [-12449011.3, 4962315.4], [-12448983.4, 4962308], [-12448949.9, 4962300.7], [-12448927.6, 4962286], [-12448905.3, 4962256.6], [-12448883, 4962190.5], [-12448871.8, 4962175.8], [-12448855.1, 4962146.5], [-12448827.2, 4962124.4], [-12448810.4, 4962124.4], [-12448777, 4962124.4], [-12448754.7, 4962109.8], [-12448665.4, 4962065.7], [-12448637.5, 4962014.3], [-12448553.8, 4961992.3], [-12448531.5, 4961970.2], [-12448520.4, 4961933.5], [-12448525.9, 4961911.5], [-12448537.1, 4961889.5], [-12448537.1, 4961874.8], [-12448531.5, 4961845.4], [-12448475.7, 4961794], [-12448447.8, 4961772], [-12448408.8, 4961757.3], [-12448353, 4961750], [-12448330.7, 4961750], [-12448274.9, 4961772], [-12448196.8, 4961757.3], [-12448180.1, 4961786.7], [-12448135.4, 4961911.5], [-12448079.6, 4962058.4], [-12448062.9, 4962095.1], [-12448051.8, 4962124.4], [-12448018.3, 4962219.9], [-12448001.5, 4962264], [-12448001.5, 4962293.3], [-12448001.5, 4962396.1], [-12447984.8, 4962447.5], [-12447979.2, 4962476.9], [-12447951.3, 4962513.6], [-12447929, 4962557.7], [-12447878.8, 4962609.1], [-12447806.3, 4962675.2], [-12447655.7, 4962807.4], [-12447655.7, 4962800], [-12447655.7, 4962748.6], [-12447650.1, 4962704.6], [-12447650.1, 4962594.4], [-12447650.1, 4962219.9], [-12447572, 4962219.9], [-12447532.9, 4962227.2], [-12447376.7, 4962219.9], [-12447187.1, 4962219.9], [-12447019.7, 4962212.6], [-12446924.9, 4962212.6], [-12446869.1, 4962212.6], [-12446874.7, 4962249.3], [-12446885.8, 4962396.1], [-12446897, 4962484.3], [-12446902.6, 4962513.6], [-12446908.1, 4962623.8], [-12446919.3, 4962711.9], [-12446930.4, 4962792.7], [-12446936, 4962917.5], [-12446941.6, 4962968.9], [-12446947.2, 4963005.7], [-12446958.3, 4963020.3], [-12446991.8, 4963079.1], [-12447097.8, 4963189.3], [-12447025.3, 4963203.9], [-12446980.7, 4963211.3], [-12446952.8, 4963211.3], [-12446930.4, 4963226], [-12446891.4, 4963248], [-12446846.8, 4963284.7], [-12446824.5, 4963314.1], [-12446807.7, 4963350.8], [-12446785.4, 4963336.1], [-12446768.7, 4963321.4], [-12446735.2, 4963270], [-12446696.1, 4963299.4], [-12446690.6, 4963306.8], [-12446668.3, 4963372.9], [-12446657.1, 4963394.9], [-12446645.9, 4963402.2], [-12446601.3, 4963431.6], [-12446562.3, 4963461], [-12446506.5, 4963505.1], [-12446473, 4963534.4], [-12446445.1, 4963556.5], [-12446422.8, 4963585.8], [-12446400.5, 4963600.5], [-12446372.6, 4963600.5], [-12446322.4, 4963607.9]]]}}]}
