{"type":"FeatureCollection","features":[{"type":"Feature","properties":{"DISTRICT":"301","NAME":"BEND METRO PARK & RECREATION"},"geometry":{"type":"MultiPolygon","coordinates":[[[[-121.31839669191191,44.11070684692728],[-121.31839441558098,44.11069841823661],[-121.32028062435273,44.11070388643685],[-121.32027152352059,44.1125732053651],[-121.3201801673703,44.11254386214829],[-121.32009094687714,44.11250855387486],[-121.31956336720907,44.11227858064994],[-121.31947394417791,44.11224297214576],[-121.31938278224604,44.112212086125474],[-121.31929013061712,44.11218600702028],[-121.31919624256707,44.112164806120965],[-121.31910137475181,44.11214854138313],[-121.3190057865055,44.11213725726865],[-121.31826213416382,44.11206551576787],[-121.3184156104318,44.11125280203364],[-121.31841830986922,44.111237841051576],[-121.31842082605034,44.111222863941194],[-121.31842316167007,44.11120787199244],[-121.31842550178139,44.11119150042403],[-121.31842762719536,44.11117511401648],[-121.31842938250344,44.111160080131796],[-121.31843095725013,44.11114503656853],[-121.31843235143543,44.111129982036786],[-121.31843356056783,44.11111492169632],[-121.31843467447875,44.111098483668925],[-121.31843550272545,44.11108340784086],[-121.31843614951246,44.11106832878398],[-121.31843661394146,44.111053245208446],[-121.31843689511415,44.111038159694075],[-121.31843699392881,44.11102307417586],[-121.3184368978091,44.11100705471736],[-121.31843616029225,44.11097686108672],[-121.31843468885181,44.11094668098539],[-121.31843248887769,44.110916524733014],[-121.31842955677658,44.11088640071456],[-121.31842589434517,44.11085631860475],[-121.31842150517672,44.110826285498604],[-121.31841638837282,44.1107963136508],[-121.31841054573025,44.110766410801396],[-121.31840397994381,44.110736585335225],[-121.31839669191191,44.11070684692728]]],[[[-121.3181198562942,44.11281890166668],[-121.31823126894896,44.11222895148953],[-121.31897562287487,44.1123003980408],[-121.3190721413335,44.11231230413497],[-121.31916772324148,44.11233023920689],[-121.3192619923812,44.112354132662794],[-121.3193545777022,44.11238389045622],[-121.31944511478171,44.11241939545827],[-121.31997269444973,44.11264936878021],[-121.32007686861589,44.112689460622285],[-121.32018317280638,44.11272350517806],[-121.32029125630311,44.11275139012795],[-121.32040076251766,44.112773023474105],[-121.32051133016786,44.11278833384394],[-121.3206225944696,44.11279727072556],[-121.3207341883404,44.11279980463447],[-121.32084574361046,44.11279592721082],[-121.32095689223736,44.112785651246966],[-121.32106726752025,44.112769010645316],[-121.32117650530968,44.112746060306435],[-121.32128424520903,44.11271687594794],[-121.32139013176352,44.112681553854664],[-121.3214811030556,44.11264447034548],[-121.32156949576013,44.11260160203061],[-121.32165494248326,44.11255312708715],[-121.32173708807572,44.11249924699552],[-121.32180942491216,44.11245292553195],[-121.32188431893476,44.11241086389537],[-121.32196151957302,44.112373202810055],[-121.32205904503131,44.11233574909591],[-121.32215876696071,44.11230461177882],[-121.3222602767391,44.11227991844752],[-121.32236315841844,44.1122617702858],[-121.32246699042918,44.112250241657826],[-121.32257134730769,44.112245379803504],[-121.32267580143959,44.11224720464483],[-121.32277992481204,44.11225570870431],[-121.3228832907675,44.11227085713557],[-121.3229930772634,44.11228872621909],[-121.3231032935705,44.112303717699284],[-121.32310137476907,44.11281842310345],[-121.32196093297314,44.11281855209621],[-121.32166556061954,44.11281858305447],[-121.32138964487665,44.112818611432886],[-121.3192195621869,44.11281881459655],[-121.31883850672484,44.112818844909846],[-121.3181198562942,44.11281890166668]]],[[[-121.26573839228956,44.116657249628986],[-121.26555327466234,44.11649414539126],[-121.26513051760817,44.116335940847975],[-121.26469361298656,44.116112849065914],[-121.26450070696583,44.11591421155367],[-121.2642262222392,44.11568398135482],[-121.26411335611026,44.11554420428519],[-121.2640882841307,44.11536846525768],[-121.26421244747262,44.114948361403584],[-121.26439090948192,44.11461072108004],[-121.26478348404085,44.11416612763595],[-121.26521148725631,44.113713474724854],[-121.26559016936937,44.113250304222035],[-121.26607802373893,44.11283938571808],[-121.26636681952637,44.11249459484524],[-121.26668496866401,44.112218721613374],[-121.26692229547723,44.11201293438837],[-121.26720370531639,44.11183654439952],[-121.26717481010695,44.111637070167426],[-121.26712857831087,44.11131789928902],[-121.26715436984101,44.11107632786328],[-121.26715485942283,44.110758850915936],[-121.2670814023854,44.11045257444663],[-121.26685836148015,44.11027779872989],[-121.26670633599134,44.11014901632607],[-121.26661022973069,44.10987221689587],[-121.26671076199075,44.10967376803121],[-121.26694251924923,44.109410406910655],[-121.26699715568311,44.1092743856878],[-121.26730953045015,44.1092730653674],[-121.26761695011002,44.1086610643411],[-121.26747276871029,44.107940228488104],[-121.26729963191403,44.10721488027927],[-121.26721355175025,44.10710187628831],[-121.26668895179398,44.10641251843243],[-121.26649509625399,44.10615801719547],[-121.26640501768887,44.10591986273935],[-121.26640436730861,44.10581015629966],[-121.26957274957023,44.10579897065248],[-121.26957096551604,44.1054701538652],[-121.27060624423659,44.10546668933299],[-121.27060483477992,44.1058589464927],[-121.27039925353053,44.10585963539535],[-121.27040020484638,44.10609062308429],[-121.27002638351733,44.1060919808879],[-121.27003756394934,44.10926149982388],[-121.278766949011,44.10922405869128],[-121.27876770449416,44.109007500412574],[-121.2787681545501,44.10559816467166],[-121.27876710262291,44.10551671893844],[-121.27876809795625,44.10443012133997],[-121.27876800093819,44.10386763221129],[-121.27876787966562,44.103165851954124],[-121.27876785002123,44.10300126810235],[-121.27876890464336,44.10196895377254],[-121.27605669856113,44.10197920993587],[-121.2744579255275,44.10198541691681],[-121.27528684595592,44.10176249480727],[-121.2756933237405,44.10140042771113],[-121.27578365742717,44.1013204437729],[-121.27604524773622,44.101088785901894],[-121.27639056731796,44.10100384142314],[-121.27662583609086,44.10094569207758],[-121.27675106393642,44.10091502303391],[-121.27680901245876,44.10083302638856],[-121.27693051948239,44.100661279986106],[-121.27704640305237,44.100496258236085],[-121.27718845724151,44.10029437111706],[-121.27728567381989,44.10015793411436],[-121.27766250091187,44.09941681488174],[-121.27773481080067,44.09897245227995],[-121.27779324441327,44.09834025680413],[-121.27780393616179,44.09833995746758],[-121.27781230756194,44.098339976176085],[-121.27792374626786,44.09724007496908],[-121.27784531885197,44.09647114063057],[-121.27769619132832,44.095827835391326],[-121.27762033309413,44.09555334047981],[-121.27763219265252,44.095292145460306],[-121.27760797137749,44.0951848089578],[-121.27753422957414,44.09492675810669],[-121.27764369108814,44.094707429385],[-121.27539387303548,44.09471156680602],[-121.27539244381586,44.095085801243684],[-121.27501915428945,44.0955386903586],[-121.27502983885145,44.095710227773665],[-121.27503503830032,44.095793701819645],[-121.27506279354763,44.096239278602795],[-121.27508242353322,44.096554419414886],[-121.2751130731524,44.09704646673054],[-121.27460107566127,44.09725774453996],[-121.27375430660648,44.097284405976424],[-121.27375348374966,44.09675116012547],[-121.27375315945787,44.09654170690174],[-121.27375312442356,44.09651827600075],[-121.27375297350657,44.096421123369595],[-121.27375287738685,44.09635825932399],[-121.27375243990731,44.0960753728723],[-121.2737522916853,44.09597904336709],[-121.27375200781766,44.09579563597848],[-121.27375146793015,44.09544529671804],[-121.27375110411249,44.09520991456728],[-121.27388111908016,44.09508442770343],[-121.27391576149819,44.09504940484372],[-121.27394613930224,44.09501062486371],[-121.2739718481195,44.094968603981464],[-121.2739925457281,44.09492390155617],[-121.27400795661275,44.09487711264227],[-121.27401787563207,44.094828860068404],[-121.27402217074946,44.09477978614665],[-121.27402242227772,44.09471406809721],[-121.2737456917629,44.094714590678024],[-121.27367378431934,44.09471506938788],[-121.27356530915553,44.09471544874281],[-121.27074308460382,44.09472871584212],[-121.26874868543422,44.09473798293892],[-121.2637455579852,44.09476120228738],[-121.25870595174909,44.094759068094774],[-121.253666345513,44.09475671712801],[-121.2485886578954,44.094752677129485],[-121.24351287290955,44.094748231969454],[-121.24352535859369,44.09112717169978],[-121.24353784517612,44.087506276859315],[-121.24356743747822,44.083883894313544],[-121.24359702528874,44.08026150677429],[-121.24361138306193,44.07663852377912],[-121.24362764706014,44.07301603791933],[-121.2436438733291,44.06939063173533],[-121.2436601247509,44.06576744789488],[-121.24360798114193,44.06215103903137],[-121.24355584382116,44.05853462550718],[-121.24350370380546,44.05491751915804],[-121.24345347091305,44.05130022413932],[-121.24349381065923,44.04777955667067],[-121.2435349094818,44.044167272261824],[-121.24856302626539,44.044196392606416],[-121.25359114035402,44.044225587839264],[-121.25859943131931,44.04425305190452],[-121.25863373259014,44.04062651123193],[-121.2586661384157,44.03699922353671],[-121.25866789013052,44.036814393390955],[-121.258481358555,44.0368898245309],[-121.2584713899503,44.03689382456659],[-121.25846139619277,44.03689779231241],[-121.25845137009587,44.03690171937309],[-121.25843796453688,44.03690690314442],[-121.25842788004954,44.0369107488347],[-121.25841776591773,44.03691455577726],[-121.25840424178115,44.03691957616213],[-121.25839067093214,44.03692453196747],[-121.25837705426908,44.036929421255856],[-121.25836339358852,44.036934244673084],[-121.25834968709393,44.03693900286498],[-121.258339381621,44.0369425295322],[-121.25832904650365,44.036946015514374],[-121.25831523221122,44.03695060644532],[-121.25830137659626,44.03695513279685],[-121.25828747696387,44.03695959004835],[-121.25827353870393,44.036963980783],[-121.25826305895782,44.03696723169589],[-121.25825255405888,44.036970441278],[-121.2582385142893,44.03697466281459],[-121.25822443768881,44.036978816542835],[-121.25821385553478,44.03698188986237],[-121.25820325002451,44.036984920559576],[-121.25818907730428,44.036988904444094],[-121.25817842508165,44.036991849896495],[-121.25816970423686,44.03699422446965],[-121.25807883964588,44.03699401394182],[-121.25805780469518,44.03699911504384],[-121.25801995058742,44.03700776734883],[-121.25798189435874,44.03701594241328],[-121.25794364499227,44.03702363571685],[-121.2579052150644,44.03703084725966],[-121.25786661804992,44.03703757381304],[-121.2578278629319,44.03704381408549],[-121.25778896318515,44.037049564202476],[-121.25774993048775,44.037054824164144],[-121.25771077561947,44.03705959138743],[-121.25767151205501,44.037063865226656],[-121.25763215147254,44.0370676437446],[-121.25759270375346,44.03707092629553],[-121.25755318327084,44.03707371158796],[-121.25751359990618,44.03707599962196],[-121.25747396982908,44.03707778716865],[-121.25743430022614,44.03707907745701],[-121.25741953102458,44.037079370645664],[-121.25739460636869,44.03707986661237],[-121.25735489903651,44.03708015592626],[-121.2573151899077,44.03707994604453],[-121.2561645944541,44.037066613709385],[-121.25490964351062,44.03705205953614],[-121.25365528096364,44.03703749179767],[-121.25114492093587,44.03700828333566],[-121.25111543283838,44.03700794042074],[-121.24863693246046,44.03697904321548],[-121.24863665038946,44.03700617353728],[-121.2484965347647,44.03700454679032],[-121.24853317614682,44.03692503955969],[-121.24856881411075,44.03684770918889],[-121.2551797157126,44.02249907296413],[-121.25511191806146,44.022499125931965],[-121.25513042605127,44.02245905641971],[-121.25661762473335,44.01932719842573],[-121.25662587036935,44.01932665321575],[-121.26139915037822,44.0193455107604],[-121.26174719904178,44.01936174367012],[-121.26355371646805,44.022055071257874],[-121.26355856108238,44.02206241187506],[-121.26356340749334,44.02206983840317],[-121.26357018528215,44.02207973828601],[-121.2635769648676,44.022089723433034],[-121.26358181217688,44.02209723586946],[-121.26358665768952,44.022104662393204],[-121.26359248595908,44.02211456808381],[-121.26359733147171,44.02212199395941],[-121.263602178781,44.02212950703772],[-121.26360702609027,44.02213701817727],[-121.26361187250123,44.022144444695975],[-121.2636177016691,44.02215452284931],[-121.26362254808006,44.02216194807396],[-121.26362739628765,44.02216954641291],[-121.26363322545552,44.022179538004345],[-121.2636380727648,44.02218705042944],[-121.26364292097239,44.0221946474733],[-121.26364874924195,44.02220464035238],[-121.26365457930815,44.02221471720356],[-121.26366040937434,44.022224794698936],[-121.26366525848024,44.02223247829552],[-121.26367010578952,44.02223999006789],[-121.26367593585572,44.02225006820498],[-121.26368176682023,44.02226023031398],[-121.26368759778472,44.022270393713214],[-121.26369342785092,44.02228047184509],[-121.26369925881544,44.02229063394888],[-121.26370509067826,44.0223007973429],[-121.26370803894902,44.02230849320266],[-121.26371288715663,44.02231609152283],[-121.26371871812111,44.02232625491249],[-121.26372454998393,44.02233650356583],[-121.263727499153,44.02234419942096],[-121.26373234825894,44.02235188300202],[-121.26373818012176,44.022362132296884],[-121.26374401288288,44.02237238094408],[-121.26374696115367,44.02238007614859],[-121.26375181025955,44.02238776037097],[-121.26375475942862,44.02239545621944],[-121.26375960853456,44.0224031397939],[-121.26376544039738,44.02241338907991],[-121.26377032274094,44.02242364417771],[-121.26377520688112,44.0224340698044],[-121.26378105401531,44.02244551861316],[-121.26393331486271,44.02244958809444],[-121.26393297889278,44.02242305313376],[-121.26394138802218,44.0224225169955],[-121.26405516683943,44.02242281477834],[-121.2641088268046,44.018873260274766],[-121.26896718535573,44.018884579927494],[-121.26896884993393,44.0187215393811],[-121.26897725008016,44.01872098059977],[-121.26899255198272,44.018720052958095],[-121.26904272648459,44.01523623626757],[-121.26909381996299,44.01168893270268],[-121.26909618971874,44.01152435281832],[-121.26911999507375,44.00987139864628],[-121.2703686838614,44.00986735091478],[-121.27036827422963,44.009801516606245],[-121.27161560296794,44.009797459824696],[-121.27164123100466,44.0080585810318],[-121.27186991692318,44.008058509314],[-121.27413395710343,44.00805777081467],[-121.27412525332664,44.00869371872635],[-121.27355636642687,44.008689661222974],[-121.27270303697556,44.008683569152446],[-121.27270228598395,44.00873831441773],[-121.27268952541536,44.009668982011185],[-121.2726887744238,44.00972372830518],[-121.27354211734985,44.00972981962276],[-121.27411101502938,44.00973387770109],[-121.27411064043189,44.00976124985536],[-121.27268537879202,44.00975300383851],[-121.2726830970712,44.01019291944916],[-121.27313869383721,44.01019454887025],[-121.27338623180026,44.00992147872147],[-121.27410052270685,44.00992543858167],[-121.2741024756443,44.009790119627304],[-121.27411087309557,44.00978954913224],[-121.27661153221659,44.00978795458875],[-121.27911205569201,44.009786540303566],[-121.27911598851631,44.00912872670692],[-121.27912031120945,44.00840527347837],[-121.2791222345025,44.008083419285825],[-121.27912339512586,44.007891396949965],[-121.27912375804522,44.00783653331123],[-121.28035761025762,44.007834564618335],[-121.28160262403743,44.00783457043331],[-121.28160257732503,44.00786300178949],[-121.28344819841563,44.00786224648886],[-121.28346492978524,44.007856183657196],[-121.28348227251175,44.007852192856056],[-121.28349997102039,44.00785033289673],[-121.28365876531484,44.00783934000684],[-121.28371420238028,44.00783238226591],[-121.28376875960218,44.00782033287084],[-121.28382197036396,44.007803294877604],[-121.28387337956504,44.00778141400862],[-121.2839225475132,44.0077548774064],[-121.283937300796,44.00774428531314],[-121.28395004345101,44.007731344040536],[-121.28396040611253,44.007716428711525],[-121.28396095228821,44.00763644865266],[-121.28422696141014,44.00763709088679],[-121.28426395493187,44.007637180696165],[-121.28428801073478,44.00768517322552],[-121.2843177664172,44.00772985615169],[-121.28435277344852,44.00777055593409],[-121.28439250414041,44.00780665907313],[-121.28443635960119,44.00783762135805],[-121.28445839632458,44.00784919039912],[-121.28448188636287,44.007857417062496],[-121.2845063259989,44.00786212493675],[-121.28453119115247,44.00786321306688],[-121.28481709795795,44.00785841765098],[-121.28483645759772,44.00785927479958],[-121.28485554579122,44.00786261713785],[-121.28487404485874,44.00786838904017],[-121.28491594497858,44.00788485704456],[-121.28581738909482,44.00787974826797],[-121.28696018178184,44.00789704005679],[-121.28885103214864,44.00789071530601],[-121.28948384765559,44.00788846878848],[-121.28960357062509,44.007888168994384],[-121.28969479723712,44.00788857668851],[-121.28975899983048,44.007888139919515],[-121.28983920860557,44.00788690779149],[-121.2899076000431,44.00788507090633],[-121.28998357954983,44.0078821530823],[-121.29005954737846,44.00787837787265],[-121.29014310058135,44.00787335115119],[-121.29022664030951,44.00786729582505],[-121.2903082648295,44.00786005359724],[-121.29040312333024,44.0078508381535],[-121.2904592851035,44.00784458834639],[-121.29053328382503,44.00783551116747],[-121.29060158363437,44.00782664526467],[-121.29067555899972,44.00781585395638],[-121.29074952538188,44.007804376478425],[-121.29077797772187,44.00780023879668],[-121.29079883839941,44.00779683897112],[-121.29082918169308,44.00779200284497],[-121.29085193781584,44.00778824765894],[-121.29087279400181,44.00778450410267],[-121.29090313100727,44.007779153672566],[-121.29093346531778,44.007773632669156],[-121.29095431701217,44.00776954667397],[-121.29098464683109,44.00776368193951],[-121.29100549133895,44.00775908228666],[-121.29102823668195,44.007754469065176],[-121.29105666207246,44.007748274167234],[-121.29107940202557,44.007743318506805],[-121.2911078202296,44.00773660930441],[-121.29113623663699,44.007729728882104],[-121.29115897479346,44.00772460135495],[-121.29117980582657,44.0077189730922],[-121.29120253949147,44.007713503125885],[-121.29122337052458,44.007707874862085],[-121.29124419976107,44.00770207408638],[-121.29127260449037,44.00769433627196],[-121.29129533186706,44.007688351999626],[-121.29131615840859,44.00768238000278],[-121.2913369822552,44.00767623807834],[-121.29136537889964,44.00766781409127],[-121.29138619825466,44.00766132778843],[-121.29140701850801,44.00765484277707],[-121.29142783606638,44.00764818525348],[-121.29144865362478,44.007641527729135],[-121.29146946848824,44.00763469898473],[-121.29149028155507,44.00762769837398],[-121.2915110946219,44.00762069840857],[-121.29153757426153,44.00761108815377],[-121.29155838283674,44.00760374510137],[-121.29157919141201,44.00759640204811],[-121.29159809735548,44.00758890005053],[-121.29161890413407,44.00758138577586],[-121.29163970821776,44.00757369963462],[-121.29165860966964,44.00756585519503],[-121.29167941105835,44.0075579978322],[-121.29170021065045,44.007549969248714],[-121.29171910761077,44.00754178172064],[-121.29173990540623,44.007533581269236],[-121.29175880236653,44.007525393738895],[-121.29177769483526,44.007516863768075],[-121.29179848993577,44.007508492093436],[-121.29182304448578,44.007497008741],[-121.2918438350947,44.00748829397796],[-121.29186839233961,44.007476981195296],[-121.2918929406014,44.007464983531115],[-121.29191938700335,44.00745280172234],[-121.29193827048894,44.007443584923074],[-121.29195715397454,44.00743436941464],[-121.2919816959481,44.0074218567897],[-121.29200057494211,44.007412297545606],[-121.29202511152577,44.007399442475965],[-121.2920496463128,44.007386416183415],[-121.2920666208784,44.00737652676962],[-121.29209115297051,44.00736332925192],[-121.292110024778,44.0073532556918],[-121.29213265334002,44.00733972800467],[-121.29215152245256,44.00732948322029],[-121.292174146523,44.00731561244109],[-121.29219301114395,44.00730502456583],[-121.29221939915541,44.00728838453398],[-121.29224956907423,44.00727034759741],[-121.29227783905624,44.007252322931514],[-121.29230610454665,44.007233955819146],[-121.29233246560865,44.0072152585361],[-121.29236072481086,44.00719637710427],[-121.29238898041982,44.007177324445706],[-121.29241533519361,44.00715811219042],[-121.29269584042929,44.006955593254666],[-121.2926785739112,44.00694319553776],[-121.29266321271987,44.006931126692585],[-121.29264784883355,44.006918886623524],[-121.29263248045567,44.00690630410904],[-121.29261901021799,44.00689353744797],[-121.29260553548873,44.00688042704887],[-121.29259206075946,44.00686731729299],[-121.29257858153862,44.006853863798774],[-121.29256509782623,44.00684006850431],[-121.29255351405061,44.00682625963808],[-121.29254578943748,44.00681688250383],[-121.29253806572267,44.0068075047219],[-121.29252647476055,44.00679318218281],[-121.29251488290012,44.00677868777225],[-121.29250518828161,44.00676400856779],[-121.29249549186642,44.00674915813778],[-121.2924857927563,44.00673413583601],[-121.29247995909684,44.006724060876756],[-121.2924741263357,44.00671398397751],[-121.29246632267085,44.00669860630024],[-121.29245661906911,44.00668324154144],[-121.29245071444277,44.00666767971164],[-121.29244290628631,44.00665195957801],[-121.29243699896503,44.006636225871624],[-121.29243108894875,44.00662032029269],[-121.29242517713585,44.00660424413327],[-121.29242116525981,44.00658815440095],[-121.29241715338375,44.00657206531041],[-121.29241313971106,44.00655580499295],[-121.29240912603838,44.00653954337883],[-121.2924070123025,44.006523270130074],[-121.29240299593486,44.00650683793055],[-121.29240285220443,44.00649586546762],[-121.29240080763884,44.0064849065713],[-121.29240059473811,44.006468619092786],[-121.29240643738073,44.005754638656796],[-121.29241581130071,44.00502005911091],[-121.292424208752,44.00501951829235],[-121.2941053285511,44.00502730426997],[-121.2941485923135,44.00065529245913],[-121.29415698886646,44.000654823973704],[-121.2991118857679,44.000620560554644],[-121.29960969975899,44.00061747113365],[-121.3000923133572,44.000614486394866],[-121.30070222901094,44.000610622195],[-121.30110123820224,44.00060803873819],[-121.30206836533544,44.00060204147339],[-121.302141848424,44.00066754739051],[-121.3022111264987,44.0007330784366],[-121.30237375659944,44.00088849370893],[-121.3023814830092,44.00089795643048],[-121.30238732026189,44.00090820361795],[-121.30239031255013,44.00091889860915],[-121.30239048323001,44.00093175637557],[-121.30238869198935,44.000939998449226],[-121.30238594673783,44.000947905152444],[-121.30238348355732,44.00095929026043],[-121.3033824047634,44.000421462842866],[-121.30378840554255,44.00023022021271],[-121.30420237348,44.00006669736891],[-121.3046583403519,43.9999179693531],[-121.30513176598137,43.99979620867485],[-121.30551895334355,43.99971725508352],[-121.30553442233274,43.99971617205727],[-121.3055468101005,43.99971394267749],[-121.30556008001389,43.99971162218383],[-121.30557145627864,43.999709743042715],[-121.30558662433224,43.999707237736516],[-121.30559800059696,43.999705357302844],[-121.30560842734248,43.99970357186012],[-121.3056226467751,43.99970115766742],[-121.305637815727,43.999698737658896],[-121.30565298647551,43.999696403594506],[-121.30566815632572,43.99969406888383],[-121.30568332707423,43.999691735465426],[-121.30569754740519,43.99968940721654],[-121.30571176953276,43.99968725085604],[-121.30572314669585,43.999685457658366],[-121.30573452655386,43.999683835702996],[-121.30574969909901,43.9996816728803],[-121.30576487164417,43.999679510057575],[-121.30578004418929,43.99967734723473],[-121.3057942672152,43.99967519087379],[-121.30580849203771,43.99967320575511],[-121.30582366548117,43.99967112823015],[-121.3058350462375,43.99966959221862],[-121.30584642699384,43.99966805556085],[-121.30586160133565,43.99966606397995],[-121.30587298209198,43.9996645279683],[-121.30588436554325,43.99966316255277],[-121.30589574540124,43.999661626541034],[-121.30590712885255,43.99966026112544],[-121.30592135457339,43.99965836195057],[-121.30593178670878,43.999656918344996],[-121.30594316926177,43.9996555529293],[-121.30595834629847,43.99965373259038],[-121.3059735233352,43.99965191289762],[-121.30598490678648,43.9996505474818],[-121.30599480262765,43.99964950968822],[-121.30601146907112,43.999647534261626],[-121.30602515220953,43.99964604219096],[-121.30603803135575,43.99964452104135],[-121.3060479200104,43.99964348389383],[-121.30606134623063,43.999642037056894],[-121.30607303690573,43.99964075047698],[-121.30608970245089,43.9996389895878],[-121.30610418149665,43.999637365692536],[-121.30611578593347,43.99963616828784],[-121.30612659176803,43.99963501417839],[-121.30613561354843,43.999634103685516],[-121.30614699969466,43.99963299610231],[-121.30616218122297,43.999631518893786],[-121.30617736275126,43.999630041685236],[-121.30619254607619,43.99962864977483],[-121.30620772850281,43.99962725851055],[-121.30622291182776,43.99962586724624],[-121.30623809605099,43.99962456128004],[-121.30624948309553,43.99962353899478],[-121.30626087014008,43.99962251735566],[-121.30627225987956,43.99962166631281],[-121.30628364782243,43.99962064467367],[-121.30629503486696,43.999619622388344],[-121.30630642460645,43.99961877199166],[-121.30632161152462,43.999617637267804],[-121.30633299856918,43.999616614982386],[-121.30634438830869,43.99961576458566],[-121.30635957432855,43.99961463050796],[-121.30637476214504,43.99961358172839],[-121.30638615278288,43.999612816629785],[-121.30639754252233,43.999611966233005],[-121.30641177992129,43.999610923915334],[-121.30642222103984,43.99961016527869],[-121.3064336116776,43.999609400180034],[-121.30644880039245,43.9996084379909],[-121.30646019103025,43.999607672246015],[-121.30647158436301,43.99960707903608],[-121.3064829750008,43.99960631393738],[-121.30649436833356,43.99960572072743],[-121.30650575897137,43.999604954982516],[-121.30651715230412,43.9996043617725],[-121.30653234371388,43.99960357017967],[-121.30654753422532,43.999602779233],[-121.30656272473679,43.99960198764011],[-121.30657791614655,43.99960119604721],[-121.30659310755634,43.99960049039867],[-121.30660450268572,43.99959998248684],[-121.30661589691678,43.999599474575],[-121.30662729114783,43.9995989660169],[-121.3066386853789,43.99959845875125],[-121.30665007960997,43.999597950839345],[-121.30666147563767,43.99959761417006],[-121.30667286986873,43.99959710690435],[-121.30668426679472,43.999596770235016],[-121.3066956610258,43.999596262323145],[-121.30670705795181,43.99959592565379],[-121.30672225295483,43.99959547719216],[-121.3067374488562,43.999595028730525],[-121.30675264385921,43.99959458026884],[-121.30676783976055,43.99959413116098],[-121.3067830347636,43.999593682699334],[-121.30679823156325,43.99959331953587],[-121.30680962938756,43.999593069457106],[-121.30682102721192,43.99959281808592],[-121.30683622490986,43.99959254151301],[-121.30685142260786,43.99959226429393],[-121.30686761653749,43.9995919806128],[-121.30688028278298,43.999591892083664],[-121.30689801373005,43.99959159741717],[-121.30691181185283,43.99959150113362],[-121.30692701134743,43.999591395157076],[-121.30694221174035,43.99959128982674],[-121.30695741123498,43.999591183850235],[-121.30697261162788,43.9995910785199],[-121.30698441818568,43.9995909958065],[-121.30699681673323,43.99959108175089],[-121.30700722012253,43.99959100937665],[-121.30701862243842,43.999591101136836],[-121.30703382462796,43.99959116704908],[-121.30704902681751,43.99959123231512],[-121.30706422990541,43.99959129887352],[-121.30707943299328,43.999591450083955],[-121.30709463608113,43.999591601294384],[-121.30710984006731,43.99959175250481],[-121.30712504405349,43.99959198965959],[-121.30714024893801,43.99959222681442],[-121.30715545382252,43.999592463969236],[-121.30716685703672,43.999592642319975],[-121.3071782629459,43.99959299126708],[-121.30719346693205,43.999593228421894],[-121.30720867451151,43.99959363746545],[-121.30722388119264,43.99959404521665],[-121.30723908787377,43.99959445426018],[-121.3072542945549,43.99959486265753],[-121.30726570046404,43.99959521160462],[-121.30727710637322,43.99959556184413],[-121.30729231395267,43.999596056185894],[-121.30730752332875,43.999596635825796],[-121.30732273270482,43.999597216111894],[-121.30733794208089,43.99959779575178],[-121.30735315145697,43.99959837603786],[-121.30736835993473,43.99959895632395],[-121.30738357200576,43.99959970720637],[-121.30739497881322,43.999600141451616],[-121.30740638741734,43.999600748878024],[-121.30742159948836,43.99960149976043],[-121.30743681066107,43.999602251935194],[-121.30745202183378,43.99960300281758],[-121.30746343133619,43.999603608951546],[-121.30747484083864,43.99960421573173],[-121.30749005290963,43.999605052558415],[-121.30750526677731,43.999605975975726],[-121.30752048064494,43.99960689874676],[-121.3075356945126,43.99960782151783],[-121.30755090838025,43.99960874428884],[-121.30756231878098,43.999609436367116],[-121.30757373097833,43.999610299687916],[-121.30758894484602,43.99961122245888],[-121.30760321099102,43.99961232293436],[-121.30761747713608,43.99961342470223],[-121.30763269280034,43.99961451806946],[-121.30764791026125,43.99961569867344],[-121.30769165641894,43.99961882304131],[-121.30838971387006,43.99967054148279],[-121.30840112696575,43.99967149074693],[-121.30841254006143,43.99967235471299],[-121.30842395225879,43.999673217386665],[-121.30843536265952,43.99967391011036],[-121.30845057922213,43.999675004122736],[-121.30846579488642,43.99967609813503],[-121.30847720528713,43.999676790212526],[-121.30848861838284,43.999677654178505],[-121.30850383135218,43.99967857694848],[-121.30851524175291,43.999679268379744],[-121.30852665484858,43.99968013234568],[-121.30854186871623,43.999681055115566],[-121.30855708258392,43.99968197788549],[-121.30857229645154,43.999682900009184],[-121.3085875103192,43.999683822779026],[-121.30859891982162,43.999684514856426],[-121.30861032932405,43.99968512098957],[-121.3086255422934,43.99968595846131],[-121.30863695269414,43.999686649892496],[-121.30864741088067,43.99968717783576],[-121.30866167343244,43.99968802112326],[-121.30867308203653,43.99968862661016],[-121.30868449153897,43.999689234035664],[-121.30869970271168,43.99968998491695],[-121.3087149147827,43.99969073644439],[-121.30873012595538,43.99969148732565],[-121.30874153276288,43.99969192157027],[-121.30875294226529,43.999692528995695],[-121.30876434907277,43.99969296324026],[-121.30877575857522,43.999693569373306],[-121.30879096705297,43.9996941490123],[-121.30880237475873,43.99969458390305],[-121.30881378336285,43.999695190682246],[-121.30882899273892,43.999695770967385],[-121.30884420211501,43.99969635060635],[-121.30885941149108,43.999696930245264],[-121.30887461907052,43.999697423939935],[-121.30888982754828,43.99969791763465],[-121.30890503692436,43.99969849791976],[-121.30892024450381,43.99969899226061],[-121.30893165041299,43.9996993412071],[-121.30894305632214,43.999699689507416],[-121.30895826300326,43.999700098550235],[-121.30896966891244,43.99970044749671],[-121.30898107482159,43.99970079644318],[-121.30899248073075,43.99970114538971],[-121.30900388394498,43.9997013230939],[-121.30901909062608,43.999701732136714],[-121.30903429730724,43.999702139887155],[-121.30904950219171,43.999702376395334],[-121.30906090810089,43.99970272534179],[-121.30907231131512,43.999702903692196],[-121.30908751619961,43.99970314020037],[-121.30909891941381,43.99970331790461],[-121.30911032532299,43.99970366685107],[-121.30912553020751,43.99970390400545],[-121.30913693342171,43.99970408170964],[-121.30914833573762,43.99970417346965],[-121.30916353972377,43.99970432467979],[-121.30917874370995,43.999704561187954],[-121.30919394769616,43.99970471304427],[-121.30920915078403,43.999704864254404],[-121.30922435477021,43.99970501481833],[-121.30923955695975,43.99970508073046],[-121.30925475914931,43.999705145350156],[-121.30926996133886,43.999705211262274],[-121.30928516352843,43.99970527652818],[-121.30930036571797,43.9997053424403],[-121.30931656413918,43.99970539995186],[-121.30932923128299,43.99970531206904],[-121.30934696672165,43.99970535988763],[-121.3093607639461,43.99970526360426],[-121.30937483336008,43.99970516538227],[-121.30939256969705,43.99970521320085],[-121.30940636692151,43.99970511691748],[-121.30942043633547,43.999705018695536],[-121.30943816728256,43.999704724029606],[-121.309451964507,43.99970462774624],[-121.30946603392101,43.999704529524294],[-121.30948376486806,43.999704233566],[-121.30949416915568,43.999704161191886],[-121.30950656231336,43.99970390335924],[-121.30951696660095,43.99970383098514],[-121.3095283644253,43.99970357961447],[-121.30954356212325,43.99970330239586],[-121.30955875982124,43.999703024531094],[-121.30957395751922,43.99970274731248],[-121.30958535534354,43.999702495941804],[-121.30959675316785,43.99970224521729],[-121.30960815099219,43.999701993846585],[-121.30961954881651,43.99970174376827],[-121.30963474471788,43.999701379959255],[-121.3096499406192,43.999700930852214],[-121.30966513741888,43.9997005676894],[-121.30967653524318,43.99970031696488],[-121.30968793127089,43.99969998029612],[-121.30970312717224,43.99969953118907],[-121.30971452140331,43.99969902327808],[-121.309725917431,43.999698686609314],[-121.30974111333235,43.99969823750225],[-121.30975250936002,43.999697900187314],[-121.30976390359109,43.99969739227627],[-121.30977530051712,43.999697055607534],[-121.30978669474818,43.99969654769647],[-121.30979809167417,43.999696210381536],[-121.30980948590523,43.99969570247047],[-121.30982467911166,43.99969508276731],[-121.30983987231805,43.999694461771774],[-121.30985506552443,43.99969384206855],[-121.30987025873083,43.999693221073],[-121.30988545014061,43.999692515425565],[-121.30990064244871,43.9996918091319],[-121.30991583475678,43.9996911028383],[-121.30993102526826,43.99969031060037],[-121.30994621757635,43.999689604306695],[-121.30995761180739,43.99968909639562],[-121.30996900424181,43.99968850318649],[-121.3099841956516,43.99968771094854],[-121.30999938436642,43.99968674746831],[-121.31001457487787,43.999685955230326],[-121.31002976538932,43.999685163638595],[-121.31004495410414,43.99968420080449],[-121.31006014551393,43.99968340856651],[-121.31007533333043,43.999682445086215],[-121.31008672486655,43.99968167934229],[-121.31009811730095,43.999681086133045],[-121.3101133060158,43.999680122652705],[-121.3101246966536,43.99967935690874],[-121.31013608818972,43.999678591810984],[-121.31015127600624,43.99967762897682],[-121.31016266754236,43.99967686258662],[-121.31017405818017,43.99967609813503],[-121.31018829557908,43.999675054526115],[-121.31019873490101,43.999674209946015],[-121.3102101255388,43.9996734454944],[-121.31022531335533,43.99967239671587],[-121.31023670309482,43.99967154438132],[-121.31044470171065,43.99965621334334],[-121.3104579824038,43.99965436263312],[-121.3104697781818,43.999652842776136],[-121.31065615075548,43.999634837766365],[-121.31086409098083,43.99962515513601],[-121.31092768541471,43.999620595562654],[-121.31094666861331,43.99961917651167],[-121.31096185193823,43.99961787054532],[-121.31097703616149,43.99961656393274],[-121.31098842320603,43.99961554100113],[-121.31099980935225,43.999614432771295],[-121.3110132661152,43.99961308803298],[-121.31102340719644,43.99961199725051],[-121.31103501163331,43.9996107991991],[-121.31104873519588,43.99960931682045],[-121.31106161524042,43.999607795023685],[-121.31106974050218,43.99960696142799],[-121.31107760615082,43.99960617371235],[-121.31108898870376,43.99960480829548],[-121.31110036946008,43.99960327163608],[-121.31111175201308,43.99960190557293],[-121.31112692815148,43.99959999928799],[-121.31114210159495,43.99959792176046],[-121.31115727503843,43.99959584423282],[-121.311171497166,43.9995936872227],[-121.31118572019189,43.99959153021256],[-121.31120089004209,43.999589194851545],[-121.3112160598923,43.999586860782856],[-121.31123122884418,43.999584439477246],[-121.31124260510893,43.99958255903968],[-121.31125303095614,43.999580686356424],[-121.3112672485921,43.99957818621441],[-121.31128241395076,43.999575509013816],[-121.31129757930938,43.999572830520734],[-121.31130895287919,43.99957077884016],[-121.3113193751331,43.99956864832329],[-121.31132979828536,43.99956651845257],[-121.31134117005855,43.99956438147355],[-121.31135633092559,43.999561361140834],[-121.31137054227335,43.999558345977555],[-121.31138096183237,43.99955604486377],[-121.3113923309106,43.99955365069728],[-121.31140748998101,43.99955045847511],[-121.31142169863385,43.99954727271482],[-121.31143211729453,43.99954488500993],[-121.31144348367783,43.999542319600266],[-121.3114576887374,43.9995388772985],[-121.31146810649976,43.99953640364885],[-121.31147947198475,43.99953375229433],[-121.31149367524768,43.99953013874936],[-121.31150787761233,43.9995265245579],[-121.31151924130067,43.9995237006678],[-121.31152965546976,43.99952097112265],[-121.31154385693608,43.999517270986175],[-121.31155805660579,43.99951339960667],[-121.31157225537716,43.99950952822691],[-121.31158645235192,43.99950548560411],[-121.31160065112331,43.99950152763309],[-121.31161484719972,43.99949739971144],[-121.31162525687724,43.99949432638692],[-121.31163566475813,43.999491167117775],[-121.31164985993625,43.999486953250845],[-121.31166405331774,43.99948265343901],[-121.3116744611986,43.999479408224666],[-121.31168486728286,43.999476077711805],[-121.31169527336714,43.99947274719875],[-121.31170567855305,43.99946933138715],[-121.31171608373899,43.99946591492914],[-121.31172648892493,43.999462498470976],[-121.31173689321255,43.99945908201257],[-121.31174729750018,43.999455580901795],[-121.3117605350742,43.99945085847297],[-121.31177093936182,43.9994473567155],[-121.3117813409545,43.999443683714865],[-121.3117945767319,43.99943879068828],[-121.31180497832457,43.999435116394686],[-121.31181537991723,43.99943144403946],[-121.31182861299969,43.99942637847643],[-121.31184184608213,43.99942131420538],[-121.31185224587817,43.99941746866763],[-121.31186264387762,43.99941353783118],[-121.31187587426508,43.999408301669725],[-121.31188910555093,43.9994030655078],[-121.31190233504012,43.99939774404696],[-121.31191556363098,43.99939233534857],[-121.31192879222185,43.99938692858827],[-121.3119420190161,43.99938134929188],[-121.31195524491203,43.99937576999501],[-121.31196563931817,43.99937158196787],[-121.31197413468583,43.9993674081569],[-121.3119873578868,43.999361656969256],[-121.31200058108777,43.99935582112875],[-121.31201380518709,43.99935006993998],[-121.31202229606315,43.99934563829324],[-121.31203268777436,43.99934119436834],[-121.3120459091787,43.99933527193489],[-121.31205439825816,43.9993306683975],[-121.31206478907104,43.99932622382531],[-121.31207705826118,43.99932013660897],[-121.31208932655302,43.999313964739635],[-121.31209971467098,43.999309262331835],[-121.31210820285209,43.999304574140034],[-121.3121185900717,43.99929987173143],[-121.31212707825284,43.999295183538955],[-121.31213556373899,43.99929032216399],[-121.31214595095864,43.999285620400485],[-121.31215726434134,43.99927911185642],[-121.31217047945746,43.99927267568626],[-121.31218179194184,43.99926608119594],[-121.31219500436305,43.99925947313462],[-121.31220348895091,43.999254526458074],[-121.3122119708438,43.99924940982997],[-121.31222518146838,43.999242715821936],[-121.31231003094021,43.99919368585708],[-121.31236191313947,43.99916597473942],[-121.31254681876429,43.99906849299507],[-121.31269678261951,43.99919877858052],[-121.3139651400203,44.00039796803977],[-121.31424636750144,44.000679926387214],[-121.314822265752,44.00125369072769],[-121.31494162759876,44.001368499405935],[-121.31495124586048,44.00137717694353],[-121.31496086232562,44.00138576724572],[-121.31497047968904,44.00139435819282],[-121.31498009705247,44.00140294978486],[-121.31498971351759,44.001411540729514],[-121.3149974004015,44.00141791528067],[-121.31500318734854,44.001424304693295],[-121.31501280291533,44.001432809693085],[-121.31502241938045,44.001441315337885],[-121.31503203494725,44.00144982033523],[-121.31503972183114,44.0014561961747],[-121.31504740871503,44.00146257201343],[-121.3150570224852,44.001470905770624],[-121.315066638052,44.00147941076373],[-121.31507625182218,44.00148774516474],[-121.31508586559235,44.001496078272204],[-121.31509355247624,44.00150245410665],[-121.31510123666517,44.001508658057226],[-121.31511085043535,44.00151699245408],[-121.3151204633072,44.00152524026203],[-121.31512814839446,44.00153152950561],[-121.3151358325834,44.001537648157765],[-121.31514544545526,44.001545982550546],[-121.31515312964417,44.001552101201206],[-121.31516081383312,44.00155830514658],[-121.3151684989204,44.00156450909127],[-121.31517618221102,44.00157062709383],[-121.31518579328625,44.00157878959899],[-121.31519347657684,44.001584908246265],[-121.31520115986748,44.00159102624671],[-121.31520884405643,44.00159714489267],[-121.31521652644874,44.001603177596564],[-121.31522420884104,44.001609210946036],[-121.31523189213168,44.001615328943984],[-121.3152395754223,44.00162144758744],[-121.31524725691627,44.001627394347416],[-121.31525781661246,44.00163546444161],[-121.31526837541031,44.001643449239424],[-121.31527605780262,44.001649481292425],[-121.31528373929662,44.00165542869577],[-121.31529429809446,44.001663412198575],[-121.315304855994,44.00167131169748],[-121.31531541569016,44.00167929519814],[-121.31532597179306,44.00168710810738],[-121.31533653059091,44.00169509289824],[-121.31534708759213,44.0017029058054],[-121.31535764459335,44.00171071871153],[-121.31536627470828,44.001716573059475],[-121.31537395440564,44.00172243386866],[-121.31538451140686,44.00173024677221],[-121.31539506661147,44.00173797373346],[-121.31540562271435,44.001745701339885],[-121.3154171283365,44.00175342183735],[-121.31542768354112,44.00176114814939],[-121.31557345046731,44.00186102535882],[-121.31987536737861,44.004644473323616],[-121.32017827659747,44.00484019305245],[-121.32380851867924,44.00348843148304],[-121.32746405103121,44.00221322062494],[-121.32813686582283,44.00196565176832],[-121.32755014466973,44.00279687776245],[-121.32576946728264,44.005319458611986],[-121.32576920856782,44.00531982626333],[-121.32613104187944,44.00531813920227],[-121.32696603491915,44.00531424300197],[-121.32989782518945,44.00529420373494],[-121.33170583202245,44.005281808901486],[-121.33171489153209,44.00644725178538],[-121.33172385222703,44.007600131401794],[-121.33172673492078,44.00797103164384],[-121.33386888000517,44.00796025069952],[-121.33757539085123,44.00794150518735],[-121.33895313340919,44.00793450590509],[-121.34277202259896,44.00791502123755],[-121.34278364051055,44.00791496244176],[-121.34339525757342,44.00791183140363],[-121.3435046777649,44.00791127058209],[-121.34403737962673,44.0079085388384],[-121.34716963344421,44.00790253003559],[-121.34909502493203,44.00789879553201],[-121.35415266035587,44.007888838362256],[-121.35553895307872,44.00788606462053],[-121.35647752726062,44.00788411402032],[-121.35921029577972,44.00787851807809],[-121.36426793569512,44.00786817840888],[-121.36422227073598,44.01010015866842],[-121.36411802663713,44.015197152208344],[-121.36397424678435,44.022157793307194],[-121.36396620506592,44.022525939262415],[-121.36900897427013,44.02250169357852],[-121.36881761245334,44.03695643342053],[-121.37387412498309,44.03687870205381],[-121.37886572974199,44.03691423029818],[-121.38392959857558,44.03695005235633],[-121.38388194474638,44.0405806299384],[-121.38383618276919,44.044211016053154],[-121.38355304187644,44.05022963291095],[-121.38348658541004,44.05164210687591],[-121.39416996880973,44.05156635556111],[-121.39270873054102,44.05268176352754],[-121.39190144962946,44.05352311906721],[-121.39189481916436,44.05384687452779],[-121.39422208367259,44.05354487743576],[-121.39603356788409,44.051553018738254],[-121.40371582903983,44.05149782813527],[-121.40371387071252,44.05158563219418],[-121.40391347816528,44.0587521820271],[-121.40283998062097,44.05875290117394],[-121.3991434940752,44.06346267819545],[-121.39737641538485,44.06410763675012],[-121.39633515029128,44.063801061181096],[-121.39359194694184,44.06597256535478],[-121.39337758915211,44.06614172345163],[-121.39234166813614,44.06645521601673],[-121.39020931648498,44.067883322496684],[-121.38832932495332,44.06836835477589],[-121.38718001498891,44.06912587259325],[-121.3858004425627,44.072214660293454],[-121.38431857538178,44.07352487410872],[-121.38438851641318,44.07440320565226],[-121.38371212812338,44.07524589759707],[-121.38351811627652,44.07576944449802],[-121.38308503668142,44.07633835831043],[-121.38243634075688,44.07686553083745],[-121.38216167367221,44.07746941336163],[-121.38223611616151,44.07852739134209],[-121.38256031904587,44.07922925299176],[-121.38182292257186,44.080459874969],[-121.38165085387244,44.08170643422228],[-121.38010268832862,44.08201529820688],[-121.37853668673485,44.08371457591876],[-121.37791589248303,44.08368240669182],[-121.37784233213937,44.0873909368471],[-121.37780101143294,44.08769008871097],[-121.37735379594851,44.08768883694901],[-121.37355921427203,44.087684338993775],[-121.37254872276513,44.087683187888814],[-121.36849533465863,44.08767823826636],[-121.36343145414696,44.08767174587868],[-121.36342911942553,44.08923796504244],[-121.36340532664691,44.09489171756575],[-121.35868348417122,44.09488984466753],[-121.3583922952719,44.09488976660319],[-121.35338116383365,44.094887414351334],[-121.34848050361582,44.09489089692277],[-121.34357983980473,44.09489400143057],[-121.34357197505443,44.09446749201887],[-121.34041579011775,44.096738923767546],[-121.33988047865006,44.09848094805464],[-121.33907913200929,44.09847679283401],[-121.3390239323317,44.0984765057554],[-121.3384719355559,44.098473631743715],[-121.33812931990317,44.09847198862183],[-121.33873135194196,44.099199218813474],[-121.33853664929066,44.099432594920025],[-121.33843572087356,44.09997681755009],[-121.33846780959381,44.10036851893553],[-121.3386291910363,44.10061338347841],[-121.33891814402891,44.100861442805034],[-121.33910983373076,44.101232446414315],[-121.33918077458704,44.10154328562314],[-121.3394878978029,44.102139253331295],[-121.33982115390869,44.102424194372176],[-121.34005561419785,44.10272202133211],[-121.3402369184767,44.103166478316375],[-121.34026850054714,44.10352080671373],[-121.33912095397564,44.104359253566145],[-121.33856614277809,44.1047056406694],[-121.33829609662725,44.104997680364704],[-121.33810009411373,44.10568711857949],[-121.33779566314877,44.106245149970086],[-121.33763825944638,44.10656192098599],[-121.33757026236927,44.106737288862966],[-121.33758894463223,44.10712325632743],[-121.33782877145688,44.107669992759405],[-121.338964740541,44.109005097766875],[-121.33896447284305,44.10912271312503],[-121.33896297984305,44.10928920075135],[-121.33393696332057,44.10925953450043],[-121.3326804618849,44.10925225435347],[-121.33101812855332,44.10924267864008],[-121.32980217347632,44.10923565971727],[-121.32979431591252,44.11148594802958],[-121.33392608202753,44.11150467562217],[-121.33895194224314,44.11153059342412],[-121.33894527045553,44.11289356587085],[-121.33893302821484,44.11539640646359],[-121.33893049406741,44.11591441019216],[-121.33883760826706,44.116199956201775],[-121.3385977401199,44.116496627703036],[-121.33390290369657,44.116477374144495],[-121.33339978245878,44.116475300068835],[-121.32977610346845,44.11646029461923],[-121.32888525498097,44.11645658888465],[-121.32701146811299,44.11644877046748],[-121.32701341655883,44.116224144185686],[-121.32701071861364,44.11613258949258],[-121.32700146224985,44.11604146397218],[-121.32698569512769,44.11595123682218],[-121.32696349843077,44.11586237261462],[-121.32693498644801,44.115775328903894],[-121.32690926214163,44.11569730209999],[-121.3268892195923,44.115617626392996],[-121.32687496272928,44.11553671493569],[-121.32686656548051,44.115454987288715],[-121.32686407138934,44.11537286724502],[-121.32686749338868,44.11529078063231],[-121.32687681373402,44.11520915310491],[-121.32689198409535,44.1151284079366],[-121.32690608239541,44.11505624683313],[-121.32691595496834,44.114983387247456],[-121.3269215683126,44.114910076420934],[-121.32692256414776,44.1148259793578],[-121.32691799953423,44.11474200036032],[-121.32690789443367,44.11465850667998],[-121.32689229303708,44.11457586344591],[-121.32687126357143,44.11449443206811],[-121.32684489800144,44.114414568657004],[-121.32681929109789,44.114336651608724],[-121.32679934826002,44.11425709619947],[-121.32678517255799,44.11417631359371],[-121.32677683725575,44.114094721298365],[-121.32677438543244,44.11401274100509],[-121.3267778297598,44.11393079641081],[-121.32678715243655,44.11384931102795],[-121.32680230528054,44.11376870599559],[-121.32688011555383,44.11342319367765],[-121.32692422552923,44.11322732045015],[-121.32694390104467,44.11312582511256],[-121.32695717930783,44.113023296496124],[-121.32696400815128,44.112920137413354],[-121.32696436074602,44.11281675315373],[-121.32695823570675,44.1127135498914],[-121.32694565709743,44.11261093308943],[-121.32692667433666,44.11250930590677],[-121.32691030527748,44.11242267497917],[-121.32689891688872,44.11233524976361],[-121.32689254644073,44.11224731637344],[-121.32686779336306,44.11167638149304],[-121.32703468113336,44.11168040609438],[-121.32720124668435,44.11169152555976],[-121.32736718853039,44.111709719762814],[-121.3275322063147,44.111734955771816],[-121.32769600135309,44.11176718790929],[-121.32785827717457,44.11180635783465],[-121.32801874005791,44.11185239464989],[-121.32817196593368,44.111896746754475],[-121.32832675436819,44.11193529307366],[-121.32848288546188,44.11196797884677],[-121.32864013740775,44.1119947576389],[-121.3287982868064,44.11201559140685],[-121.32895710898354,44.11203045055322],[-121.32911637830907,44.11203931396842],[-121.32927586851764,44.11204216906067],[-121.32979236746665,44.11204282112778],[-121.32979265492759,44.11196054903403],[-121.32979294238845,44.11187827682569],[-121.32927629162417,44.11187758670328],[-121.32912782350486,44.11187485285263],[-121.3289795639154,44.111866525156415],[-121.3288317235406,44.11185261544873],[-121.32868451246952,44.11183314349603],[-121.32853813989696,44.111808136968975],[-121.3283928138262,44.1117776314032],[-121.3282487407733,44.11174167014873],[-121.32810612547382,44.11170030430844],[-121.32793939303659,44.11165292905761],[-121.32777089145708,44.11161229240275],[-121.32760089296228,44.111578459995435],[-121.32742967219758,44.11155148649446],[-121.32725750578304,44.11153141547757],[-121.32708467186646,44.11151827937098],[-121.32691144967406,44.11151209939708],[-121.32673811905934,44.11151288554008],[-121.32656496005099,44.1115206365299],[-121.32639225240041,44.11153533984423],[-121.32622027512986,44.11155697172877],[-121.32606732728765,44.111581752929105],[-121.32591546929817,44.111612514940745],[-121.3257649349397,44.11164921040702],[-121.32561595595281,44.11169178283698],[-121.32546876168367,44.11174016669235],[-121.32532357873097,44.11179428748847],[-121.32518063059706,44.1118540619089],[-121.32505148398947,44.111908393734545],[-121.32492030062858,44.111957604702404],[-121.32478728347316,44.11200161867629],[-121.32465263831912,44.11204036756052],[-121.32451657348113,44.11207379140521],[-121.32436081642902,44.11210554496189],[-121.32420392804568,44.11213112977807],[-121.32404615254511,44.11215050602816],[-121.3238877355222,44.11216364355091],[-121.32372892357048,44.11217052189631],[-121.32356996389818,44.11217113035747],[-121.32341110394347,44.112165467987246],[-121.32325259098933,44.112153543599746],[-121.32309467177859,44.11213537575659],[-121.32293759212983,44.11211099273802],[-121.32282920109238,44.11209487080215],[-121.3227200792506,44.112084823043034],[-121.32261056672908,44.11208088077876],[-121.32250100487013,44.11208305629708],[-121.32239173516983,44.11209134281706],[-121.32228309821363,44.112105714510236],[-121.32217543261477,44.11212612658113],[-121.32206907395882,44.11215251540684],[-121.32196435375774,44.11218479873538],[-121.32188326127495,44.112215076871024],[-121.32180399433209,44.11224985485303],[-121.32172680239819,44.112289023228094],[-121.32165192841182,44.11233245872543],[-121.3215796080165,44.112380024644786],[-121.32151963140349,44.112420152994204],[-121.32145739888841,44.11245668507059],[-121.32139312584836,44.1124894944421],[-121.32139745752465,44.11068021411819],[-121.32323649126927,44.109200806322114],[-121.32136216720873,44.1091999162174],[-121.31884030425374,44.10919867910079],[-121.31379754852428,44.10919603394153],[-121.31067371641257,44.109197975402026],[-121.3052626693829,44.10920130684479],[-121.30526263614524,44.10927660643181],[-121.30526253373728,44.109510165928455],[-121.305261948934,44.11084098665565],[-121.30526217980106,44.112647474515626],[-121.30543262075317,44.11260629343381],[-121.30877027885195,44.111799811790796],[-121.30877030220817,44.111886336422906],[-121.30859877788781,44.11188624870643],[-121.30859025287576,44.111886753721166],[-121.30858189764533,44.111888070758305],[-121.30857396102978,44.11189036880101],[-121.30856424664827,44.11189465207372],[-121.30855590848583,44.11190024012846],[-121.30854928071565,44.11190691302884],[-121.30854552755441,44.11191245012948],[-121.30854310210316,44.111918360024475],[-121.3085417186976,44.111925912021945],[-121.30854325751167,44.11372270466349],[-121.30854422589555,44.11480295611758],[-121.30854381536547,44.11481049097793],[-121.30854266911518,44.11481798649582],[-121.3085404377,44.11482605343142],[-121.30853738612298,44.114833979123645],[-121.3085337200983,44.11484104252752],[-121.30852937404897,44.11484790212893],[-121.30852426443163,44.11485448311473],[-121.30851852240033,44.11486078677487],[-121.30851145176072,44.114867246510244],[-121.30850165473424,44.114874745890596],[-121.30849145975408,44.11488197245977],[-121.30848037454348,44.11489137248041],[-121.30847375395983,44.114898074065366],[-121.30846789245258,44.114905134236885],[-121.30846114161324,44.114914961849756],[-121.30845628352417,44.11492389686266],[-121.30845303521612,44.11493178320038],[-121.30844988123116,44.11494250985624],[-121.30844815826245,44.11495340419473],[-121.3084478860729,44.11496436689492],[-121.30844906556088,44.114975299280886],[-121.3084508541066,44.11498342359471],[-121.30845404761743,44.114992741691765],[-121.30845895421552,44.11500312006892],[-121.30846521277812,44.11501311470494],[-121.30847276581301,44.11502263466355],[-121.30848154325165,44.11503159158813],[-121.30849430831184,44.115042584586],[-121.30850368133353,44.115052609527496],[-121.30850979796229,44.115062140443655],[-121.30851364365003,44.115072029944635],[-121.30851575558926,44.11508361692399],[-121.30543163889456,44.115085443391834],[-121.3054310999054,44.11644699950524],[-121.30467032118284,44.11644740774235],[-121.30373824182048,44.11644790110946],[-121.30350254904276,44.116449072937016],[-121.30208952425363,44.11644860214221],[-121.30043498829873,44.11644928318231],[-121.29958454333779,44.11644962499222],[-121.2987340956819,44.116449959063004],[-121.29862854004277,44.11645000033818],[-121.29846500623687,44.11645006418566],[-121.29664515511685,44.116450754254686],[-121.29409166607395,44.11645167585155],[-121.29372995044164,44.11645180161175],[-121.2933682330127,44.1164519299517],[-121.29336670048683,44.11631530580603],[-121.29336516706263,44.11617868327929],[-121.29329839259263,44.116315329023365],[-121.29323161812262,44.116451973806576],[-121.29323180048061,44.11646005277264],[-121.29320977199325,44.116506569202734],[-121.29320511692342,44.11651448693049],[-121.29320236538372,44.11652239304856],[-121.29319961294567,44.11653029723077],[-121.29319686140596,44.11653820399166],[-121.29319410896794,44.116546108171754],[-121.293188547498,44.11655746268974],[-121.29318392566589,44.116567951718864],[-121.29318025514961,44.11657843558669],[-121.29317658643001,44.11658900393757],[-121.29317101328198,44.116599500700154],[-121.29316734456238,44.11661006969221],[-121.29316459212433,44.116617974507626],[-121.29316184058462,44.11662588061185],[-121.29315718461649,44.11663379832362],[-121.29315443307678,44.11664170442568],[-121.29315076345884,44.116652186990606],[-121.29314801102082,44.116660092445315],[-121.29314246302563,44.116672474301986],[-121.29313497736433,44.116682384170915],[-121.29312748810983,44.11669194965001],[-121.29311999885532,44.116701602191995],[-121.29311250960079,44.1167111683129],[-121.29310501944795,44.11672073507719],[-121.29309753109173,44.11673038761442],[-121.29309004273553,44.116740039505196],[-121.29308350479688,44.11674959981559],[-121.29307696685825,44.11675915883457],[-121.29306947850205,44.11676881072064],[-121.2930638622349,44.116776049956634],[-121.2930544946031,44.11678760113119],[-121.29304508744545,44.116796152133276],[-121.29303755507179,44.11680246139057],[-121.29303002359644,44.11680885577668],[-121.29302061554047,44.11681732164621],[-121.29301120748451,44.116825786224666],[-121.29300367600916,44.11683218125318],[-121.2929961436355,44.11683849050662],[-121.29298673378291,44.11684686930772],[-121.29297635734308,44.11685405565068],[-121.29296502958734,44.1168613335714],[-121.29295370272993,44.11686861149121],[-121.2929452091589,44.11687424164038],[-121.29293671289295,44.11687970024037],[-121.29292538603552,44.11688697815792],[-121.2929140582798,44.11689425607458],[-121.29290556470878,44.11689988622125],[-121.29289611802525,44.11690543639743],[-121.29288665427373,44.11690961611956],[-121.29287814453305,44.1169140460701],[-121.29286773395721,44.11691866046716],[-121.29285922511484,44.11692309041703],[-121.29284881453901,44.116927704813385],[-121.29283935887233,44.11693256943798],[-121.29260003061268,44.11704761385588],[-121.29259728176791,44.117055776579846],[-121.2925945302282,44.11706368198056],[-121.29259177599351,44.11707141518726],[-121.29258711822877,44.11707916258108],[-121.29258058568001,44.11708915106176],[-121.29257309552717,44.11709871776481],[-121.29256747566677,44.117105699638444],[-121.29255994778468,44.117112351313644],[-121.29255054062702,44.11712090226874],[-121.29254017406866,44.11712885925411],[-121.29253168139597,44.117134574507446],[-121.29252318333337,44.11713986218042],[-121.29251089348196,44.11714637583967],[-121.29249859644403,44.117152287790915],[-121.29248817778337,44.11715630239696],[-121.29247775373283,44.117159888133166],[-121.29246732429237,44.117163130773605],[-121.29245688946202,44.11716585941541],[-121.29244264936814,44.11716887182029],[-121.29243125064549,44.11717074917214],[-121.29241984473634,44.11717202675162],[-121.29240462817374,44.1171731598698],[-121.2923894035263,44.11717360615198],[-121.29237416540414,44.117173110211205],[-121.29235892009545,44.11717201385331],[-121.29234366131203,44.117169889498506],[-121.29232934755629,44.11716724405112],[-121.29231502122416,44.11716365509073],[-121.29230068770548,44.117159467002665],[-121.29228729562124,44.117154585628874],[-121.29227676916273,44.117150371098575],[-121.29226814174274,44.117145801218854],[-121.29225950983117,44.11714088759812],[-121.29224992301044,44.11713572374925],[-121.29223935343283,44.11712825238725],[-121.29222877577035,44.117120180606605],[-121.2922191440339,44.11711158837674],[-121.29220950600921,44.11710256792061],[-121.2922027183389,44.11709309860066],[-121.29219786204649,44.11708575879644],[-121.29219300395744,44.117078249377975],[-121.29218814317345,44.117070567120706],[-121.29218518412287,44.11706270041594],[-121.29218222237739,44.11705466216206],[-121.29218018140506,44.11704421836358],[-121.29146405254541,44.11738322876856],[-121.2905832184767,44.11780019846456],[-121.29014138929074,44.11779068604746],[-121.29045335532429,44.1173338883024],[-121.2906993275238,44.11692640078692],[-121.29098631410427,44.11645279737485],[-121.28881402245726,44.116453328792474],[-121.28375534408936,44.12046445141688],[-121.28375523808815,44.12066997641014],[-121.28375515095159,44.120839267028614],[-121.2837536822061,44.12370729621468],[-121.27190914724994,44.1237570163308],[-121.27192426499788,44.123575208574934],[-121.27200880185599,44.1233043369374],[-121.27215148935741,44.1231463415042],[-121.27217793486106,44.1229807202618],[-121.27197374779698,44.12279691815969],[-121.27159410538488,44.122474919234136],[-121.27100087953079,44.122051896954304],[-121.27037054517066,44.1215492162324],[-121.26975928024737,44.121022832103634],[-121.26930552502769,44.12049531023061],[-121.26910922517179,44.12014904468039],[-121.2688973673935,44.11970383898816],[-121.26890501654816,44.119408043875445],[-121.26865614189197,44.11930116388753],[-121.26810966526358,44.11929791813994],[-121.26766822953972,44.119020176803495],[-121.2673462392059,44.11845670051837],[-121.26694969319509,44.11776273114073],[-121.26655837717587,44.117379707537275],[-121.26607225745313,44.116951409455226],[-121.26573839228956,44.116657249628986]],[[-121.27153924527047,44.01523354168485],[-121.27142520953501,44.01523366507617],[-121.27141236721971,44.01614777796115],[-121.27164044048723,44.01614772175755],[-121.2740152375521,44.01614711127051],[-121.27402772503287,44.015231732160366],[-121.27402773760929,44.01523080058797],[-121.27153924527047,44.01523354168485]]],[[[-121.40381623823072,44.170917887729885],[-121.40384458906108,44.1682649589781],[-121.40570972245794,44.16825280186427],[-121.40569842704157,44.167356003710985],[-121.405691006059,44.16719143499646],[-121.40886404069546,44.1671850177126],[-121.41387157258431,44.16717473420552],[-121.41887901913324,44.1671795147897],[-121.41883998733414,44.170812525578015],[-121.41879934395743,44.17444541052333],[-121.41380111591997,44.17448322781682],[-121.40879111007081,44.17452090334216],[-121.40378110332331,44.17455838942225],[-121.40381623823072,44.170917887729885]]],[[[-121.24378014416445,44.02240006442641],[-121.24882071339452,44.02242628352795],[-121.2538612880145,44.022452283641115],[-121.25519805392082,44.02245926183159],[-121.25517284270236,44.022513995026536],[-121.25442250150509,44.02414293895188],[-121.25381882644764,44.02545341045988],[-121.2535299363371,44.02608051857941],[-121.25295912614435,44.027319565419496],[-121.25186204602717,44.02970082234735],[-121.25019718303976,44.03331409147844],[-121.2486394450483,44.03669444693469],[-121.24857227172627,44.036840205725525],[-121.24361929632126,44.03678319383863],[-121.24361933494882,44.036769441671055],[-121.24361940232245,44.036745397488566],[-121.2436290897545,44.0332711081809],[-121.24363224373944,44.03214021872584],[-121.24363463235977,44.03128347943502],[-121.24363663560288,44.030564849160875],[-121.24363917873343,44.02965284901436],[-121.2437096650422,44.026026459778194],[-121.24378014416445,44.02240006442641]]]]}}]}